{
  "type" : "FeatureCollection",
  "features" : [{"type":"Feature","id":0,"geometry":{"type":"Polygon","coordinates":[[[77.452176831341987,21.34409809758348],[77.451906292382489,21.345459002434648],[77.450432088875033,21.345432411138901],[77.452547469860207,21.343378855912515],[77.452176831341987,21.34409809758348]]]},"properties":{"FID":0,"Join_Count":2,"TARGET_FID":1,"Layer":"TEXT_PARCEL","Text":"65","vill_code":"531857","LGD_CODE":"531857"}},{"type":"Feature","id":1,"geometry":{"type":"Polygon","coordinates":[[[77.450932462915731,21.347131620188971],[77.449374780133198,21.347348898408452],[77.449183833169414,21.34666848525686],[77.450432088875033,21.345432411138894],[77.451906292382489,21.345459002434655],[77.45251153855132,21.346593663681386],[77.452353686651847,21.346895820245027],[77.450932462915731,21.347131620188971]]]},"properties":{"FID":1,"Join_Count":2,"TARGET_FID":25,"Layer":"TEXT_PARCEL","Text":"64","vill_code":"531857","LGD_CODE":"531857"}},{"type":"Feature","id":2,"geometry":{"type":"Polygon","coordinates":[[[77.453042713052895,21.348210625297103],[77.449697686195861,21.348414414844381],[77.449642140441853,21.348318058783949],[77.449405632684517,21.347907781903015],[77.449374780133198,21.347348898408452],[77.450932462915731,21.347131620188971],[77.452353686651847,21.346895820245027],[77.453080927756744,21.347530639617524],[77.453042713052895,21.348210625297103]]]},"properties":{"FID":2,"Join_Count":2,"TARGET_FID":25,"Layer":"TEXT_PARCEL","Text":"63","vill_code":"531857","LGD_CODE":"531857"}},{"type":"Feature","id":3,"geometry":{"type":"Polygon","coordinates":[[[77.449697686195861,21.348414414844378],[77.449485154524112,21.348927586875227],[77.447639327488801,21.348817337655522],[77.44722923342691,21.348790643549592],[77.447052802252244,21.348685133096438],[77.447538062295152,21.34827106965686],[77.44908339940794,21.346767937469334],[77.449183833169414,21.34666848525686],[77.449374780133198,21.347348898408452],[77.449405632684517,21.347907781903015],[77.449642140441853,21.348318058783949],[77.449697686195861,21.348414414844378]]]},"properties":{"FID":3,"Join_Count":2,"TARGET_FID":4,"Layer":"TEXT_PARCEL","Text":"66","vill_code":"531857","LGD_CODE":"531857"}},{"type":"Feature","id":4,"geometry":{"type":"Polygon","coordinates":[[[77.451447885469278,21.349125622802251],[77.449992322618371,21.349191210778816],[77.449485154524112,21.348927586875227],[77.449697686195861,21.348414414844378],[77.453042713052895,21.348210625297103],[77.453297026824146,21.348927896120308],[77.451447885469278,21.349125622802251]]]},"properties":{"FID":4,"Join_Count":2,"TARGET_FID":5,"Layer":"TEXT_PARCEL","Text":"62","vill_code":"531857","LGD_CODE":"531857"}},{"type":"Feature","id":5,"geometry":{"type":"Polygon","coordinates":[[[77.457668855130848,21.349574178731736],[77.455769525731128,21.349831228386229],[77.455739067730477,21.349811927183342],[77.455489004400633,21.349170373389775],[77.454898914963366,21.348764252627539],[77.455681187458964,21.34848366139056],[77.455820878109805,21.348395220201731],[77.457576435839798,21.348181491184217],[77.457668855130848,21.349574178731736]]]},"properties":{"FID":5,"Join_Count":2,"TARGET_FID":25,"Layer":"TEXT_PARCEL","Text":"34","vill_code":"531857","LGD_CODE":"531857"}},{"type":"Feature","id":6,"geometry":{"type":"Polygon","coordinates":[[[77.464366960989139,21.349781000089003],[77.462863300495741,21.350136095222528],[77.462701100832618,21.348727097827876],[77.462911430584143,21.347732316561462],[77.464104488611952,21.347648743004502],[77.464366960989139,21.349781000089003]]]},"properties":{"FID":6,"Join_Count":2,"TARGET_FID":7,"Layer":"TEXT_PARCEL","Text":"13","vill_code":"531857","LGD_CODE":"531857"}},{"type":"Feature","id":7,"geometry":{"type":"Polygon","coordinates":[[[77.446839465554277,21.349763150011249],[77.445923714772249,21.350584947946274],[77.444648958945862,21.350590855266855],[77.444697670273186,21.350493148972063],[77.445203680241846,21.350119961392977],[77.445715656775818,21.349911989188726],[77.446141726306209,21.349497452413413],[77.446556890790276,21.349181011375386],[77.446763246708485,21.349077341487671],[77.446999185085403,21.348843880958633],[77.447052802252244,21.348685133096438],[77.44722923342691,21.348790643549592],[77.447639327488801,21.348817337655522],[77.446927962213564,21.349147335132702],[77.446839465554277,21.349763150011249]]]},"properties":{"FID":7,"Join_Count":2,"TARGET_FID":8,"Layer":"TEXT_PARCEL","Text":"68","vill_code":"531857","LGD_CODE":"531857"}},{"type":"Feature","id":8,"geometry":{"type":"Polygon","coordinates":[[[77.448245386417142,21.350765088790411],[77.448039695235593,21.3508146228131],[77.44772217542085,21.350576597053866],[77.445923714772249,21.350584947946274],[77.446839465554277,21.349763150011249],[77.446927962213564,21.349147335132702],[77.447639327488801,21.348817337655522],[77.449485154524112,21.348927586875227],[77.449100812825989,21.349845888370456],[77.448382500088826,21.350280671381643],[77.448245386417142,21.350765088790411]]]},"properties":{"FID":8,"Join_Count":2,"TARGET_FID":9,"Layer":"TEXT_PARCEL","Text":"67","vill_code":"531857","LGD_CODE":"531857"}},{"type":"Feature","id":9,"geometry":{"type":"Polygon","coordinates":[[[77.468922419175172,21.350485247875731],[77.467801300691747,21.350553325422265],[77.467131389692085,21.348137922850967],[77.468993472671386,21.348451055968148],[77.469862722221734,21.348484010450655],[77.469825154061425,21.350430425150787],[77.468922419175172,21.350485247875731]]]},"properties":{"FID":9,"Join_Count":2,"TARGET_FID":10,"Layer":"TEXT_PARCEL","Text":"10","vill_code":"531857","LGD_CODE":"531857"}},{"type":"Feature","id":10,"geometry":{"type":"Polygon","coordinates":[[[77.460090111168284,21.350620236613594],[77.459641813636267,21.350712226924543],[77.459619711205448,21.350594428240662],[77.459475322534985,21.350633094346158],[77.459350379150933,21.350159331302912],[77.459253655305403,21.349048639773901],[77.459212991363074,21.34864541977684],[77.459320959358607,21.348608262677352],[77.459323250052876,21.348094927306292],[77.461360544025169,21.347846538351991],[77.461753018016665,21.349100384530679],[77.460809148668957,21.349164119971508],[77.460001621827246,21.349493048378093],[77.460024371025057,21.349713141918674],[77.459845401239818,21.349949548770912],[77.460090111168284,21.350620236613594]]]},"properties":{"FID":10,"Join_Count":2,"TARGET_FID":11,"Layer":"TEXT_PARCEL","Text":"29","vill_code":"531857","LGD_CODE":"531857"}},{"type":"Feature","id":11,"geometry":{"type":"Polygon","coordinates":[[[77.466687325919096,21.350669114914755],[77.465912024466263,21.350725097418628],[77.465827543613969,21.349043133490902],[77.465745194921723,21.347944995604308],[77.466273167671162,21.348114956028915],[77.467131389692085,21.348137922850967],[77.467801300691747,21.350553325422265],[77.466687325919096,21.350669114914755]]]},"properties":{"FID":11,"Join_Count":2,"TARGET_FID":12,"Layer":"TEXT_PARCEL","Text":"11","vill_code":"531857","LGD_CODE":"531857"}},{"type":"Feature","id":12,"geometry":{"type":"Polygon","coordinates":[[[77.465912024466263,21.350725097418628],[77.465628057773344,21.350746227509536],[77.465235737404768,21.349364552159507],[77.464366960989139,21.349781000089003],[77.464104488611952,21.347648743004502],[77.465563530061061,21.347886515705728],[77.465745194921723,21.347944995604308],[77.465827543613969,21.349043133490902],[77.465912024466263,21.350725097418628]]]},"properties":{"FID":12,"Join_Count":2,"TARGET_FID":13,"Layer":"TEXT_PARCEL","Text":"12","vill_code":"531857","LGD_CODE":"531857"}},{"type":"Feature","id":13,"geometry":{"type":"Polygon","coordinates":[[[77.462414742051848,21.350738592919047],[77.461728520132198,21.350905522923693],[77.461492760650771,21.350700330713771],[77.460701111705731,21.350712755824446],[77.460090111168284,21.350620236613601],[77.459845401239818,21.349949548770912],[77.460024371025057,21.349713141918681],[77.460001621827246,21.349493048378097],[77.460809148668957,21.349164119971508],[77.461753018016665,21.349100384530679],[77.462114283883722,21.350488494477609],[77.462311758347084,21.350449847556796],[77.462414742051848,21.350738592919047]]]},"properties":{"FID":13,"Join_Count":2,"TARGET_FID":25,"Layer":"TEXT_PARCEL","Text":"28","vill_code":"531857","LGD_CODE":"531857"}},{"type":"Feature","id":14,"geometry":{"type":"Polygon","coordinates":[[[77.455883388814968,21.350742874258529],[77.453714605377741,21.351114831658847],[77.453648238855394,21.350980732856598],[77.453082650321548,21.350599114132283],[77.453297026824146,21.348927896120308],[77.454568589636352,21.348835356989571],[77.454839232609871,21.348785659340205],[77.454898914963366,21.348764252627543],[77.455489004400633,21.349170373389772],[77.455739067730477,21.34981192718335],[77.455769525731128,21.349831228386225],[77.455872787917386,21.350657994751487],[77.455883388814968,21.350742874258529]]]},"properties":{"FID":14,"Join_Count":2,"TARGET_FID":15,"Layer":"TEXT_PARCEL","Text":"35","vill_code":"531857","LGD_CODE":"531857"}},{"type":"Feature","id":15,"geometry":{"type":"Polygon","coordinates":[[[77.453011583665457,21.351247491010284],[77.451625566340113,21.351278377303217],[77.45150551077532,21.34982381333695],[77.451447885469278,21.349125622802251],[77.453297026824146,21.348927896120308],[77.453082650321548,21.350599114132283],[77.453011583665457,21.351247491010284]]]},"properties":{"FID":15,"Join_Count":2,"TARGET_FID":16,"Layer":"TEXT_PARCEL","Text":"59","vill_code":"531857","LGD_CODE":"531857"}},{"type":"Feature","id":16,"geometry":{"type":"Polygon","coordinates":[[[77.451625566340113,21.351278377303217],[77.450791355829224,21.351296961055514],[77.449879078553295,21.350178179948372],[77.450210963728068,21.350218014717601],[77.450393352620779,21.350002652781413],[77.45150551077532,21.34982381333695],[77.451625566340113,21.351278377303217]]]},"properties":{"FID":16,"Join_Count":2,"TARGET_FID":17,"Layer":"TEXT_PARCEL","Text":"60","vill_code":"531857","LGD_CODE":"531857"}},{"type":"Feature","id":17,"geometry":{"type":"Polygon","coordinates":[[[77.462880218600503,21.351124903616487],[77.462805187993567,21.351135582403401],[77.462553806813432,21.351128501881576],[77.462414742051848,21.350738592919047],[77.462311758347084,21.350449847556796],[77.462114283883722,21.350488494477609],[77.461753018016665,21.349100384530679],[77.461360544025169,21.347846538351991],[77.462262360774403,21.34787905529479],[77.462911430584143,21.347732316561462],[77.462701100832618,21.348727097827876],[77.462863300495741,21.350136095222528],[77.462880218600503,21.351124903616487]]]},"properties":{"FID":17,"Join_Count":2,"TARGET_FID":18,"Layer":"TEXT_PARCEL","Text":"14","vill_code":"531857","LGD_CODE":"531857"}},{"type":"Feature","id":18,"geometry":{"type":"Polygon","coordinates":[[[77.458284306370643,21.351235770877249],[77.456733975712595,21.351344945516033],[77.455872787917386,21.350657994751487],[77.455769525731128,21.349831228386225],[77.457668855130848,21.349574178731739],[77.458029910951907,21.349217550805225],[77.459253655305403,21.349048639773901],[77.459350379150933,21.350159331302912],[77.458134024504517,21.350350106135309],[77.458284306370643,21.351235770877249]]]},"properties":{"FID":18,"Join_Count":2,"TARGET_FID":19,"Layer":"TEXT_PARCEL","Text":"33","vill_code":"531857","LGD_CODE":"531857"}},{"type":"Feature","id":19,"geometry":{"type":"Polygon","coordinates":[[[77.449063704726683,21.351608292218724],[77.449062464097253,21.35164306990406],[77.447861694318021,21.351490968034973],[77.448039695235593,21.3508146228131],[77.448245386417142,21.350765088790411],[77.448382500088826,21.350280671381643],[77.449100812825989,21.349845888370456],[77.449063704726683,21.351608292218724]]]},"properties":{"FID":19,"Join_Count":2,"TARGET_FID":20,"Layer":"TEXT_PARCEL","Text":"70","vill_code":"531857","LGD_CODE":"531857"}},{"type":"Feature","id":20,"geometry":{"type":"Polygon","coordinates":[[[77.449879078553408,21.350178179948447],[77.45079135582921,21.351296961055489],[77.450945547606921,21.351801074246517],[77.450592334806231,21.352090288031548],[77.450431559292781,21.352052277273224],[77.449810746874448,21.351737851024325],[77.449062464097381,21.351643069904139],[77.449063704726655,21.351608292218831],[77.449100812825975,21.349845888370574],[77.449375717030648,21.349189064134865],[77.449879078553408,21.350178179948447]]]},"properties":{"FID":20,"Join_Count":3,"TARGET_FID":21,"Layer":"TEXT_PARCEL","Text":"71","vill_code":"531857","LGD_CODE":"531857"}},{"type":"Feature","id":21,"geometry":{"type":"Polygon","coordinates":[[[77.445533192570238,21.352293440264727],[77.443941849838879,21.352354826414103],[77.44451408928505,21.350847232822282],[77.444648958945862,21.350590855266855],[77.445923714772249,21.350584947946274],[77.44772217542085,21.350576597053866],[77.448039695235593,21.3508146228131],[77.447861694318021,21.351490968034973],[77.447748596998707,21.351920696546088],[77.446755671736625,21.352124789300476],[77.445533192570238,21.352293440264727]]]},"properties":{"FID":21,"Join_Count":2,"TARGET_FID":22,"Layer":"TEXT_PARCEL","Text":"69","vill_code":"531857","LGD_CODE":"531857"}},{"type":"Feature","id":22,"geometry":{"type":"Polygon","coordinates":[[[77.459185880662389,21.352464406038518],[77.458363512565981,21.352548274090466],[77.457706782020367,21.35226832347638],[77.456733975712595,21.351344945516033],[77.458284306370643,21.351235770877249],[77.458134024504517,21.350350106135309],[77.459350379150933,21.350159331302912],[77.459475322534985,21.350633094346158],[77.459619711205448,21.350594428240662],[77.459641813636267,21.350712226924543],[77.459927003844356,21.352232176278672],[77.459201050440086,21.352283169894513],[77.459185880662389,21.352464406038518]]]},"properties":{"FID":22,"Join_Count":2,"TARGET_FID":23,"Layer":"TEXT_PARCEL","Text":"32","vill_code":"531857","LGD_CODE":"531857"}},{"type":"Feature","id":23,"geometry":{"type":"Polygon","coordinates":[[[77.46914229499518,21.352118951619723],[77.468325028717047,21.352542383507974],[77.468922419175172,21.350485247875731],[77.469825154061425,21.350430425150787],[77.469862722221734,21.348484010450655],[77.471180317287903,21.34851093083094],[77.47145990800152,21.350483211075787],[77.471162281062561,21.350681878630464],[77.469554549239845,21.35185962586695],[77.46914229499518,21.352118951619723]]]},"properties":{"FID":23,"Join_Count":2,"TARGET_FID":24,"Layer":"TEXT_PARCEL","Text":"9","vill_code":"531857","LGD_CODE":"531857"}},{"type":"Feature","id":24,"geometry":{"type":"Polygon","coordinates":[[[77.462295110635367,21.352785874232136],[77.461320157867121,21.352870823767518],[77.460701111705731,21.350712755824436],[77.461492760650771,21.350700330713771],[77.461728520132198,21.350905522923689],[77.462414742051848,21.350738592919047],[77.462553806813432,21.351128501881576],[77.462805187993567,21.351135582403401],[77.462295110635367,21.352785874232136]]]},"properties":{"FID":24,"Join_Count":2,"TARGET_FID":25,"Layer":"TEXT_PARCEL","Text":"27","vill_code":"531857","LGD_CODE":"531857"}},{"type":"Feature","id":25,"geometry":{"type":"Polygon","coordinates":[[[77.461320157867121,21.352870823767518],[77.460272849149987,21.352957507166344],[77.459927003844356,21.352232176278672],[77.459641813636267,21.350712226924543],[77.460090111168284,21.350620236613594],[77.460701111705731,21.350712755824436],[77.461320157867121,21.352870823767518]]]},"properties":{"FID":25,"Join_Count":2,"TARGET_FID":26,"Layer":"TEXT_PARCEL","Text":"30","vill_code":"531857","LGD_CODE":"531857"}},{"type":"Feature","id":26,"geometry":{"type":"Polygon","coordinates":[[[77.460272849149987,21.352957507166344],[77.459036277293478,21.353131638039294],[77.458469491974611,21.352756620200598],[77.458363512565981,21.352548274090466],[77.459185880662389,21.352464406038518],[77.459201050440086,21.352283169894513],[77.459927003844356,21.352232176278672],[77.460272849149987,21.352957507166344]]]},"properties":{"FID":26,"Join_Count":3,"TARGET_FID":27,"Layer":"TEXT_PARCEL","Text":"31","vill_code":"531857","LGD_CODE":"531857"}},{"type":"Feature","id":27,"geometry":{"type":"Polygon","coordinates":[[[77.447763372303768,21.353102245500551],[77.447880883900226,21.353365311543484],[77.445867455320652,21.353249390196691],[77.445533192570238,21.352293440264727],[77.446755671736625,21.352124789300476],[77.447748596998707,21.351920696546088],[77.447861694318021,21.351490968034973],[77.449062464097253,21.35164306990406],[77.449013284634489,21.353021547975185],[77.447763372303768,21.353102245500551]]]},"properties":{"FID":27,"Join_Count":2,"TARGET_FID":28,"Layer":"TEXT_PARCEL","Text":"74","vill_code":"531857","LGD_CODE":"531857"}},{"type":"Feature","id":28,"geometry":{"type":"Polygon","coordinates":[[[77.452166974621747,21.35261121237798],[77.452229840129533,21.353585307787867],[77.450645445560767,21.353575157854262],[77.450561557392192,21.353202308978709],[77.45055659074238,21.35290372850741],[77.450592334806132,21.352090288031487],[77.450945547606878,21.351801074246445],[77.450791355829224,21.351296961055514],[77.451625566340113,21.351278377303217],[77.453011583665457,21.351247491010284],[77.452921207241346,21.351452876617532],[77.452166974621747,21.35261121237798]]]},"properties":{"FID":28,"Join_Count":2,"TARGET_FID":29,"Layer":"TEXT_PARCEL","Text":"58","vill_code":"531857","LGD_CODE":"531857"}},{"type":"Feature","id":29,"geometry":{"type":"Polygon","coordinates":[[[77.455658908271175,21.35381021807396],[77.454881802244827,21.353904723864943],[77.454626282353956,21.352553052256859],[77.454216917076522,21.352580958462774],[77.453714605377741,21.351114831658847],[77.455883388814968,21.350742874258529],[77.455960356218853,21.351790865915529],[77.455495941307817,21.35201320117875],[77.455658908271175,21.35381021807396]]]},"properties":{"FID":29,"Join_Count":2,"TARGET_FID":30,"Layer":"TEXT_PARCEL","Text":"36","vill_code":"531857","LGD_CODE":"531857"}},{"type":"Feature","id":30,"geometry":{"type":"Polygon","coordinates":[[[77.450645445560767,21.353575157854262],[77.449848618077723,21.354203558133779],[77.448126572971475,21.354174740447792],[77.447880883900226,21.353365311543484],[77.447763372303768,21.353102245500551],[77.449013284634489,21.353021547975185],[77.449062464097253,21.35164306990406],[77.449810746874363,21.351737851024232],[77.450431559292696,21.352052277273309],[77.450592334806132,21.352090288031487],[77.45055659074238,21.35290372850741],[77.450561557392192,21.353202308978709],[77.450645445560767,21.353575157854262]]]},"properties":{"FID":30,"Join_Count":2,"TARGET_FID":31,"Layer":"TEXT_PARCEL","Text":"72","vill_code":"531857","LGD_CODE":"531857"}},{"type":"Feature","id":31,"geometry":{"type":"Polygon","coordinates":[[[77.466166701322791,21.353889149186895],[77.46514459179005,21.35401260453601],[77.465123899758055,21.353926867547241],[77.4646429088112,21.352758546279052],[77.464366960989139,21.349781000089003],[77.465235737404768,21.349364552159507],[77.465628057773344,21.350746227509536],[77.465912024466263,21.350725097418628],[77.466166701322791,21.353889149186895]]]},"properties":{"FID":31,"Join_Count":2,"TARGET_FID":32,"Layer":"TEXT_PARCEL","Text":"16","vill_code":"531857","LGD_CODE":"531857"}},{"type":"Feature","id":32,"geometry":{"type":"Polygon","coordinates":[[[77.462378686967696,21.354243550341156],[77.461630302164806,21.354328932113365],[77.461623917022067,21.354248831970221],[77.461322653047276,21.354267193296224],[77.461467857236272,21.35387257801467],[77.461905774581666,21.353287774324169],[77.462295110635367,21.352785874232136],[77.462805187993567,21.351135582403401],[77.462880218600503,21.351124903616487],[77.463996316437971,21.352602194583962],[77.463573318710672,21.353907696593133],[77.463305551207057,21.353900304595669],[77.46337349391942,21.354067020265628],[77.462821937242381,21.354069113647768],[77.462378686967696,21.354243550341156]]]},"properties":{"FID":32,"Join_Count":2,"TARGET_FID":33,"Layer":"TEXT_PARCEL","Text":"17","vill_code":"531857","LGD_CODE":"531857"}},{"type":"Feature","id":33,"geometry":{"type":"Polygon","coordinates":[[[77.465123899758055,21.353926867547241],[77.463510898856427,21.354435434969893],[77.46337349391942,21.354067020265628],[77.463305551207057,21.353900304595669],[77.463573318710672,21.353907696593133],[77.463996316437971,21.352602194583962],[77.462880218600503,21.351124903616487],[77.462863300495741,21.350136095222528],[77.464366960989139,21.349781000089003],[77.4646429088112,21.352758546279052],[77.465123899758055,21.353926867547241]]]},"properties":{"FID":33,"Join_Count":2,"TARGET_FID":34,"Layer":"TEXT_PARCEL","Text":"15","vill_code":"531857","LGD_CODE":"531857"}},{"type":"Feature","id":34,"geometry":{"type":"Polygon","coordinates":[[[77.453380960996185,21.354912188828106],[77.453267508557929,21.354951103053967],[77.45232773091233,21.354952619080688],[77.452229840129533,21.353585307787867],[77.452166974621747,21.35261121237798],[77.452921207241346,21.351452876617532],[77.453011583665457,21.351247491010284],[77.453663595323562,21.353123261600476],[77.453380960996185,21.354912188828106]]]},"properties":{"FID":34,"Join_Count":2,"TARGET_FID":35,"Layer":"TEXT_PARCEL","Text":"55","vill_code":"531857","LGD_CODE":"531857"}},{"type":"Feature","id":35,"geometry":{"type":"Polygon","coordinates":[[[77.461190077365174,21.354627487002141],[77.459511420628573,21.354918683417736],[77.459474596347292,21.353860005071216],[77.459036277293478,21.353131638039294],[77.460272849149987,21.352957507166344],[77.461320157867121,21.352870823767518],[77.462295110635367,21.352785874232136],[77.461905774581666,21.353287774324169],[77.461467857236272,21.35387257801467],[77.461322653047276,21.354267193296224],[77.461190077365174,21.354627487002141]]]},"properties":{"FID":35,"Join_Count":2,"TARGET_FID":36,"Layer":"TEXT_PARCEL","Text":"26","vill_code":"531857","LGD_CODE":"531857"}},{"type":"Feature","id":36,"geometry":{"type":"Polygon","coordinates":[[[77.45232773091233,21.354952619080688],[77.450943088297734,21.355067683866146],[77.450645445560767,21.353575157854262],[77.452229840129533,21.353585307787867],[77.45232773091233,21.354952619080688]]]},"properties":{"FID":36,"Join_Count":2,"TARGET_FID":37,"Layer":"TEXT_PARCEL","Text":"57","vill_code":"531857","LGD_CODE":"531857"}},{"type":"Feature","id":37,"geometry":{"type":"Polygon","coordinates":[[[77.468818996813141,21.353754746166256],[77.46835952264351,21.354900605078807],[77.46815409389724,21.354786870037525],[77.467455329877808,21.354309477533672],[77.466948933251558,21.354230440978856],[77.466564827080973,21.35409771763468],[77.466166701322791,21.353889149186895],[77.465912024466263,21.350725097418628],[77.466687325919096,21.350669114914755],[77.467801300691747,21.350553325422265],[77.468922419175172,21.350485247875731],[77.468325028717047,21.352542383507974],[77.46914229499518,21.352118951619723],[77.469554549239845,21.35185962586695],[77.469553316241971,21.351955114627874],[77.468818996813141,21.353754746166256]]]},"properties":{"FID":37,"Join_Count":2,"TARGET_FID":38,"Layer":"TEXT_PARCEL","Text":"8","vill_code":"531857","LGD_CODE":"531857"}},{"type":"Feature","id":38,"geometry":{"type":"Polygon","coordinates":[[[77.454803644480819,21.354711261322553],[77.454421360301225,21.355333664437524],[77.453520689856333,21.354864262208249],[77.453380960996185,21.354912188828106],[77.453663595323562,21.353123261600476],[77.454717729340032,21.354613312817364],[77.454803644480819,21.354711261322553]]]},"properties":{"FID":38,"Join_Count":2,"TARGET_FID":39,"Layer":"TEXT_PARCEL","Text":"54","vill_code":"531857","LGD_CODE":"531857"}},{"type":"Feature","id":39,"geometry":{"type":"Polygon","coordinates":[[[77.446471144679208,21.356270439493887],[77.446358347718629,21.356435197409446],[77.446147615554452,21.356389889431604],[77.444073963159781,21.356420097168147],[77.443200428894912,21.354838914613264],[77.443244560277748,21.354834947719397],[77.443208690817229,21.353987070459286],[77.444934151319643,21.354363513799505],[77.446373547235694,21.354486035104511],[77.447269080979936,21.354612396272845],[77.447314178966181,21.355415015566546],[77.447097441651479,21.355672055965783],[77.446471144679208,21.356270439493887]]]},"properties":{"FID":39,"Join_Count":2,"TARGET_FID":40,"Layer":"TEXT_PARCEL","Text":"76","vill_code":"531857","LGD_CODE":"531857"}},{"type":"Feature","id":40,"geometry":{"type":"Polygon","coordinates":[[[77.45751520113248,21.354436649762761],[77.454717729340132,21.354613312817431],[77.453663595323633,21.353123261600615],[77.453011583665443,21.351247491010387],[77.453082650321619,21.350599114132304],[77.453648238855521,21.350980732856673],[77.453714605377741,21.351114831658943],[77.454216917076451,21.352580958462912],[77.454626282353956,21.352553052256841],[77.454881802244927,21.3539047238649],[77.455658908271175,21.353810218073985],[77.455495941307902,21.352013201178696],[77.455960356218839,21.351790865915632],[77.455883388815039,21.350742874258628],[77.455872787917428,21.350657994751433],[77.456733975712666,21.351344945516018],[77.457515702801743,21.352086953004516],[77.45751520113248,21.354436649762761]]]},"properties":{"FID":40,"Join_Count":3,"TARGET_FID":41,"Layer":"TEXT_PARCEL","Text":"37","vill_code":"531857","LGD_CODE":"531857"}},{"type":"Feature","id":41,"geometry":{"type":"Polygon","coordinates":[[[77.458430473664606,21.35627892427669],[77.458033201467089,21.356289486468331],[77.457655122144814,21.356237019726414],[77.457806458911421,21.35502021280012],[77.458437362461609,21.354869083810417],[77.458430473664606,21.35627892427669]]]},"properties":{"FID":41,"Join_Count":2,"TARGET_FID":42,"Layer":"TEXT_PARCEL","Text":"39","vill_code":"531857","LGD_CODE":"531857"}},{"type":"Feature","id":42,"geometry":{"type":"Polygon","coordinates":[[[77.457655122144814,21.356237019726414],[77.457320855443612,21.356302687893706],[77.456432356115613,21.356267697207617],[77.456254836736051,21.355964731343423],[77.455510881472009,21.356124408429725],[77.454803644480819,21.354711261322553],[77.454717729340032,21.354613312817364],[77.457515201132423,21.354436649762732],[77.457806458911421,21.35502021280012],[77.457655122144814,21.356237019726414]]]},"properties":{"FID":42,"Join_Count":2,"TARGET_FID":43,"Layer":"TEXT_PARCEL","Text":"40","vill_code":"531857","LGD_CODE":"531857"}},{"type":"Feature","id":43,"geometry":{"type":"Polygon","coordinates":[[[77.44785112031775,21.353363597932056],[77.447563788875016,21.354817156995928],[77.447269080979993,21.354612396272891],[77.446373547235737,21.354486035104628],[77.444934151319671,21.354363513799512],[77.443208690817187,21.353987070459365],[77.443941849838893,21.352354826414171],[77.445533192570224,21.352293440264702],[77.445867455320695,21.353249390196709],[77.44785112031775,21.353363597932056]]]},"properties":{"FID":43,"Join_Count":3,"TARGET_FID":44,"Layer":"TEXT_PARCEL","Text":"75","vill_code":"531857","LGD_CODE":"531857"}},{"type":"Feature","id":44,"geometry":{"type":"Polygon","coordinates":[[[77.455608177508694,21.356557752125365],[77.452825402364937,21.35664064177908],[77.452872543059115,21.355590038518127],[77.45232773091233,21.354952619080688],[77.453267508557929,21.354951103053967],[77.453380960996185,21.354912188828106],[77.453520689856333,21.354864262208249],[77.454421360301225,21.355333664437524],[77.454803644480819,21.354711261322553],[77.455510881472009,21.356124408429725],[77.455608177508694,21.356557752125365]]]},"properties":{"FID":44,"Join_Count":2,"TARGET_FID":45,"Layer":"TEXT_PARCEL","Text":"53","vill_code":"531857","LGD_CODE":"531857"}},{"type":"Feature","id":45,"geometry":{"type":"Polygon","coordinates":[[[77.452818080328086,21.356803825963127],[77.451078507866782,21.356858686950211],[77.450615335740991,21.356255149643573],[77.450568599457924,21.355403496782827],[77.450943088297734,21.355067683866146],[77.45232773091233,21.354952619080688],[77.452872543059115,21.355590038518127],[77.452825402364937,21.35664064177908],[77.452818080328086,21.356803825963127]]]},"properties":{"FID":45,"Join_Count":2,"TARGET_FID":46,"Layer":"TEXT_PARCEL","Text":"56","vill_code":"531857","LGD_CODE":"531857"}},{"type":"Feature","id":46,"geometry":{"type":"Polygon","coordinates":[[[77.461180763861606,21.356021993482234],[77.461072738656441,21.356896485860375],[77.460057623634214,21.356235655932398],[77.459611557802518,21.356247519364128],[77.459511420628573,21.354918683417736],[77.461190077365174,21.354627487002141],[77.461297283763471,21.355243206893796],[77.461180763861606,21.356021993482234]]]},"properties":{"FID":46,"Join_Count":2,"TARGET_FID":47,"Layer":"TEXT_PARCEL","Text":"25","vill_code":"531857","LGD_CODE":"531857"}},{"type":"Feature","id":47,"geometry":{"type":"Polygon","coordinates":[[[77.449848887362137,21.357217002083409],[77.449772085382207,21.357313327433374],[77.448659252741365,21.357136613078957],[77.447286719866227,21.356637108118218],[77.446856008366481,21.356542194895823],[77.446358347718629,21.356435197409446],[77.446471144679208,21.356270439493887],[77.447097441651479,21.355672055965783],[77.447314178966181,21.355415015566546],[77.447269080979936,21.354612396272845],[77.4480126328979,21.35512901028569],[77.449100196468422,21.355960475878899],[77.450049377846895,21.356639769662713],[77.450589861884197,21.357078242871552],[77.449848887362137,21.357217002083409]]]},"properties":{"FID":47,"Join_Count":2,"TARGET_FID":48,"Layer":"TEXT_PARCEL","Text":"83","vill_code":"531857","LGD_CODE":"531857"}},{"type":"Feature","id":48,"geometry":{"type":"Polygon","coordinates":[[[77.46404932917963,21.357083286926979],[77.462931621791583,21.357160956198232],[77.462681064323604,21.356142757656592],[77.462678584460207,21.355344890122289],[77.461866779360335,21.355464346070736],[77.461643629378642,21.354496099209516],[77.461630302164806,21.354328932113365],[77.462378686967696,21.354243550341156],[77.462821937242381,21.354069113647768],[77.46337349391942,21.354067020265628],[77.463510898856427,21.354435434969893],[77.463626197713268,21.355485755700435],[77.46404932917963,21.357083286926979]]]},"properties":{"FID":48,"Join_Count":2,"TARGET_FID":49,"Layer":"TEXT_PARCEL","Text":"18","vill_code":"531857","LGD_CODE":"531857"}},{"type":"Feature","id":49,"geometry":{"type":"Polygon","coordinates":[[[77.458033201467089,21.356289486468331],[77.458042605098697,21.357433767818637],[77.455713752456504,21.357411932454465],[77.455608177508694,21.356557752125365],[77.455510881472009,21.356124408429725],[77.456254836736051,21.355964731343423],[77.456432356115613,21.356267697207617],[77.457320855443612,21.356302687893706],[77.457655122144814,21.356237019726414],[77.458033201467089,21.356289486468331]]]},"properties":{"FID":49,"Join_Count":2,"TARGET_FID":50,"Layer":"TEXT_PARCEL","Text":"41","vill_code":"531857","LGD_CODE":"531857"}},{"type":"Feature","id":50,"geometry":{"type":"Polygon","coordinates":[[[77.462931621791583,21.357160956198232],[77.461068414625714,21.357413957484173],[77.461072738656441,21.356896485860375],[77.461180763861606,21.356021993482234],[77.461297283763471,21.355243206893796],[77.461190077365174,21.354627487002141],[77.461322653047276,21.354267193296224],[77.461623917022067,21.354248831970221],[77.461630302164806,21.354328932113365],[77.461643629378642,21.354496099209516],[77.461866779360335,21.355464346070736],[77.462678584460207,21.355344890122289],[77.462681064323604,21.356142757656592],[77.462931621791583,21.357160956198232]]]},"properties":{"FID":50,"Join_Count":2,"TARGET_FID":51,"Layer":"TEXT_PARCEL","Text":"24","vill_code":"531857","LGD_CODE":"531857"}},{"type":"Feature","id":51,"geometry":{"type":"Polygon","coordinates":[[[77.445921180403957,21.357758497649783],[77.444503264522282,21.357880521071174],[77.444073963159781,21.356420097168147],[77.446147615554452,21.356389889431604],[77.446358347718629,21.356435197409446],[77.446171684364757,21.35714230751076],[77.445921180403957,21.357758497649783]]]},"properties":{"FID":51,"Join_Count":2,"TARGET_FID":52,"Layer":"TEXT_PARCEL","Text":"81","vill_code":"531857","LGD_CODE":"531857"}},{"type":"Feature","id":52,"geometry":{"type":"Polygon","coordinates":[[[77.465505947781679,21.356200153632727],[77.465454020216697,21.357652277955353],[77.464093868575858,21.357260094348852],[77.46404932917963,21.357083286926979],[77.463626197713268,21.355485755700435],[77.463510898856427,21.354435434969893],[77.465123899758055,21.353926867547241],[77.46514459179005,21.35401260453601],[77.465365180091652,21.35492659341006],[77.465505947781679,21.356200153632727]]]},"properties":{"FID":52,"Join_Count":2,"TARGET_FID":53,"Layer":"TEXT_PARCEL","Text":"19","vill_code":"531857","LGD_CODE":"531857"}},{"type":"Feature","id":53,"geometry":{"type":"Polygon","coordinates":[[[77.466844312936871,21.357335813329282],[77.466765333104533,21.357704474585546],[77.465454020216697,21.357652277955353],[77.465505947781679,21.356200153632727],[77.465365180091652,21.35492659341006],[77.46514459179005,21.35401260453601],[77.466166701322791,21.353889149186895],[77.466564827080973,21.35409771763468],[77.466948933251558,21.354230440978856],[77.467455329877808,21.354309477533672],[77.46815409389724,21.354786870037525],[77.46835952264351,21.354900605078807],[77.46812801011572,21.355215335288381],[77.467592297302801,21.355942787945107],[77.467403943402502,21.356100261901329],[77.467200554471944,21.356237329761324],[77.467009690777033,21.356683622503098],[77.466844312936871,21.357335813329282]]]},"properties":{"FID":53,"Join_Count":2,"TARGET_FID":54,"Layer":"TEXT_PARCEL","Text":"7","vill_code":"531857","LGD_CODE":"531857"}},{"type":"Feature","id":54,"geometry":{"type":"Polygon","coordinates":[[[77.455650100705441,21.357901204211345],[77.454442130133089,21.357988931767167],[77.454292242770606,21.357709311666859],[77.452951439355516,21.357824750769556],[77.452818080328086,21.356803825963127],[77.452825402364937,21.35664064177908],[77.455608177508694,21.356557752125365],[77.455713752456504,21.357411932454465],[77.455650100705441,21.357901204211345]]]},"properties":{"FID":54,"Join_Count":2,"TARGET_FID":55,"Layer":"TEXT_PARCEL","Text":"52","vill_code":"531857","LGD_CODE":"531857"}},{"type":"Feature","id":55,"geometry":{"type":"Polygon","coordinates":[[[77.458042605098697,21.357433767818637],[77.457915880908772,21.358316554970454],[77.456021937407314,21.358332500496104],[77.456016084130624,21.358277201484849],[77.455650100705441,21.357901204211348],[77.455713752456504,21.357411932454465],[77.458042605098697,21.357433767818637]]]},"properties":{"FID":55,"Join_Count":2,"TARGET_FID":25,"Layer":"TEXT_PARCEL","Text":"42","vill_code":"531857","LGD_CODE":"531857"}},{"type":"Feature","id":56,"geometry":{"type":"Polygon","coordinates":[[[77.44117150443364,21.358073179380302],[77.440376695939165,21.358600022835564],[77.440217979996177,21.357648801258264],[77.440198453147005,21.357125613288066],[77.442154644250579,21.355746699004534],[77.442257872181159,21.355581150084276],[77.442341330492752,21.356623095149573],[77.441069350012754,21.357454818575743],[77.44117150443364,21.358073179380302]]]},"properties":{"FID":56,"Join_Count":2,"TARGET_FID":57,"Layer":"TEXT_PARCEL","Text":"79","vill_code":"531857","LGD_CODE":"531857"}},{"type":"Feature","id":57,"geometry":{"type":"Polygon","coordinates":[[[77.46085884947307,21.35830221282097],[77.460001414125259,21.358330029237678],[77.457915880908772,21.35831655497045],[77.458042605098697,21.357433767818637],[77.458033201467089,21.356289486468331],[77.458430473664606,21.35627892427669],[77.459611557802518,21.356247519364128],[77.460057623634214,21.356235655932398],[77.461072738656441,21.356896485860375],[77.461068414625714,21.357413957484173],[77.46085884947307,21.35830221282097]]]},"properties":{"FID":57,"Join_Count":2,"TARGET_FID":58,"Layer":"TEXT_PARCEL","Text":"23","vill_code":"531857","LGD_CODE":"531857"}},{"type":"Feature","id":58,"geometry":{"type":"Polygon","coordinates":[[[77.454501829354271,21.358355009977853],[77.452103171824518,21.358658207861037],[77.452135546965337,21.357984221920322],[77.451684645160014,21.357981198445245],[77.451078507866782,21.356858686950211],[77.452818080328086,21.356803825963127],[77.452951439355516,21.357824750769556],[77.454292242770606,21.357709311666859],[77.454442130133089,21.357988931767167],[77.454501829354271,21.358355009977853]]]},"properties":{"FID":58,"Join_Count":2,"TARGET_FID":59,"Layer":"TEXT_PARCEL","Text":"51","vill_code":"531857","LGD_CODE":"531857"}},{"type":"Feature","id":59,"geometry":{"type":"Polygon","coordinates":[[[77.445436038356945,21.359312079383471],[77.444898543488961,21.359485811609186],[77.444503264522282,21.357880521071174],[77.445921180403957,21.357758497649783],[77.446171684364757,21.35714230751076],[77.446358347718629,21.356435197409446],[77.446856008366481,21.356542194895823],[77.447286719866227,21.356637108118218],[77.448659252741365,21.357136613078957],[77.449772085382207,21.357313327433374],[77.448399066867424,21.358704953610797],[77.447199560131878,21.35902850444965],[77.446326870004398,21.359191189998917],[77.445436038356945,21.359312079383471]]]},"properties":{"FID":59,"Join_Count":2,"TARGET_FID":60,"Layer":"TEXT_PARCEL","Text":"82","vill_code":"531857","LGD_CODE":"531857"}},{"type":"Feature","id":60,"geometry":{"type":"Polygon","coordinates":[[[77.443171623949084,21.358650882863401],[77.440531484201856,21.359627981630982],[77.440376695939165,21.358600022835564],[77.44117150443364,21.358073179380302],[77.441069350012754,21.357454818575743],[77.442341330492752,21.356623095149573],[77.443171623949084,21.358650882863401]]]},"properties":{"FID":60,"Join_Count":2,"TARGET_FID":61,"Layer":"TEXT_PARCEL","Text":"78","vill_code":"531857","LGD_CODE":"531857"}},{"type":"Feature","id":61,"geometry":{"type":"Polygon","coordinates":[[[77.444898543488961,21.359485811609186],[77.4443831824494,21.359652388353972],[77.443171623949084,21.358650882863401],[77.442341330492752,21.356623095149573],[77.442257872181159,21.355581150084276],[77.442637341715681,21.354889525042228],[77.443200428894912,21.354838914613254],[77.444073963159781,21.356420097168144],[77.444503264522282,21.357880521071174],[77.444898543488961,21.359485811609186]]]},"properties":{"FID":61,"Join_Count":2,"TARGET_FID":25,"Layer":"TEXT_PARCEL","Text":"77","vill_code":"531857","LGD_CODE":"531857"}},{"type":"Feature","id":62,"geometry":{"type":"Polygon","coordinates":[[[77.463327921554821,21.360090369383581],[77.46204084218121,21.360239176000505],[77.461601406773923,21.359802519205484],[77.461068414625714,21.357413957484173],[77.462931621791583,21.357160956198232],[77.463327921554821,21.360090369383581]]]},"properties":{"FID":62,"Join_Count":2,"TARGET_FID":63,"Layer":"TEXT_PARCEL","Text":"21","vill_code":"531857","LGD_CODE":"531857"}},{"type":"Feature","id":63,"geometry":{"type":"Polygon","coordinates":[[[77.452103171824518,21.358658207861037],[77.452800155822231,21.360448822402169],[77.452035609168703,21.359990091991875],[77.451919951513531,21.35985182641398],[77.451762456232942,21.359502355374872],[77.450589861884197,21.357078242871552],[77.450049377846895,21.356639769662713],[77.450615335740991,21.356255149643573],[77.451078507866782,21.356858686950211],[77.451684645160014,21.357981198445245],[77.452135546965337,21.357984221920322],[77.452103171824518,21.358658207861037]]]},"properties":{"FID":63,"Join_Count":2,"TARGET_FID":64,"Layer":"TEXT_PARCEL","Text":"50","vill_code":"531857","LGD_CODE":"531857"}},{"type":"Feature","id":64,"geometry":{"type":"Polygon","coordinates":[[[77.45422189461506,21.360239209764288],[77.452800155822231,21.360448822402169],[77.452103171824518,21.358658207861037],[77.454501829354271,21.358355009977853],[77.45479613066567,21.36015965986627],[77.45422189461506,21.360239209764288]]]},"properties":{"FID":64,"Join_Count":2,"TARGET_FID":65,"Layer":"TEXT_PARCEL","Text":"49","vill_code":"531857","LGD_CODE":"531857"}},{"type":"Feature","id":65,"geometry":{"type":"Polygon","coordinates":[[[77.458707029293237,21.360388597137131],[77.458668937555046,21.3604825044834],[77.457571243825939,21.360048191350621],[77.457915880908772,21.35831655497045],[77.460001414125259,21.358330029237678],[77.46085884947307,21.35830221282097],[77.461068414625714,21.357413957484173],[77.461601406773923,21.359802519205484],[77.460990298600649,21.359926265867159],[77.459165588138404,21.360295747815609],[77.458707029293237,21.360388597137131]]]},"properties":{"FID":65,"Join_Count":2,"TARGET_FID":66,"Layer":"TEXT_PARCEL","Text":"22","vill_code":"531857","LGD_CODE":"531857"}},{"type":"Feature","id":66,"geometry":{"type":"Polygon","coordinates":[[[77.457571243825939,21.360048191350621],[77.455765362902909,21.360603689974717],[77.455683143882254,21.360063103937737],[77.455780342740013,21.359242999862779],[77.456021937407314,21.3583325004961],[77.457915880908772,21.35831655497045],[77.457571243825939,21.360048191350621]]]},"properties":{"FID":66,"Join_Count":2,"TARGET_FID":67,"Layer":"TEXT_PARCEL","Text":"43","vill_code":"531857","LGD_CODE":"531857"}},{"type":"Feature","id":67,"geometry":{"type":"Polygon","coordinates":[[[77.465221693449536,21.359329870836085],[77.465027944381461,21.360730317227997],[77.463327921554821,21.360090369383581],[77.462931621791583,21.357160956198232],[77.46404932917963,21.357083286926979],[77.464093868575858,21.357260094348852],[77.465454020216697,21.357652277955353],[77.465427447836916,21.357946632571366],[77.465221693449536,21.359329870836085]]]},"properties":{"FID":67,"Join_Count":2,"TARGET_FID":68,"Layer":"TEXT_PARCEL","Text":"20","vill_code":"531857","LGD_CODE":"531857"}},{"type":"Feature","id":68,"geometry":{"type":"Polygon","coordinates":[[[77.448399066867424,21.358704953610797],[77.448098079234455,21.360992619669396],[77.445316941609349,21.360972715917974],[77.4443831824494,21.359652388353979],[77.444898543488961,21.359485811609186],[77.445436038356945,21.359312079383471],[77.446326870004398,21.359191189998917],[77.447199560131878,21.35902850444965],[77.448399066867424,21.358704953610797]]]},"properties":{"FID":68,"Join_Count":2,"TARGET_FID":69,"Layer":"TEXT_PARCEL","Text":"80","vill_code":"531857","LGD_CODE":"531857"}},{"type":"Feature","id":69,"geometry":{"type":"Polygon","coordinates":[[[77.451386280051892,21.361556962349994],[77.450143315753166,21.36173487280022],[77.449848887362137,21.357217002083409],[77.450589861884197,21.357078242871552],[77.451762456232942,21.359502355374872],[77.451919951513531,21.35985182641398],[77.452035609168703,21.359990091991875],[77.451386280051892,21.361556962349994]]]},"properties":{"FID":69,"Join_Count":2,"TARGET_FID":70,"Layer":"TEXT_PARCEL","Text":"84","vill_code":"531857","LGD_CODE":"531857"}},{"type":"Feature","id":70,"geometry":{"type":"Polygon","coordinates":[[[77.450143315753166,21.36173487280022],[77.448990207388874,21.361980256127612],[77.448100697190924,21.361066837325382],[77.448098079234455,21.360992619669396],[77.448399066867424,21.358704953610797],[77.449772085382207,21.357313327433374],[77.449848887362137,21.357217002083409],[77.450143315753166,21.36173487280022]]]},"properties":{"FID":70,"Join_Count":2,"TARGET_FID":71,"Layer":"TEXT_PARCEL","Text":"85","vill_code":"531857","LGD_CODE":"531857"}},{"type":"Feature","id":71,"geometry":{"type":"Polygon","coordinates":[[[77.45422189461506,21.360239209764295],[77.454299375418287,21.362048384465808],[77.453079969681681,21.361343325147782],[77.452800155822231,21.360448822402166],[77.45422189461506,21.360239209764295]]]},"properties":{"FID":71,"Join_Count":2,"TARGET_FID":25,"Layer":"TEXT_PARCEL","Text":"47","vill_code":"531857","LGD_CODE":"531857"}},{"type":"Feature","id":72,"geometry":{"type":"Polygon","coordinates":[[[77.455695788665139,21.36081173961114],[77.454995958521565,21.362199904250264],[77.454303120806571,21.362095441894827],[77.454299375418287,21.362048384465808],[77.45422189461506,21.360239209764288],[77.45479613066567,21.36015965986627],[77.454501829354271,21.358355009977853],[77.454442130133089,21.357988931767167],[77.455650100705441,21.357901204211345],[77.456016084130624,21.358277201484846],[77.456021937407314,21.3583325004961],[77.455780342740013,21.359242999862779],[77.455683143882254,21.360063103937737],[77.455765362902909,21.360603689974717],[77.455695788665139,21.36081173961114]]]},"properties":{"FID":72,"Join_Count":2,"TARGET_FID":73,"Layer":"TEXT_PARCEL","Text":"48","vill_code":"531857","LGD_CODE":"531857"}},{"type":"Feature","id":73,"geometry":{"type":"Polygon","coordinates":[[[77.466447598479022,21.361281462856066],[77.465877557045545,21.362480241322814],[77.464854330213669,21.36204915186967],[77.464979836591525,21.361266933153058],[77.465044683411378,21.361016750049114],[77.465027944381461,21.360730317227997],[77.465221693449536,21.359329870836085],[77.465427447836916,21.357946632571366],[77.465454020216697,21.357652277955353],[77.466765333104533,21.357704474585546],[77.467051635650762,21.358749175550326],[77.466905064015691,21.359208569454957],[77.466679918511502,21.360239806099891],[77.4664992662549,21.361125463922704],[77.466447598479022,21.361281462856066]]]},"properties":{"FID":73,"Join_Count":2,"TARGET_FID":74,"Layer":"TEXT_PARCEL","Text":"6","vill_code":"531857","LGD_CODE":"531857"}},{"type":"Feature","id":74,"geometry":{"type":"Polygon","coordinates":[[[77.4576804867161,21.362656338405877],[77.457684168478082,21.362759114363794],[77.45671487997916,21.36245905910295],[77.454995958521565,21.362199904250268],[77.455695788665139,21.36081173961114],[77.455765362902909,21.360603689974717],[77.457571243825939,21.360048191350621],[77.458668937555046,21.3604825044834],[77.4576804867161,21.362656338405877]]]},"properties":{"FID":74,"Join_Count":2,"TARGET_FID":25,"Layer":"TEXT_PARCEL","Text":"44","vill_code":"531857","LGD_CODE":"531857"}},{"type":"Feature","id":75,"geometry":{"type":"Polygon","coordinates":[[[77.464854330213669,21.36204915186967],[77.464287180434425,21.363871442832004],[77.463912471245266,21.362860886393726],[77.463736607048489,21.362085894594451],[77.464854330213669,21.36204915186967]]]},"properties":{"FID":75,"Join_Count":2,"TARGET_FID":76,"Layer":"TEXT_PARCEL","Text":"5","vill_code":"531857","LGD_CODE":"531857"}},{"type":"Feature","id":76,"geometry":{"type":"Polygon","coordinates":[[[77.454995958521565,21.362199904250264],[77.454695935522665,21.36409998960778],[77.454542155565932,21.364089573998214],[77.452554798726467,21.36295050168567],[77.452491187609965,21.362879502533797],[77.45139553646959,21.362951415857093],[77.451386280051892,21.361556962349994],[77.452035609168703,21.359990091991875],[77.452800155822231,21.360448822402169],[77.453079969681681,21.361343325147782],[77.454299375418287,21.362048384465808],[77.454303120806571,21.362095441894827],[77.454995958521565,21.362199904250264]]]},"properties":{"FID":76,"Join_Count":2,"TARGET_FID":77,"Layer":"TEXT_PARCEL","Text":"46","vill_code":"531857","LGD_CODE":"531857"}},{"type":"Feature","id":77,"geometry":{"type":"Polygon","coordinates":[[[77.457684168478082,21.362759114363786],[77.457999481741354,21.364333998402387],[77.456825324314337,21.36424420180272],[77.454695935522665,21.36409998960778],[77.454995958521565,21.362199904250264],[77.45671487997916,21.36245905910295],[77.457684168478082,21.362759114363786]]]},"properties":{"FID":77,"Join_Count":2,"TARGET_FID":78,"Layer":"TEXT_PARCEL","Text":"45","vill_code":"531857","LGD_CODE":"531857"}},{"type":"Feature","id":78,"geometry":{"type":"Polygon","coordinates":[[[77.459165588138404,21.360295747815609],[77.458949333696808,21.36449087984694],[77.458102473231179,21.364351009292694],[77.457999481741354,21.364333998402387],[77.457684168478082,21.362759114363786],[77.4576804867161,21.362656338405877],[77.458668937555046,21.3604825044834],[77.458707029293237,21.360388597137131],[77.459165588138404,21.360295747815609]]]},"properties":{"FID":78,"Join_Count":2,"TARGET_FID":79,"Layer":"TEXT_PARCEL","Text":"1","vill_code":"531857","LGD_CODE":"531857"}},{"type":"Feature","id":79,"geometry":{"type":"Polygon","coordinates":[[[77.460758680583552,21.362039716122304],[77.460481862569452,21.364698843453052],[77.45981527369463,21.364615968254338],[77.458949333696808,21.36449087984694],[77.459165588138404,21.360295747815609],[77.460990298600649,21.359926265867159],[77.460758680583552,21.362039716122304]]]},"properties":{"FID":79,"Join_Count":2,"TARGET_FID":80,"Layer":"TEXT_PARCEL","Text":"2","vill_code":"531857","LGD_CODE":"531857"}},{"type":"Feature","id":80,"geometry":{"type":"Polygon","coordinates":[[[77.461689289516769,21.36513291076518],[77.461690430804552,21.365201168408259],[77.461546240015252,21.36520328379445],[77.461545098794176,21.36513502614396],[77.461689289516769,21.36513291076518]]]},"properties":{"FID":80,"Join_Count":0,"TARGET_FID":82,"Layer":" ","Text":" ","vill_code":"531857","LGD_CODE":"531857"}},{"type":"Feature","id":81,"geometry":{"type":"Polygon","coordinates":[[[77.464360581918797,21.364365149412606],[77.463523720686823,21.365177562009567],[77.463136365403955,21.363951310333551],[77.462316332086431,21.361222143220658],[77.46204084218121,21.360239176000505],[77.463327921554821,21.360090369383581],[77.465027944381461,21.360730317227997],[77.465044683411378,21.361016750049114],[77.464979836591525,21.361266933153058],[77.464854330213669,21.36204915186967],[77.463736607048489,21.362085894594451],[77.463912471245266,21.362860886393726],[77.464287180434425,21.363871442832004],[77.464854330213669,21.36204915186967],[77.465877557045545,21.362480241322814],[77.464951147479411,21.36406633729047],[77.464950135334661,21.364117806161513],[77.464360581918797,21.364365149412606]]]},"properties":{"FID":81,"Join_Count":2,"TARGET_FID":83,"Layer":"TEXT_PARCEL","Text":"4","vill_code":"531857","LGD_CODE":"531857"}},{"type":"Feature","id":82,"geometry":{"type":"Polygon","coordinates":[[[77.463397014023414,21.365682749465549],[77.462455550888109,21.365828629380854],[77.46262814336788,21.365109508181945],[77.461419668050027,21.364929034511153],[77.461035330007846,21.364675480136484],[77.460481862569452,21.364698843453052],[77.460758680583552,21.362039716122304],[77.460990298600649,21.359926265867159],[77.461601406773923,21.359802519205484],[77.46204084218121,21.360239176000505],[77.462316332086431,21.361222143220658],[77.463136365403955,21.363951310333551],[77.463523720686823,21.365177562009567],[77.463397014023414,21.365682749465549]]]},"properties":{"FID":82,"Join_Count":2,"TARGET_FID":94,"Layer":"TEXT_PARCEL","Text":"3","vill_code":"531857","LGD_CODE":"531857"}},{"type":"Feature","id":83,"geometry":{"type":"Polygon","coordinates":[[[77.464830316387193,21.368638363210255],[77.463497052686648,21.369010033160027],[77.461796492815751,21.366806483600293],[77.461706986950745,21.365875189225747],[77.462455550888109,21.365828629380854],[77.463397014023414,21.365682749465549],[77.463523720686823,21.365177562009567],[77.464360581918797,21.364365149412606],[77.464950135334661,21.364117806161513],[77.464931513865665,21.365064789260661],[77.464821681783292,21.367280402590108],[77.464770981637372,21.368600176965707],[77.464830316387193,21.368638363210255]]]},"properties":{"FID":83,"Join_Count":2,"TARGET_FID":95,"Layer":"TEXT_PARCEL","Text":"92","vill_code":"531857","LGD_CODE":"531857"}},{"type":"Feature","id":84,"geometry":{"type":"Polygon","coordinates":[[[77.466375229554231,21.370159556485849],[77.464282003840651,21.370939342746489],[77.463497052686648,21.369010033160027],[77.464830316387193,21.368638363210255],[77.465869439403008,21.369307110330201],[77.466375229554231,21.370159556485849]]]},"properties":{"FID":84,"Join_Count":2,"TARGET_FID":96,"Layer":"TEXT_PARCEL","Text":"91","vill_code":"531857","LGD_CODE":"531857"}},{"type":"Feature","id":85,"geometry":{"type":"Polygon","coordinates":[[[77.451583852843314,21.370145066038635],[77.450455199442828,21.371349844527991],[77.448529743098547,21.36969631405303],[77.447885534723184,21.369752963790276],[77.448082135575319,21.369359314913677],[77.448418839696572,21.368551589279903],[77.448414807035803,21.368471987499817],[77.44984152296756,21.36927636397883],[77.451583852843314,21.370145066038635]]]},"properties":{"FID":85,"Join_Count":2,"TARGET_FID":97,"Layer":"TEXT_PARCEL","Text":"87","vill_code":"531857","LGD_CODE":"531857"}},{"type":"Feature","id":86,"geometry":{"type":"Polygon","coordinates":[[[77.466362396209675,21.370577280712592],[77.464507347237486,21.371278418415031],[77.464282003840651,21.370939342746489],[77.466375229554231,21.370159556485849],[77.465869439403008,21.369307110330201],[77.464830316387193,21.368638363210255],[77.464770981637372,21.368600176965707],[77.464821681783292,21.367280402590108],[77.464931513865665,21.365064789260661],[77.464950135334661,21.364117806161513],[77.464951147479411,21.36406633729047],[77.465877557045545,21.362480241322814],[77.466447598479022,21.361281462856066],[77.4664992662549,21.361125463922704],[77.466679918511502,21.360239806099891],[77.466905064015691,21.359208569454957],[77.467051635650762,21.358749175550326],[77.466765333104533,21.357704474585546],[77.466844312936871,21.357335813329282],[77.467009690777033,21.356683622503098],[77.467200554471944,21.356237329761324],[77.467403943402502,21.356100261901329],[77.467592297302801,21.355942787945107],[77.46812801011572,21.355215335288381],[77.46835952264351,21.354900605078807],[77.468818996813141,21.353754746166256],[77.469553316241971,21.351955114627874],[77.469554549239845,21.35185962586695],[77.471162281062561,21.350681878630464],[77.47145990800152,21.350483211075787],[77.471253755589728,21.351181270098703],[77.469956069741045,21.352193348740069],[77.468876021429153,21.354542437501372],[77.467891683570457,21.356390577470808],[77.467763581369894,21.358067736106431],[77.467316048693377,21.360102922039179],[77.46637539621571,21.362230642514465],[77.465420684299929,21.364297646897374],[77.465217956131085,21.368516229621779],[77.46591794004128,21.369115133793144],[77.466284313146787,21.36931047972136],[77.46664378603856,21.370404674699085],[77.466362396209675,21.370577280712592]]]},"properties":{"FID":86,"Join_Count":5,"TARGET_FID":98,"Layer":"TEXT_MAPIN","Text":"स","vill_code":"531857","LGD_CODE":"531857"}},{"type":"Feature","id":87,"geometry":{"type":"Polygon","coordinates":[[[77.466318978339871,21.371153100240715],[77.464499671463173,21.37175052778063],[77.464507347237486,21.371278418415031],[77.466362396209675,21.370577280712592],[77.46664378603856,21.370404674699085],[77.466284313146787,21.36931047972136],[77.46591794004128,21.369115133793144],[77.465217956131085,21.368516229621779],[77.465420684299929,21.364297646897374],[77.46637539621571,21.362230642514465],[77.467316048693377,21.360102922039179],[77.467763581369894,21.358067736106431],[77.467891683570457,21.356390577470808],[77.468876021429153,21.354542437501372],[77.469956069741045,21.352193348740069],[77.471253755589728,21.351181270098703],[77.471580161261343,21.351517586255994],[77.470847716860192,21.352081866569506],[77.47021016097348,21.352610369697501],[77.468939732828659,21.355262478499295],[77.468408572186746,21.356442609181713],[77.46838328523522,21.356687071041197],[77.468121804434745,21.359056180544517],[77.467995598380014,21.360292237570487],[77.467853724034782,21.360593419859125],[77.467723888417012,21.36073628184786],[77.467274704764179,21.361110740535558],[77.466906101562486,21.361910311245762],[77.466414046627918,21.363234254327967],[77.46586046458377,21.364394081774865],[77.465717214471937,21.365929484989536],[77.465532475470695,21.368496862385928],[77.46657288308495,21.369206962680366],[77.467028169193028,21.370510101559852],[77.466318978339871,21.371153100240715]]]},"properties":{"FID":87,"Join_Count":0,"TARGET_FID":99,"Layer":" ","Text":" ","vill_code":"531857","LGD_CODE":"531857"}},{"type":"Feature","id":88,"geometry":{"type":"Polygon","coordinates":[[[77.455435845150745,21.371899092188105],[77.452287442386719,21.372765591479119],[77.452371576214517,21.372143271816157],[77.451626118450918,21.370173343430345],[77.451583852843314,21.370145066038635],[77.44984152296756,21.36927636397883],[77.448414807035803,21.368471987499817],[77.448240543951172,21.365031446991182],[77.448100697190924,21.361066837325382],[77.448990207388874,21.361980256127612],[77.450143315753166,21.36173487280022],[77.451386280051892,21.361556962349994],[77.45139553646959,21.362951415857093],[77.452491187609965,21.362879502533797],[77.452554798726467,21.36295050168567],[77.454542155565932,21.364089573998214],[77.454695935522665,21.36409998960778],[77.456825324314337,21.36424420180272],[77.457999481741354,21.364333998402387],[77.458102473231179,21.364351009292694],[77.458949333696808,21.36449087984694],[77.45981527369463,21.364615968254338],[77.460481862569452,21.364698843453052],[77.461035330007846,21.364675480136484],[77.461419668050027,21.364929034511153],[77.46262814336788,21.365109508181945],[77.462455550888109,21.365828629380854],[77.461706986950745,21.365875189225747],[77.461796492815751,21.366806483600293],[77.463497052686648,21.369010033160027],[77.464282003840651,21.370939342746489],[77.46299154978027,21.371196256648052],[77.459257234905721,21.37209755470689],[77.456502712589099,21.372701706888666],[77.455435845150745,21.371899092188105]],[[77.461950637706053,21.365611516882733],[77.46209482788727,21.365609401124956],[77.462093686403279,21.365541144408688],[77.461949496288753,21.365543260159065],[77.461950637706053,21.365611516882733]],[[77.462229512804768,21.365604163422464],[77.462373702948454,21.365602047425874],[77.462372561335684,21.365533790723902],[77.462228371258675,21.365535906713099],[77.462229512804768,21.365604163422464]],[[77.461728242597786,21.365585429961705],[77.461727101269972,21.365517172323681],[77.461582910175366,21.365519287771107],[77.461584051436503,21.365587545416524],[77.461728242597786,21.365585429961705]],[[77.46145193081324,21.365537514920007],[77.461307739668811,21.365539630133025],[77.461308880803657,21.365607887792443],[77.461453072014763,21.365605772572028],[77.46145193081324,21.365537514920007]],[[77.462184619673508,21.365422198028032],[77.462328809643978,21.36542008208712],[77.462327668047578,21.36535182447868],[77.4621834781438,21.365353940412184],[77.462184619673508,21.365422198028032]],[[77.462042526581996,21.365401454826742],[77.462041385119335,21.365333197203412],[77.461897194238972,21.365335312903436],[77.461898335634956,21.365403570534173],[77.462042526581996,21.365401454826742]],[[77.461717998534908,21.365389910800321],[77.461716857223294,21.36532165316018],[77.461572666318958,21.365323768580403],[77.461573807563894,21.365392026227944],[77.461717998534908,21.365389910800321]],[[77.461396142912633,21.365329619489799],[77.461251952929302,21.365331734621201],[77.461253094026091,21.365399992285191],[77.461397284076114,21.365397877146393],[77.461396142912633,21.365329619489799]],[[77.462220245458099,21.365258617103223],[77.462364436228242,21.365256501132972],[77.462363294640042,21.365188244427728],[77.462219103936562,21.365190360390574],[77.462220245458099,21.365258617103223]],[[77.462025526159678,21.365219079179226],[77.462024384730682,21.365150822456226],[77.461880194990655,21.365152938110338],[77.46188133635296,21.365221194840746],[77.462025526159678,21.365219079179226]],[[77.461690430804552,21.365201168408259],[77.461689289516769,21.36513291076518],[77.461545098794176,21.36513502614396],[77.461546240015252,21.36520328379445],[77.461690430804552,21.365201168408259]],[[77.461357958703431,21.365184956579331],[77.461356817585752,21.365116699821691],[77.461212627806532,21.365118814899276],[77.461213768857533,21.365187071664316],[77.461357958703431,21.365184956579331]]]},"properties":{"FID":88,"Join_Count":2,"TARGET_FID":100,"Layer":"TEXT_PARCEL","Text":"86","vill_code":"531857","LGD_CODE":"531857"}},{"type":"Feature","id":89,"geometry":{"type":"Polygon","coordinates":[[[77.452287442386719,21.372765591479119],[77.451856855550204,21.37345489738896],[77.451210388658112,21.372949490586041],[77.451172831629464,21.372821169214834],[77.450455199442828,21.371349844527991],[77.451583852843314,21.370145066038635],[77.451626118450918,21.370173343430345],[77.452371576214517,21.372143271816157],[77.452287442386719,21.372765591479119]]]},"properties":{"FID":89,"Join_Count":2,"TARGET_FID":101,"Layer":"TEXT_PARCEL","Text":"90","vill_code":"531857","LGD_CODE":"531857"}},{"type":"Feature","id":90,"geometry":{"type":"Polygon","coordinates":[[[77.451210388658112,21.372949490586041],[77.449104651603889,21.373887313832498],[77.448418347651398,21.373109589232033],[77.448110013155087,21.37285489590753],[77.446983994431164,21.371758318262241],[77.447885534723184,21.369752963790276],[77.448529743098547,21.36969631405303],[77.450455199442828,21.371349844527991],[77.451172831629464,21.372821169214834],[77.451210388658112,21.372949490586041]]]},"properties":{"FID":90,"Join_Count":2,"TARGET_FID":102,"Layer":"TEXT_PARCEL","Text":"88","vill_code":"531857","LGD_CODE":"531857"}},{"type":"Feature","id":91,"geometry":{"type":"Polygon","coordinates":[[[77.451077220033454,21.374702961090396],[77.450501112144764,21.375569460402815],[77.449104651603889,21.373887313832498],[77.451210388658112,21.372949490586041],[77.451856855550204,21.37345489738896],[77.451077220033454,21.374702961090396]]]},"properties":{"FID":91,"Join_Count":2,"TARGET_FID":103,"Layer":"TEXT_PARCEL","Text":"89","vill_code":"531857","LGD_CODE":"531857"}},{"type":"Feature","id":92,"geometry":{"type":"Polygon","coordinates":[[[77.457515702801743,21.352086953004516],[77.457706782020352,21.352268323476384],[77.458363512565995,21.352548274090566],[77.45846949197454,21.352756620200701],[77.459036277293478,21.353131638039368],[77.459474596347263,21.353860005071287],[77.459511420628644,21.354918683417683],[77.459611557802589,21.35624751936421],[77.458430473664748,21.35627892427663],[77.458437362461666,21.354869083810392],[77.457806458911421,21.355020212800131],[77.45751520113248,21.354436649762761],[77.457515702801743,21.352086953004516]]]},"properties":{"FID":92,"Join_Count":3,"TARGET_FID":41,"Layer":"TEXT_PARCEL","Text":"38","vill_code":"531857","LGD_CODE":"531857"}},{"type":"Feature","id":93,"geometry":{"type":"Polygon","coordinates":[[[77.449375717030648,21.349189064134865],[77.449485154524211,21.348927586875277],[77.449992322618414,21.34919121077894],[77.451447885469236,21.349125622802323],[77.451505510775405,21.349823813337029],[77.450393352620836,21.350002652781424],[77.450210963728068,21.350218014717715],[77.449879078553408,21.350178179948447],[77.449375717030648,21.349189064134865]]]},"properties":{"FID":93,"Join_Count":3,"TARGET_FID":21,"Layer":"TEXT_PARCEL","Text":"61","vill_code":"531857","LGD_CODE":"531857"}},{"type":"Feature","id":94,"geometry":{"type":"Polygon","coordinates":[[[77.44785112031775,21.353363597932056],[77.447880883900325,21.353365311543541],[77.448126572971546,21.354174740447888],[77.449848618077851,21.354203558133914],[77.450645445560781,21.35357515785438],[77.45094308829772,21.355067683866135],[77.450568599457995,21.355403496782973],[77.450615335741077,21.35625514964357],[77.450049377846824,21.356639769662763],[77.449100196468351,21.355960475878874],[77.448012632897985,21.355129010285793],[77.447563788875016,21.354817156995924],[77.44785112031775,21.353363597932056]]]},"properties":{"FID":94,"Join_Count":3,"TARGET_FID":44,"Layer":"TEXT_PARCEL","Text":"73","vill_code":"531857","LGD_CODE":"531857"}}]
}