{
  "type" : "FeatureCollection",
  "features" : [{"type":"Feature","id":0,"geometry":{"type":"LineString","coordinates":[[77.464039642943504,21.370990718635156],[77.464220569071571,21.370310706804986],[77.464653459260546,21.36886731559737],[77.464493959728969,21.368298187822372],[77.464057990717208,21.366997894325323],[77.46364378472957,21.365717330987628],[77.463450049542615,21.365235594519703],[77.46336569729408,21.364992834895769]]},"properties":{"FID":0,"LGD_CODE":"531857","ROAD_TYPE":"B"}},{"type":"Feature","id":1,"geometry":{"type":"LineString","coordinates":[[77.462448498265616,21.352316979790892],[77.462502380015508,21.352550125446033],[77.462441480283189,21.352751535419003],[77.46223172339532,21.353018625733835],[77.462100606039755,21.353291246411793],[77.461752534598347,21.35382772055663],[77.461409542064004,21.354414117687721],[77.461310375929642,21.354716478035158],[77.46124384216391,21.355008202925344],[77.461173518598756,21.355500500103251],[77.461061253233439,21.356046883324129],[77.461007440196113,21.356672616202836],[77.46098775976067,21.357204274146454],[77.460962503344049,21.357829588275109],[77.461063185009607,21.35829932623863],[77.461210164773078,21.358975585643105],[77.461326467118866,21.359525300780895],[77.461528442277881,21.360073759164614],[77.46178976780746,21.360755024347892],[77.462127852750129,21.361755989075686],[77.462518489336119,21.362909910752812],[77.46288637313306,21.363983958258093],[77.463191221562198,21.364704684263309],[77.463272430526544,21.364868863206734]]},"properties":{"FID":1,"LGD_CODE":"531857","ROAD_TYPE":"B"}},{"type":"Feature","id":2,"geometry":{"type":"LineString","coordinates":[[77.450064633998423,21.356653635930364],[77.450278254352554,21.356617097854308],[77.450501237053174,21.356714101524329],[77.450833698740865,21.356953210786774],[77.451202836640988,21.357679710329464],[77.45137753175257,21.358032901870903],[77.45137753175257,21.358032901870903],[77.451792831509309,21.358804017919269],[77.452204593028455,21.35951652378273],[77.452204593028455,21.35951652378273],[77.452569885755253,21.3602222118759],[77.452650258436861,21.360549360865114],[77.452650258436861,21.360549360865114],[77.45286978241117,21.360866980493306],[77.453087693121887,21.361087706614729],[77.453355135074673,21.361280972544048],[77.453458371199858,21.361476638754404],[77.453618389037842,21.361651423022561],[77.453978199941432,21.361816601605888],[77.454423573502794,21.361973844045551],[77.454753491400751,21.3620592511704],[77.4551656202527,21.362364023844872],[77.455389561726804,21.362517819163166],[77.455389561726804,21.362517819163166],[77.456538419490883,21.36301872207229],[77.456538419490883,21.36301872207229],[77.457519233923136,21.363469177332558],[77.458345351733797,21.363761193797451],[77.458625187041605,21.363840642523098],[77.46000733047488,21.364084216478343],[77.46000733047488,21.364084216478343],[77.46000733047488,21.364084216478343],[77.460988717901671,21.364244676173104],[77.461570742459273,21.364444534613856],[77.461570742459273,21.364444534613856],[77.463065064946505,21.364800204708615],[77.463272430526544,21.364868863206734]]},"properties":{"FID":2,"LGD_CODE":"531857","ROAD_TYPE":"B"}},{"type":"Feature","id":3,"geometry":{"type":"LineString","coordinates":[[77.464362110202643,21.363990421742926],[77.464112917233223,21.364461952528995],[77.463704676770163,21.364910041991696],[77.463474699054402,21.365022374586253],[77.46336569729408,21.364992834895769]]},"properties":{"FID":3,"LGD_CODE":"531857","ROAD_TYPE":"B"}},{"type":"Feature","id":4,"geometry":{"type":"LineString","coordinates":[[77.443325979572819,21.353725949266803],[77.443733727567889,21.35382838240475],[77.444608356867306,21.354036217936265],[77.445002504873003,21.354120710847724],[77.445860473392628,21.35418507732372],[77.446396960525561,21.354240756952141],[77.446992003756023,21.354382472523668],[77.447337511869279,21.354547876045636],[77.447606933005432,21.354861435015039]]},"properties":{"FID":4,"LGD_CODE":"531857","ROAD_TYPE":"B"}},{"type":"Feature","id":5,"geometry":{"type":"LineString","coordinates":[[77.457590456824704,21.348400479443455],[77.456518615136645,21.348561559384631],[77.455673502527006,21.348690552158015],[77.455456335728201,21.348743296048017],[77.455214643982544,21.348819724327068],[77.454879914776086,21.348920838674164],[77.454551122128763,21.349004371156344],[77.453922686806621,21.34905146226582],[77.453518861285772,21.349118594895376],[77.453014798498131,21.349152202119495],[77.452591510377047,21.349172964828494],[77.452312154378504,21.349232444828903],[77.451994360531856,21.349228339172772],[77.451695542841094,21.349241450278829],[77.451166564954548,21.349275415732802],[77.450437889718415,21.349288968317051],[77.450001561745125,21.349274925787469],[77.449551290016359,21.349068798432665],[77.448869761917607,21.349023188170687],[77.44826497676894,21.348994103528465],[77.44792849749949,21.348990262577743],[77.447335132946748,21.348958451704878]]},"properties":{"FID":5,"LGD_CODE":"531857","ROAD_TYPE":"B"}},{"type":"Feature","id":6,"geometry":{"type":"LineString","coordinates":[[77.447496148182381,21.34888375777021],[77.448220167241246,21.34892186312662],[77.448874440107801,21.348929815849935],[77.449036426998561,21.348930368873113],[77.449447681707568,21.348925348039256]]},"properties":{"FID":6,"LGD_CODE":"531857","ROAD_TYPE":"B"}},{"type":"Feature","id":7,"geometry":{"type":"LineString","coordinates":[[77.451727916890221,21.349165005175614],[77.452306090435599,21.349092414606837],[77.453065468741983,21.349052163656729],[77.453780713579135,21.348980481004943],[77.454620524906687,21.348906974239132],[77.455389199818242,21.348677053263433],[77.455804993803653,21.348580583741633],[77.456053690742522,21.348550704204204],[77.456457513086349,21.348483565725832],[77.45678698352792,21.3484408402817],[77.457209684491389,21.348385086842718],[77.457584802590247,21.348312170129894]]},"properties":{"FID":7,"LGD_CODE":"531857","ROAD_TYPE":"B"}},{"type":"Feature","id":8,"geometry":{"type":"LineString","coordinates":[[77.459322956238395,21.348160792369622],[77.45978823734221,21.348148343853421],[77.460403769773762,21.34807517854216],[77.461168926810544,21.348008565046218],[77.46164174216733,21.347969560419376],[77.462214794362552,21.347964073503139],[77.462631456932371,21.347920058117325],[77.462798695281734,21.347862206038123],[77.46312232277856,21.347842880012358],[77.463725248241715,21.347761140547941],[77.464030092886318,21.347736256956889],[77.464404423314875,21.347768667642679],[77.464817001118703,21.34785299924086],[77.465185201199361,21.347891329584293],[77.465547660778967,21.34795890072995],[77.46588618303295,21.34808513727447],[77.466130110669681,21.348142785013451],[77.466635626561597,21.348196589525337],[77.466834590131356,21.348173256287193],[77.467421366728644,21.348243358776941],[77.467833653888704,21.348310192543813],[77.468190570336176,21.348418659519833],[77.468584368617556,21.348497426139595],[77.468958603200932,21.348523996377182],[77.469357653327222,21.348544369255077],[77.469663279195089,21.348566115424447],[77.470068166780408,21.34856307500262],[77.470684913569571,21.348562747529744],[77.471184528614629,21.348540640856278]]},"properties":{"FID":8,"LGD_CODE":"531857","ROAD_TYPE":"B"}},{"type":"Feature","id":9,"geometry":{"type":"LineString","coordinates":[[77.471196614540403,21.348625898396349],[77.47072997790093,21.348649556108267],[77.469859856106027,21.348632486384954],[77.469203216152735,21.348622449537661],[77.468885035939422,21.348595055607152],[77.468616877379404,21.34857858856029],[77.468060264403249,21.348449732441431],[77.467678434747071,21.348341631351371],[77.467316559441116,21.348309045131867],[77.466836151531965,21.348266536815995],[77.466306210077789,21.34824224904898],[77.465862489164593,21.348158378672036],[77.465405434254066,21.348022219653462],[77.464955583452394,21.347944268232872],[77.464586895702425,21.347876787203003],[77.464237185519522,21.347826521155728],[77.463999993359067,21.347831390354681]]},"properties":{"FID":9,"LGD_CODE":"531857","ROAD_TYPE":"B"}},{"type":"Feature","id":10,"geometry":{"type":"LineString","coordinates":[[77.462872520983638,21.350871100027341],[77.463007993278239,21.350723461812379],[77.463154931707123,21.350196473391879],[77.463382496885629,21.349647891779121],[77.463674575790776,21.348859272882411],[77.463818353082672,21.348516021887278],[77.463869679987681,21.348232442237403],[77.463999993359067,21.347831390354681]]},"properties":{"FID":10,"LGD_CODE":"531857","ROAD_TYPE":"B"}},{"type":"Feature","id":11,"geometry":{"type":"LineString","coordinates":[[77.463944082507183,21.347832538071739],[77.46378180135315,21.348192911451278],[77.463730328065495,21.348467746008172],[77.463455570466394,21.349174470161174],[77.463290484736405,21.349733798125975],[77.463166666062094,21.350054844869263],[77.463067247089185,21.350168602478771],[77.462900307491779,21.350617159405825],[77.462821530862882,21.350749523216486],[77.462837252316007,21.350944647017855],[77.462645300116961,21.351387739275321],[77.462512805589895,21.351660846371541],[77.462430917789277,21.351979862923514],[77.462448498265616,21.352316979790892]]},"properties":{"FID":11,"LGD_CODE":"531857","ROAD_TYPE":"B"}},{"type":"Feature","id":12,"geometry":{"type":"LineString","coordinates":[[77.442154644100114,21.355746698878573],[77.442197813218712,21.355919532366521],[77.442289531269708,21.356656965706847],[77.442288221086713,21.356920081391191],[77.442180540619546,21.357275091114484],[77.441868272527302,21.357962603071162],[77.441255924233346,21.35935987591624],[77.441255924233346,21.35935987591624]]},"properties":{"FID":12,"LGD_CODE":"531857","ROAD_TYPE":"B"}},{"type":"Feature","id":13,"geometry":{"type":"LineString","coordinates":[[77.441168492383497,21.359392233455814],[77.44153091511123,21.358506976542539],[77.441810004544777,21.357873096974878],[77.441990782378667,21.357474504464101],[77.442116992211183,21.357209579034414],[77.442202229250853,21.356870840763648],[77.442220664074284,21.356612798376805],[77.442088946663048,21.355793009575748]]},"properties":{"FID":13,"LGD_CODE":"531857","ROAD_TYPE":"B"}},{"type":"Feature","id":14,"geometry":{"type":"LineString","coordinates":[[77.463299558921832,21.364974911225882],[77.462830037498151,21.364847668805119],[77.462830037498151,21.364847668805119],[77.461831125764775,21.364612575906101],[77.461831125764775,21.364612575906101],[77.461831125764775,21.364612575906101],[77.46067473346649,21.364268445756281],[77.459535508151774,21.364120861480771],[77.459106546982738,21.364014053684812],[77.459106546982738,21.364014053684812],[77.458634279073806,21.363957477187213],[77.457450015445488,21.363532873608239],[77.457450015445488,21.363532873608239],[77.456499683776912,21.36313988455197],[77.456499683776912,21.36313988455197],[77.455665095474345,21.362767775412621],[77.45545643498599,21.362673912120631],[77.454966216281562,21.362397018443378],[77.454533449062282,21.362139334597174],[77.454060073948341,21.362015921612631],[77.453794300030324,21.361922891279196],[77.45349149316057,21.361750194910663],[77.453266998018293,21.361562985348126],[77.453241739036073,21.361332759469764],[77.453169176009339,21.361263639062912],[77.452851981074758,21.36108446779371],[77.452654932230089,21.360830016899698],[77.452572781955567,21.360613990136397],[77.452518410451489,21.360350769928658],[77.452405588967238,21.360008196730671],[77.452301437082866,21.359922955054451],[77.452126059823911,21.359517671043591],[77.451965156165784,21.35928942658126],[77.451707214979052,21.358808610427893],[77.451567619465465,21.358573370288084],[77.451235952830089,21.357953267527712],[77.450949237362465,21.357459502096493],[77.450858951961791,21.357183437476206],[77.450756945806901,21.357061274279502],[77.450553656663359,21.356860382591172],[77.450381148253712,21.356792719845281],[77.450166138383636,21.356745729141871],[77.449670143328817,21.35654910883407],[77.449149398597157,21.356152330031286],[77.44847806774581,21.355717642405846],[77.447760796665833,21.355096471380101],[77.447438051716617,21.354831731020194],[77.446879165397362,21.354467666772035],[77.446276427923991,21.354292643164598],[77.445461293503413,21.354227654871874],[77.444853304404745,21.354166329605036],[77.444215317944924,21.354018547457112],[77.443634888573825,21.353896660820386],[77.443293597291444,21.353798041897658]]},"properties":{"FID":14,"LGD_CODE":"531857","ROAD_TYPE":"B"}},{"type":"Feature","id":15,"geometry":{"type":"LineString","coordinates":[[77.463300807580666,21.364864826888383],[77.46353871015144,21.364930040748604],[77.463981265435095,21.364515331762487],[77.464187255190069,21.364184501209667],[77.464187255190069,21.364184501209667],[77.464287179931162,21.363871442435251],[77.464287179931162,21.363871442435251]]},"properties":{"FID":15,"LGD_CODE":"531857","ROAD_TYPE":"B"}},{"type":"Feature","id":16,"geometry":{"type":"LineString","coordinates":[[77.463299558921832,21.364974911225882],[77.463402364746287,21.365373314210096],[77.463685912282699,21.366101035457564],[77.463987433048786,21.367049059818861],[77.46433403370186,21.368130098505642],[77.464561034133794,21.368892067172659],[77.464349491779771,21.369480013352408],[77.46414163964026,21.370288472902129],[77.463990213338093,21.370628232591624],[77.46398766097164,21.370776879423751],[77.463932331257269,21.371010063376509]]},"properties":{"FID":16,"LGD_CODE":"531857","ROAD_TYPE":"B"}},{"type":"Feature","id":17,"geometry":{"type":"LineString","coordinates":[[77.463300807580666,21.364864826888383],[77.463254638811208,21.364653624087879],[77.462934058121007,21.36384623869068],[77.462560487822017,21.362859165190713],[77.462176655287905,21.361685092131921],[77.46183857023982,21.360684127511171],[77.461569993654422,21.35999628490708],[77.461389101278812,21.359427465697319],[77.461180539307989,21.35848475411224],[77.461041369564299,21.357848483438989],[77.461046324658767,21.357290305908023],[77.461063325212223,21.35659827391725],[77.46117770550849,21.355751084544831],[77.461394704507867,21.3546350347656],[77.461476744179549,21.354416605335018],[77.461969488242616,21.35356386702599],[77.462492569880737,21.352817624868816],[77.462581187602723,21.352565679091548],[77.462534835579461,21.35235581657075],[77.462488707101585,21.3521593185603]]},"properties":{"FID":17,"LGD_CODE":"531857","ROAD_TYPE":"B"}},{"type":"Feature","id":18,"geometry":{"type":"LineString","coordinates":[[77.463944082507183,21.347832538071739],[77.463738971548054,21.347836748353423],[77.463428483197376,21.347896703158998],[77.463061549956706,21.347934159537466],[77.462514482967975,21.348003414544628],[77.462128864118782,21.348041142973017],[77.461792487111055,21.348043159587057],[77.461188682301824,21.348072421821342],[77.460063353320308,21.348208459371129],[77.459322683010228,21.348222002989679]]},"properties":{"FID":18,"LGD_CODE":"531857","ROAD_TYPE":"B"}}]
}