{
  "type" : "FeatureCollection",
  "features" : [{"type":"Feature","id":0,"geometry":{"type":"Polygon","coordinates":[[[77.389874315009195,21.337698847211975],[77.388272729923983,21.338163837338254],[77.38719213004417,21.337642687268485],[77.387011311456675,21.336609620057722],[77.392506286221803,21.336502021057914],[77.392551748530323,21.336691738016043],[77.391188464419045,21.338068090961926],[77.391203252544599,21.337624669157353],[77.390871464742489,21.337569539357268],[77.389874315009195,21.337698847211975]]]},"properties":{"FID":0,"Join_Count":2,"TARGET_FID":1,"Layer":"TEXT_PARCEL","Text":"19","vill_code":"531853","LGD_CODE":"531853"}},{"type":"Feature","id":1,"geometry":{"type":"Polygon","coordinates":[[[77.399275543995898,21.338198859152328],[77.397469797235857,21.338856138174446],[77.396123897185618,21.338685721097569],[77.395471884579905,21.336979397055419],[77.39542619745383,21.336811196157296],[77.39712418371677,21.33664195618978],[77.398279721308697,21.336947286376237],[77.399153730506882,21.337444478585642],[77.402565705625889,21.337790721018095],[77.403571747913617,21.338230842035895],[77.403477016143668,21.338408726975189],[77.402484973266013,21.3384600926973],[77.399275543995898,21.338198859152328]]]},"properties":{"FID":1,"Join_Count":2,"TARGET_FID":2,"Layer":"TEXT_PARCEL","Text":"13","vill_code":"531853","LGD_CODE":"531853"}},{"type":"Feature","id":2,"geometry":{"type":"Polygon","coordinates":[[[77.393626404137791,21.338360492322703],[77.39350872477057,21.339053413627266],[77.391188464419045,21.338068090961926],[77.392551748530323,21.336691738016043],[77.39542619745383,21.336811196157296],[77.395471884579905,21.336979397055419],[77.396123897185618,21.338685721097569],[77.395457095697068,21.338598813933277],[77.394545713440081,21.338107621134256],[77.393626404137791,21.338360492322703]]]},"properties":{"FID":2,"Join_Count":2,"TARGET_FID":3,"Layer":"TEXT_PARCEL","Text":"18","vill_code":"531853","LGD_CODE":"531853"}},{"type":"Feature","id":3,"geometry":{"type":"Polygon","coordinates":[[[77.397830384399441,21.340085231910574],[77.395826815725115,21.340317707031918],[77.396123897185618,21.338685721097569],[77.397469797235857,21.338856138174446],[77.399275543995898,21.338198859152328],[77.402484973266013,21.3384600926973],[77.40230038392464,21.338920717173607],[77.40167815406005,21.339604927090683],[77.400374462321736,21.339856920150112],[77.400001674507308,21.339686993657736],[77.397830384399441,21.340085231910574]]]},"properties":{"FID":3,"Join_Count":2,"TARGET_FID":4,"Layer":"TEXT_PARCEL","Text":"14","vill_code":"531853","LGD_CODE":"531853"}},{"type":"Feature","id":4,"geometry":{"type":"Polygon","coordinates":[[[77.394626439068276,21.34027944643687],[77.393348934685619,21.340408216839485],[77.39350872477057,21.339053413627266],[77.394286888195282,21.339281717851325],[77.394803078092963,21.339752242176488],[77.394626439068276,21.34027944643687]]]},"properties":{"FID":4,"Join_Count":2,"TARGET_FID":5,"Layer":"TEXT_PARCEL","Text":"16","vill_code":"531853","LGD_CODE":"531853"}},{"type":"Feature","id":5,"geometry":{"type":"Polygon","coordinates":[[[77.392314599059247,21.340345018835208],[77.391744133872308,21.340677446466248],[77.39188998556078,21.339684716690439],[77.392289732663329,21.339175871325157],[77.391446582756515,21.338742376300321],[77.391188464419045,21.338068090961926],[77.39350872477057,21.339053413627266],[77.393348934685619,21.340408216839485],[77.39287106963792,21.340380146781023],[77.392819681107866,21.340205997337286],[77.392314599059247,21.340345018835208]]]},"properties":{"FID":5,"Join_Count":4,"TARGET_FID":6,"Layer":"TEXT_PARCEL","Text":"17","vill_code":"531853","LGD_CODE":"531853"}},{"type":"Feature","id":6,"geometry":{"type":"Polygon","coordinates":[[[77.395826815725115,21.340317707031918],[77.394650699731244,21.340691242362041],[77.394626439068276,21.34027944643687],[77.394803078092963,21.339752242176488],[77.394286888195282,21.339281717851325],[77.39350872477057,21.339053413627266],[77.393626404137791,21.338360492322703],[77.394545713440081,21.338107621134256],[77.395457095697068,21.338598813933277],[77.396123897185618,21.338685721097569],[77.395826815725115,21.340317707031918]]]},"properties":{"FID":6,"Join_Count":2,"TARGET_FID":7,"Layer":"TEXT_PARCEL","Text":"15","vill_code":"531853","LGD_CODE":"531853"}},{"type":"Feature","id":7,"geometry":{"type":"Polygon","coordinates":[[[77.398051230826596,21.340533662261098],[77.398005971067036,21.34078601104213],[77.397828266008545,21.340374154265682],[77.397867600416291,21.340358797973234],[77.397830384399441,21.340085231910574],[77.400001674507308,21.339686993657736],[77.400374462321736,21.339856920150112],[77.40167815406005,21.339604927090683],[77.401666926358544,21.339923222719889],[77.401491510603037,21.340236858337352],[77.400913945235672,21.340526269073237],[77.400838282655442,21.340467948852542],[77.39976730448393,21.340406089342473],[77.398908299406969,21.340750654540344],[77.398467819232906,21.340541716471357],[77.398051230826596,21.340533662261098]]]},"properties":{"FID":7,"Join_Count":2,"TARGET_FID":8,"Layer":"TEXT_PARCEL","Text":"5","vill_code":"531853","LGD_CODE":"531853"}},{"type":"Feature","id":8,"geometry":{"type":"Polygon","coordinates":[[[77.392650764890661,21.341112407546081],[77.39123768374661,21.341342088471258],[77.390422074397875,21.341243595607718],[77.390154679528351,21.340360004152028],[77.390600983232019,21.340525863992728],[77.390706883861071,21.34098581912928],[77.391744133872308,21.340677446466248],[77.392314599059247,21.340345018835208],[77.392819681107866,21.340205997337286],[77.39287106963792,21.340380146781023],[77.393348934685619,21.340408216839485],[77.39327093977225,21.341011599939453],[77.392650764890661,21.341112407546081]]]},"properties":{"FID":8,"Join_Count":2,"TARGET_FID":9,"Layer":"TEXT_PARCEL","Text":"ग\u093Eव\u0902ठ\u093Eण","vill_code":"531853","LGD_CODE":"531853"}},{"type":"Feature","id":9,"geometry":{"type":"Polygon","coordinates":[[[77.386467377989916,21.341520433059731],[77.385452722026301,21.341597563995727],[77.38719213004417,21.337642687268485],[77.388272729923983,21.338163837338254],[77.389874315009195,21.337698847211975],[77.390871464742489,21.337569539357268],[77.391203252544599,21.337624669157353],[77.391188464419045,21.338068090961926],[77.391446582756515,21.338742376300321],[77.392289732663329,21.339175871325157],[77.39188998556078,21.339684716690439],[77.391744133872308,21.340677446466248],[77.390706883861071,21.34098581912928],[77.390600983232019,21.340525863992728],[77.390154679528351,21.340360004152028],[77.389416371035395,21.34004125873393],[77.389400633682001,21.339753995975602],[77.389186280067392,21.339633256609545],[77.387500368413313,21.33935840556293],[77.387101169505897,21.339613537084208],[77.386783729142863,21.340453947465548],[77.386576714343036,21.3403137294342],[77.386467377989916,21.341520433059731]]]},"properties":{"FID":9,"Join_Count":2,"TARGET_FID":10,"Layer":"TEXT_PARCEL","Text":"21","vill_code":"531853","LGD_CODE":"531853"}},{"type":"Feature","id":10,"geometry":{"type":"Polygon","coordinates":[[[77.385452722026301,21.341597563995727],[77.384669730168511,21.341668158046815],[77.384703810261513,21.340895098044808],[77.383833188778382,21.340316010060793],[77.384043809832434,21.339810494669152],[77.382769152536767,21.33919930384474],[77.383649133620068,21.337976319334317],[77.383546795299537,21.337473109993208],[77.387011311456675,21.336609620057722],[77.38719213004417,21.337642687268485],[77.385452722026301,21.341597563995727]]]},"properties":{"FID":10,"Join_Count":2,"TARGET_FID":11,"Layer":"TEXT_PARCEL","Text":"20","vill_code":"531853","LGD_CODE":"531853"}},{"type":"Feature","id":11,"geometry":{"type":"Polygon","coordinates":[[[77.395166383978051,21.341480040208623],[77.394705578690861,21.341622735623819],[77.394650699731244,21.340691242362041],[77.395826815725115,21.340317707031918],[77.397830384399441,21.340085231910574],[77.397867600416291,21.340358797973234],[77.397828266008545,21.340374154265682],[77.395623708192886,21.341234813390518],[77.395166383978051,21.341480040208623]]]},"properties":{"FID":11,"Join_Count":2,"TARGET_FID":12,"Layer":"TEXT_PARCEL","Text":"4","vill_code":"531853","LGD_CODE":"531853"}},{"type":"Feature","id":12,"geometry":{"type":"Polygon","coordinates":[[[77.404288454706858,21.340745062008466],[77.403160502282418,21.341509866612068],[77.402752791079465,21.341481225839473],[77.402791089295121,21.341068773603265],[77.40297379117365,21.339499047676551],[77.40244473673242,21.339363893543251],[77.40261204471885,21.338675459451867],[77.403841149351635,21.338553593775835],[77.403956343340809,21.338476550523946],[77.405601597774904,21.339294408277969],[77.405298061607297,21.340216829897134],[77.404288454706858,21.340745062008466]]]},"properties":{"FID":12,"Join_Count":2,"TARGET_FID":13,"Layer":"TEXT_PARCEL","Text":"12","vill_code":"531853","LGD_CODE":"531853"}},{"type":"Feature","id":13,"geometry":{"type":"Polygon","coordinates":[[[77.388997761108271,21.341961195384432],[77.388865976115071,21.342089230659269],[77.388524994725174,21.341523284996228],[77.388172644821879,21.341088721828694],[77.387697657678217,21.341584263523039],[77.3869159867414,21.341874574428051],[77.386797274886419,21.34149535464773],[77.386467377989916,21.341520433059731],[77.386576714343036,21.3403137294342],[77.386783729142863,21.340453947465548],[77.387101169505897,21.339613537084208],[77.387500368413313,21.33935840556293],[77.389186280067392,21.339633256609545],[77.389400633682001,21.339753995975602],[77.389416371035395,21.34004125873393],[77.390154679528351,21.340360004152028],[77.390422074397875,21.341243595607718],[77.38961934635654,21.341459952695843],[77.388997761108271,21.341961195384432]]]},"properties":{"FID":13,"Join_Count":2,"TARGET_FID":14,"Layer":"TEXT_PARCEL","Text":"22","vill_code":"531853","LGD_CODE":"531853"}},{"type":"Feature","id":14,"geometry":{"type":"Polygon","coordinates":[[[77.395720799682394,21.34265041291955],[77.394984063873622,21.342812412592551],[77.394726149835165,21.342652583562895],[77.394042761297129,21.342767817048497],[77.394076036512516,21.341866788098585],[77.394624147454564,21.341728339399364],[77.394705578690861,21.341622735623819],[77.395166383978051,21.341480040208623],[77.395623708192886,21.341234813390518],[77.397828266008545,21.340374154265682],[77.398005971067036,21.34078601104213],[77.398101588489467,21.341342325857138],[77.397877909799703,21.341690512402167],[77.397094923095395,21.341793776521303],[77.395720799682394,21.34265041291955]]]},"properties":{"FID":14,"Join_Count":2,"TARGET_FID":15,"Layer":"TEXT_PARCEL","Text":"3","vill_code":"531853","LGD_CODE":"531853"}},{"type":"Feature","id":15,"geometry":{"type":"Polygon","coordinates":[[[77.394042761297129,21.342767817048497],[77.393911968680513,21.343048271553045],[77.393794763338263,21.342914672097969],[77.393593024244353,21.34292116567622],[77.392929881452915,21.342077396006811],[77.392810402566326,21.342016308437366],[77.392650764890661,21.341112407546081],[77.39327093977225,21.341011599939453],[77.393348934685619,21.340408216839485],[77.394626439068276,21.34027944643687],[77.394650699731244,21.340691242362041],[77.394705578690861,21.341622735623819],[77.394624147454564,21.341728339399364],[77.394076036512516,21.341866788098585],[77.394042761297129,21.342767817048497]]]},"properties":{"FID":15,"Join_Count":2,"TARGET_FID":16,"Layer":"TEXT_PARCEL","Text":"1","vill_code":"531853","LGD_CODE":"531853"}},{"type":"Feature","id":16,"geometry":{"type":"Polygon","coordinates":[[[77.393795017589952,21.343299048444276],[77.392573522827306,21.343457786313817],[77.39232033674827,21.343227614382652],[77.391942855908823,21.343273283478577],[77.39123768374661,21.341342088471258],[77.392650764890661,21.341112407546081],[77.392810402566326,21.342016308437366],[77.392929881452915,21.342077396006811],[77.393593024244353,21.34292116567622],[77.393794763338263,21.342914672097969],[77.393911968680513,21.343048271553045],[77.393795017589952,21.343299048444276]]]},"properties":{"FID":16,"Join_Count":2,"TARGET_FID":17,"Layer":"TEXT_PARCEL","Text":"27","vill_code":"531853","LGD_CODE":"531853"}},{"type":"Feature","id":17,"geometry":{"type":"Polygon","coordinates":[[[77.399279224806435,21.344083801333941],[77.398979321789326,21.344090518420114],[77.398757000161595,21.343717593534276],[77.398962867478886,21.343023462261595],[77.399292697591193,21.342958816657223],[77.399314450303592,21.342470974934098],[77.399460748297926,21.34184358382133],[77.398210804347926,21.341545176326882],[77.398326737805064,21.34122665021539],[77.398273650663882,21.340752770118591],[77.398922163295865,21.340949767519191],[77.400038819031423,21.340570186638768],[77.400208605309246,21.340908057412232],[77.399943860981722,21.341107124487131],[77.400034148663877,21.341298679184757],[77.401214838876825,21.342112862438658],[77.400017248360754,21.343220288732475],[77.399279224806435,21.344083801333941]]]},"properties":{"FID":17,"Join_Count":2,"TARGET_FID":18,"Layer":"TEXT_PARCEL","Text":"6","vill_code":"531853","LGD_CODE":"531853"}},{"type":"Feature","id":18,"geometry":{"type":"Polygon","coordinates":[[[77.388672229660031,21.343750044124384],[77.387154869253067,21.344312322506273],[77.386906489827496,21.343992924568045],[77.388865976115071,21.342089230659269],[77.388997761108271,21.341961195384432],[77.38961934635654,21.341459952695843],[77.390422074397875,21.341243595607718],[77.39123768374661,21.341342088471258],[77.391942855908823,21.343273283478577],[77.39136459661222,21.343700058554361],[77.389887081285764,21.343325051337739],[77.388672229660031,21.343750044124384]]]},"properties":{"FID":18,"Join_Count":2,"TARGET_FID":19,"Layer":"TEXT_PARCEL","Text":"26","vill_code":"531853","LGD_CODE":"531853"}},{"type":"Feature","id":19,"geometry":{"type":"Polygon","coordinates":[[[77.384734787702357,21.34399889017023],[77.383876991795447,21.344870482062813],[77.383948888804625,21.344621970192922],[77.384610839152387,21.343086969536245],[77.384669730168511,21.341668158046815],[77.385452722026301,21.341597563995727],[77.386467377989916,21.341520433059731],[77.386797274886419,21.34149535464773],[77.3869159867414,21.341874574428051],[77.387697657678217,21.341584263523039],[77.388172644821879,21.341088721828694],[77.388524994725174,21.341523284996228],[77.388865976115071,21.342089230659269],[77.386906489827496,21.343992924568045],[77.386339722138302,21.344542485610564],[77.385430122111913,21.343756542266789],[77.384734787702357,21.34399889017023]]]},"properties":{"FID":19,"Join_Count":2,"TARGET_FID":20,"Layer":"TEXT_PARCEL","Text":"23","vill_code":"531853","LGD_CODE":"531853"}},{"type":"Feature","id":20,"geometry":{"type":"Polygon","coordinates":[[[77.39923313164455,21.344651583294969],[77.398363551692725,21.345028261071249],[77.398979321789326,21.344090518420114],[77.399279224806435,21.344083801333941],[77.400017248360754,21.343220288732475],[77.401214838876825,21.342112862438658],[77.400034148663877,21.341298679184757],[77.399943860981722,21.341107124487131],[77.400208605309246,21.340908057412232],[77.400038819031423,21.340570186638768],[77.400797068343721,21.340644219722762],[77.401022065948098,21.340912474475928],[77.401415810493219,21.34078350415038],[77.401865982079229,21.340180576763863],[77.401974762659719,21.339649838045023],[77.402145978638444,21.339438474125334],[77.40244473673242,21.339363893543251],[77.40297379117365,21.339499047676551],[77.402791089295121,21.341068773603265],[77.402752791079465,21.341481225839473],[77.403160502282418,21.341509866612068],[77.402381816665397,21.343099842156903],[77.40197434202382,21.342726629732688],[77.401636832158957,21.342726707230945],[77.401189362329461,21.34335005836785],[77.39923313164455,21.344651583294969]]]},"properties":{"FID":20,"Join_Count":2,"TARGET_FID":21,"Layer":"TEXT_PARCEL","Text":"11","vill_code":"531853","LGD_CODE":"531853"}},{"type":"Feature","id":21,"geometry":{"type":"Polygon","coordinates":[[[77.391692383713078,21.345342660493092],[77.3918789738253,21.345544053148178],[77.391669942765461,21.34550738483431],[77.391289394061062,21.345188040160529],[77.3912819233135,21.345536839826703],[77.391046035339798,21.345474781292978],[77.391101587251384,21.345030391027542],[77.391220170993577,21.345003450672657],[77.391608723724616,21.345380601010479],[77.391692383713078,21.345342660493092]]]},"properties":{"FID":21,"Join_Count":0,"TARGET_FID":22,"Layer":"TEXT_PARCEL","Text":" ","vill_code":"531853","LGD_CODE":"531853"}},{"type":"Feature","id":22,"geometry":{"type":"Polygon","coordinates":[[[77.395874444432536,21.344764104341202],[77.395677911648221,21.345691681461695],[77.393378303289381,21.34549955920485],[77.393374776964123,21.344747351721143],[77.392498513636227,21.345302485005952],[77.391692383713078,21.345342660493092],[77.391302061987716,21.344954560241721],[77.391981032941942,21.344667928755207],[77.391924917497704,21.344223473876728],[77.39228209805681,21.343621679894021],[77.392581127141995,21.343741954050056],[77.393921923319752,21.343540615542505],[77.394728772738347,21.342812251731768],[77.395310027962466,21.34310413789618],[77.397466022718248,21.342020498710092],[77.397187558253819,21.344631128598934],[77.396562472779124,21.34461525041775],[77.396473759455347,21.34505614239837],[77.396112021902326,21.345058953164415],[77.395874444432536,21.344764104341202]]]},"properties":{"FID":22,"Join_Count":3,"TARGET_FID":23,"Layer":"TEXT_PARCEL","Text":"2","vill_code":"531853","LGD_CODE":"531853"}},{"type":"Feature","id":23,"geometry":{"type":"Polygon","coordinates":[[[77.390928586545968,21.345203413589175],[77.388439774156041,21.345989714960226],[77.387154869253067,21.344312322506273],[77.388672229660031,21.343750044124384],[77.389887081285764,21.343325051337739],[77.39136459661222,21.343700058554361],[77.391942855908823,21.343273283478577],[77.391670669416797,21.344287176197312],[77.39179200370468,21.344619538874447],[77.391116743995624,21.344693120852096],[77.391101587251384,21.345030391027542],[77.390928586545968,21.345203413589175]]]},"properties":{"FID":23,"Join_Count":2,"TARGET_FID":24,"Layer":"TEXT_PARCEL","Text":"25","vill_code":"531853","LGD_CODE":"531853"}},{"type":"Feature","id":24,"geometry":{"type":"Polygon","coordinates":[[[77.383647793040225,21.345224512531505],[77.383473513503262,21.346401812136495],[77.383124199803476,21.346188586729475],[77.38345339128837,21.346066968951469],[77.383526421050078,21.3450291060973],[77.384273212348035,21.343106401004949],[77.384305696109294,21.340956279897107],[77.383282830274382,21.340314391038561],[77.383558098308399,21.33984264650141],[77.382603931156254,21.339441702465201],[77.382334399211317,21.339073761032484],[77.382753590111875,21.338773262459508],[77.383324566027767,21.338042576573869],[77.383162740225814,21.337534469098191],[77.38271193890607,21.3373761020577],[77.382720998201407,21.33659851766329],[77.383138301140647,21.336722867422214],[77.385340646956607,21.33622627014751],[77.38515900582,21.335909458039175],[77.385458246729939,21.335756325183731],[77.385710406909666,21.336033157813748],[77.392534033131852,21.335347548897857],[77.395559935894951,21.335970346047397],[77.397620394218222,21.336042268852843],[77.400022192635149,21.336590280660495],[77.402064030032022,21.337138338998031],[77.402755732766224,21.337065755782035],[77.405669150220817,21.338448449354676],[77.405574571136526,21.338830516587695],[77.403800405781482,21.338034851668656],[77.40250670144097,21.337448555756154],[77.399462796045,21.336950080343087],[77.398488714416033,21.336519490210659],[77.396199275426781,21.336365910653125],[77.393505081413636,21.336028385396244],[77.392049165968515,21.335949007899266],[77.388877098905681,21.336133802277924],[77.38563265555014,21.336425620140464],[77.383302550270216,21.33689026559896],[77.383312540668882,21.337418360660351],[77.383475571434587,21.337964141816666],[77.382558896603285,21.339173147355464],[77.383778986146794,21.339829010345962],[77.383567911851813,21.340338622273475],[77.384506687953078,21.340912902940943],[77.384409983639813,21.343128464964455],[77.383647793040225,21.345224512531505]]]},"properties":{"FID":24,"Join_Count":4,"TARGET_FID":25,"Layer":"TEXT_PARCEL","Text":"च\u0902","vill_code":"531853","LGD_CODE":"531853"}},{"type":"Feature","id":25,"geometry":{"type":"Polygon","coordinates":[[[77.395677911648221,21.345691681461695],[77.39554042720313,21.346308852683904],[77.394295079025923,21.346024161648849],[77.393985523302348,21.34584071583744],[77.393453863904782,21.345989283228075],[77.392498513636227,21.345302485005952],[77.393374776964123,21.344747351721143],[77.393378303289381,21.34549955920485],[77.395677911648221,21.345691681461695]]]},"properties":{"FID":25,"Join_Count":1,"TARGET_FID":26,"Layer":"TEXT_PARCEL","Text":"8/2","vill_code":"531853","LGD_CODE":"531853"}},{"type":"Feature","id":26,"geometry":{"type":"Polygon","coordinates":[[[77.383754020569242,21.345295529519277],[77.383709962631713,21.346709017022739],[77.383473513503262,21.346401812136495],[77.383647793040225,21.345224512531505],[77.384409983639813,21.343128464964455],[77.384506687953078,21.340912902940943],[77.383567911851813,21.340338622273475],[77.383778986146794,21.339829010345962],[77.382558896603285,21.339173147355464],[77.383475571434587,21.337964141816666],[77.383312540668882,21.337418360660351],[77.383302550270216,21.33689026559896],[77.38563265555014,21.336425620140464],[77.388877098905681,21.336133802277924],[77.392049165968515,21.335949007899266],[77.393505081413636,21.336028385396244],[77.396199275426781,21.336365910653125],[77.398488714416033,21.336519490210659],[77.399462796045,21.336950080343087],[77.40250670144097,21.337448555756154],[77.403800405781482,21.338034851668656],[77.405574571136526,21.338830516587695],[77.405601597774904,21.339294408277969],[77.403956343340809,21.338476550523946],[77.403841149351635,21.338553593775835],[77.40261204471885,21.338675459451867],[77.40244473673242,21.339363893543251],[77.402145978638444,21.339438474125334],[77.401974762659719,21.339649838045023],[77.401865982079229,21.340180576763863],[77.401415810493219,21.34078350415038],[77.401022065948098,21.340912474475928],[77.400797068343721,21.340644219722762],[77.400038819031423,21.340570186638768],[77.398922163295865,21.340949767519191],[77.398273650663882,21.340752770118591],[77.398326737805064,21.34122665021539],[77.398210804347926,21.341545176326882],[77.397993530279621,21.341782114790508],[77.397466022718248,21.342020498710092],[77.395310027962466,21.34310413789618],[77.394728772738347,21.342812251731768],[77.393921923319752,21.343540615542505],[77.392581127141995,21.343741954050056],[77.39228209805681,21.343621679894021],[77.391924917497704,21.344223473876728],[77.391981032941942,21.344667928755207],[77.391302061987716,21.344954560241721],[77.391692383713078,21.345342660493092],[77.391608723724616,21.345380601010479],[77.391220170993577,21.345003450672657],[77.391101587251384,21.345030391027542],[77.391116743995624,21.344693120852096],[77.39179200370468,21.344619538874447],[77.391670669416797,21.344287176197312],[77.391942855908823,21.343273283478577],[77.39232033674827,21.343227614382652],[77.392573522827306,21.343457786313817],[77.393795017589952,21.343299048444276],[77.393911968680513,21.343048271553045],[77.394042761297129,21.342767817048497],[77.394726149835165,21.342652583562895],[77.394984063873622,21.342812412592551],[77.395720799682394,21.34265041291955],[77.397094923095395,21.341793776521303],[77.397877909799703,21.341690512402167],[77.398101588489467,21.341342325857138],[77.398005971067036,21.34078601104213],[77.398051230826596,21.340533662261098],[77.398467819232906,21.340541716471357],[77.398908299406969,21.340750654540344],[77.39976730448393,21.340406089342473],[77.400838282655442,21.340467948852542],[77.400913945235672,21.340526269073237],[77.401491510603037,21.340236858337352],[77.401666926358544,21.339923222719889],[77.40167815406005,21.339604927090683],[77.40230038392464,21.338920717173607],[77.402484973266013,21.3384600926973],[77.403477016143668,21.338408726975189],[77.403571747913617,21.338230842035895],[77.402565705625889,21.337790721018095],[77.399153730506882,21.337444478585642],[77.398279721308697,21.336947286376237],[77.39712418371677,21.33664195618978],[77.39542619745383,21.336811196157296],[77.392551748530323,21.336691738016043],[77.392506286221803,21.336502021057914],[77.387011311456675,21.336609620057722],[77.383546795299537,21.337473109993208],[77.383649133620068,21.337976319334317],[77.382769152536767,21.33919930384474],[77.384043809832434,21.339810494669152],[77.383833188778382,21.340316010060793],[77.384703810261513,21.340895098044808],[77.384669730168511,21.341668158046815],[77.384610839152387,21.343086969536245],[77.383948888804625,21.344621970192922],[77.383876991795447,21.344870482062813],[77.383754020569242,21.345295529519277]]]},"properties":{"FID":26,"Join_Count":1,"TARGET_FID":27,"Layer":"TEXT_PARCEL","Text":"द\u0940","vill_code":"531853","LGD_CODE":"531853"}},{"type":"Feature","id":27,"geometry":{"type":"Polygon","coordinates":[[[77.384886231746265,21.346129496713196],[77.383709962631713,21.346709017022739],[77.383754020569242,21.345295529519277],[77.383876991795447,21.344870482062813],[77.384734787702357,21.34399889017023],[77.385430122111913,21.343756542266789],[77.386339722138302,21.344542485610564],[77.386906489827496,21.343992924568045],[77.387154869253067,21.344312322506273],[77.388439774156041,21.345989714960226],[77.388382233939623,21.34600789345124],[77.38705319071353,21.345698134119385],[77.384886231746265,21.346129496713196]]]},"properties":{"FID":27,"Join_Count":2,"TARGET_FID":28,"Layer":"TEXT_PARCEL","Text":"24","vill_code":"531853","LGD_CODE":"531853"}},{"type":"Feature","id":28,"geometry":{"type":"Polygon","coordinates":[[[77.399359206207862,21.346574257983946],[77.398120842494009,21.3469212011432],[77.398363551692725,21.345028261071249],[77.39923313164455,21.344651583294969],[77.401189362329461,21.34335005836785],[77.401636832158957,21.342726707230945],[77.40197434202382,21.342726629732688],[77.402381816665397,21.343099842156903],[77.401977967041901,21.344498554795187],[77.401918506988167,21.344619893684737],[77.400489305564662,21.345808106740378],[77.399741212225081,21.345658379239921],[77.399359206207862,21.346574257983946]]]},"properties":{"FID":28,"Join_Count":2,"TARGET_FID":29,"Layer":"TEXT_PARCEL","Text":"10","vill_code":"531853","LGD_CODE":"531853"}},{"type":"Feature","id":29,"geometry":{"type":"Polygon","coordinates":[[[77.396473759455347,21.34505614239837],[77.398109801870149,21.347007315321079],[77.395761865739729,21.346328655285845],[77.39554042720313,21.346308852683904],[77.395677911648221,21.345691681461695],[77.395874444432536,21.344764104341202],[77.396112021902326,21.345058953164415],[77.396473759455347,21.34505614239837]]]},"properties":{"FID":29,"Join_Count":2,"TARGET_FID":30,"Layer":"TEXT_PARCEL","Text":"8/1","vill_code":"531853","LGD_CODE":"531853"}},{"type":"Feature","id":30,"geometry":{"type":"Polygon","coordinates":[[[77.398120842494009,21.3469212011432],[77.398109801870149,21.347007315321079],[77.396473759455347,21.34505614239837],[77.396562472779124,21.34461525041775],[77.397187558253819,21.344631128598934],[77.397466022718248,21.342020498710092],[77.397993530279621,21.341782114790508],[77.398210804347926,21.341545176326882],[77.399460748297926,21.34184358382133],[77.399314450303592,21.342470974934098],[77.399292697591193,21.342958816657223],[77.398962867478886,21.343023462261595],[77.398757000161595,21.343717593534276],[77.398979321789326,21.344090518420114],[77.398363551692725,21.345028261071249],[77.398120842494009,21.3469212011432]]]},"properties":{"FID":30,"Join_Count":2,"TARGET_FID":31,"Layer":"TEXT_PARCEL","Text":"7","vill_code":"531853","LGD_CODE":"531853"}},{"type":"Feature","id":31,"geometry":{"type":"Polygon","coordinates":[[[77.401918506988167,21.344619893684737],[77.400680432544661,21.347146386370166],[77.398658295775945,21.346947811792482],[77.398109801870149,21.347007315321079],[77.398120842494009,21.3469212011432],[77.399359206207862,21.346574257983946],[77.399741212225081,21.345658379239921],[77.400489305564662,21.345808106740378],[77.401918506988167,21.344619893684737]]]},"properties":{"FID":31,"Join_Count":2,"TARGET_FID":32,"Layer":"TEXT_PARCEL","Text":"9","vill_code":"531853","LGD_CODE":"531853"}}]
}