{
  "type" : "FeatureCollection",
  "features" : [{"type":"Feature","id":0,"geometry":{"type":"LineString","coordinates":[[77.392211602005318,21.336507795646785],[77.391794866303897,21.337127979228782],[77.391492276076761,21.337430943700596],[77.391341317424434,21.3376361251504],[77.391265735400424,21.337865010631933],[77.391265461813006,21.337990356814942]]},"properties":{"FID":0,"LGD_CODE":"531853","ROAD_TYPE":"C"}},{"type":"Feature","id":1,"geometry":{"type":"LineString","coordinates":[[77.39280833244905,21.340210555810781],[77.392872767678938,21.339633638328703],[77.392860654492296,21.339226605238011],[77.392889089660358,21.338906332483777],[77.393046936251395,21.338657379319688],[77.393138815905331,21.338362161651293],[77.393269599300012,21.337987304042311],[77.393348960715443,21.33779023196799],[77.393391848876533,21.33748981673185],[77.393477423236561,21.337141575572264]]},"properties":{"FID":1,"LGD_CODE":"531853","ROAD_TYPE":"C"}},{"type":"Feature","id":2,"geometry":{"type":"LineString","coordinates":[[77.392762754138715,21.341094203671876],[77.392874783063291,21.341919520384018],[77.393705191862395,21.342917555171415]]},"properties":{"FID":2,"LGD_CODE":"531853","ROAD_TYPE":"C"}},{"type":"Feature","id":3,"geometry":{"type":"LineString","coordinates":[[77.39489952614322,21.340612215244033],[77.395436842438428,21.341335297770271],[77.395491506180051,21.341409368729302],[77.395189548985414,21.34276722906047]]},"properties":{"FID":3,"LGD_CODE":"531853","ROAD_TYPE":"C"}},{"type":"Feature","id":4,"geometry":{"type":"LineString","coordinates":[[77.395491506180051,21.341409368729302],[77.395860301324376,21.341412875772349],[77.397119811547213,21.341666909436583],[77.397790959511283,21.341570735364794],[77.398093917134645,21.341297692402666]]},"properties":{"FID":4,"LGD_CODE":"531853","ROAD_TYPE":"C"}},{"type":"Feature","id":5,"geometry":{"type":"LineString","coordinates":[[77.398326738121398,21.341226650321296],[77.399171396387004,21.341046311195786],[77.399810015318948,21.342118174350393],[77.400124335023406,21.342068178499147],[77.400278234808908,21.341478122223712],[77.402306131963712,21.341481658915949]]},"properties":{"FID":5,"LGD_CODE":"531853","ROAD_TYPE":"C"}},{"type":"Feature","id":6,"geometry":{"type":"LineString","coordinates":[[77.399171396387004,21.341046311195786],[77.399736728244889,21.341198978316946],[77.40025932606784,21.341550619098598]]},"properties":{"FID":6,"LGD_CODE":"531853","ROAD_TYPE":"C"}},{"type":"Feature","id":7,"geometry":{"type":"LineString","coordinates":[[77.403102484246318,21.341628333140033],[77.402295892965753,21.341541917654929],[77.402014879546456,21.342053409378948]]},"properties":{"FID":7,"LGD_CODE":"531853","ROAD_TYPE":"C"}},{"type":"Feature","id":8,"geometry":{"type":"LineString","coordinates":[[77.402014879546456,21.342053409378948],[77.402501865375228,21.342071450255165],[77.402111227962735,21.343029963616676],[77.402164327822462,21.343178452162419],[77.402296455175815,21.343276353467232]]},"properties":{"FID":8,"LGD_CODE":"531853","ROAD_TYPE":"C"}},{"type":"Feature","id":9,"geometry":{"type":"LineString","coordinates":[[77.394711970178676,21.346119465094073],[77.394673436528294,21.345807840145206],[77.394905981344849,21.344743633695892],[77.395182643175303,21.343533555401681],[77.395310027962594,21.34310413771928]]},"properties":{"FID":9,"LGD_CODE":"531853","ROAD_TYPE":"C"}},{"type":"Feature","id":10,"geometry":{"type":"LineString","coordinates":[[77.385018939152104,21.346103079830932],[77.38680723705528,21.344124025606558]]},"properties":{"FID":10,"LGD_CODE":"531853","ROAD_TYPE":"C"}},{"type":"Feature","id":11,"geometry":{"type":"LineString","coordinates":[[77.38680723705528,21.344124025606558],[77.386839624711925,21.343842488797328],[77.388746814994093,21.34203376651255],[77.389343833153177,21.341422780459112],[77.389549268164401,21.341327638156059],[77.390377728476722,21.341097055433416]]},"properties":{"FID":11,"LGD_CODE":"531853","ROAD_TYPE":"C"}},{"type":"Feature","id":12,"geometry":{"type":"LineString","coordinates":[[77.384630298738827,21.342628195840867],[77.385239769667066,21.341766545140541],[77.387858340713521,21.342105366696114],[77.388969327110843,21.341953664401974],[77.389222194985123,21.341985398219112],[77.391398890318101,21.341899843433207],[77.392688307915179,21.341988887038291],[77.392919941359196,21.342040908724158],[77.393324002733692,21.342038258541589],[77.394198046377511,21.34179836516401],[77.39500596068109,21.341709707365482],[77.395491506180051,21.341409368729302]]},"properties":{"FID":12,"LGD_CODE":"531853","ROAD_TYPE":"B"}},{"type":"Feature","id":13,"geometry":{"type":"LineString","coordinates":[[77.395436842438428,21.341335297770271],[77.395229974818733,21.341471579936446],[77.394958211767701,21.341634618322949],[77.394594167463026,21.341701737760786],[77.394409862072536,21.341702493855905],[77.39406294542276,21.341750421902734],[77.393278278118785,21.341980189410314],[77.392751209696783,21.341927775234591],[77.391494289883696,21.341831537691522],[77.389277110972273,21.341930303891793],[77.3887853351102,21.341902629370999],[77.387923327889595,21.342026132567206],[77.38517858286157,21.341687225059736],[77.38463623260661,21.342488299572903]]},"properties":{"FID":13,"LGD_CODE":"531853","ROAD_TYPE":"B"}},{"type":"Feature","id":14,"geometry":{"type":"LineString","coordinates":[[77.385530475690643,21.336986159646749],[77.386740271980472,21.337340949275298],[77.387104485290209,21.337536291158028],[77.387538032489871,21.337657258405073],[77.388527557028141,21.338124227336646],[77.389976403712993,21.338085652071797],[77.390891908999592,21.33808318294594],[77.391265461813006,21.337990356814942]]},"properties":{"FID":14,"LGD_CODE":"531853","ROAD_TYPE":"C"}},{"type":"Feature","id":15,"geometry":{"type":"LineString","coordinates":[[77.392869854382852,21.340321882421758],[77.394451807492899,21.340219070312372],[77.395840991385526,21.34023066627935],[77.397790493711042,21.339954207294515],[77.398486923847443,21.340025111456331],[77.39917670160051,21.340040077396498],[77.399993308546343,21.340048765675622],[77.400347193234524,21.340304253782488]]},"properties":{"FID":15,"LGD_CODE":"531853","ROAD_TYPE":"C"}},{"type":"Feature","id":16,"geometry":{"type":"LineString","coordinates":[[77.401962475344604,21.33970909960291],[77.402175491718538,21.339586839899734],[77.402316937138494,21.33947362679227],[77.40253769901129,21.339452654264047],[77.40277687940852,21.339356707689724],[77.403083672694947,21.339139718710246],[77.40340647360668,21.339041825478159],[77.403821906190572,21.33906413914838],[77.404403347398343,21.339164249433789],[77.405481482664783,21.339659431500209]]},"properties":{"FID":16,"LGD_CODE":"531853","ROAD_TYPE":"C"}},{"type":"Feature","id":17,"geometry":{"type":"LineString","coordinates":[[77.402295892965753,21.341541917654929],[77.402741914091052,21.342029034784883],[77.402834646949273,21.342175225664718]]},"properties":{"FID":17,"LGD_CODE":"531853","ROAD_TYPE":"C"}},{"type":"Feature","id":18,"geometry":{"type":"LineString","coordinates":[[77.400347193234524,21.340304253782488],[77.400693520275169,21.340437235625647],[77.401250425100429,21.340308918569782],[77.401575336200906,21.33986862126342]]},"properties":{"FID":18,"LGD_CODE":"531853","ROAD_TYPE":"C"}},{"type":"Feature","id":19,"geometry":{"type":"LineString","coordinates":[[77.392889089660358,21.338906332483777],[77.39257165579312,21.338745975888678],[77.39252995687292,21.338590654533995],[77.391715203357293,21.338259605165927],[77.391265461813006,21.337990356814942]]},"properties":{"FID":19,"LGD_CODE":"531853","ROAD_TYPE":"C"}},{"type":"Feature","id":20,"geometry":{"type":"LineString","coordinates":[[77.402306131963712,21.341481658915949],[77.402295892965753,21.341541917654929]]},"properties":{"FID":20,"LGD_CODE":"531853","ROAD_TYPE":"C"}}]
}