{
  "type" : "FeatureCollection",
  "features" : [{"type":"Feature","id":0,"geometry":{"type":"LineString","coordinates":[[77.482623022061503,21.378654324505394],[77.481819797328157,21.379589406886605],[77.4818280323897,21.379702073366666],[77.48157859566362,21.38106307729856],[77.481574681515696,21.381425047787047]]},"properties":{"FID":0,"LGD_CODE":"531859","ROAD_TYPE":"A"}},{"type":"Feature","id":1,"geometry":{"type":"LineString","coordinates":[[77.481783673565161,21.381520640347006],[77.48190110500137,21.3834519088809],[77.481504759288597,21.383942278924309],[77.48142927471109,21.384221889159047],[77.481615451861003,21.384822598853599],[77.481567935983307,21.385307898752181],[77.481480056400471,21.385668604931723],[77.481227178520555,21.385703619533725],[77.481035329647284,21.385379203226808],[77.480934475317227,21.385326488839809],[77.481172228910253,21.386028258278284],[77.481115861282504,21.38642197045856],[77.480934622088725,21.386626096900578],[77.480521104024831,21.386645739018284],[77.479828562967953,21.386667131428286],[77.479702443872313,21.386799632585785],[77.479688089707452,21.387237353153967],[77.479420211755993,21.38748009602174],[77.479177200966902,21.387626185128784]]},"properties":{"FID":1,"LGD_CODE":"531859","ROAD_TYPE":"B"}},{"type":"Feature","id":2,"geometry":{"type":"LineString","coordinates":[[77.479130870969087,21.387372933737726],[77.479431020131074,21.387215059156272],[77.479472936266433,21.386741526522361],[77.479514784651499,21.386532520581234],[77.479629453771466,21.386435066426866],[77.480140110822504,21.386387810780626],[77.480714738920327,21.386360517015991],[77.480884055866298,21.386214462207715],[77.480884121112766,21.385949935664765],[77.480725203563125,21.38558945167161],[77.480620699102261,21.385191879871371],[77.48076877002282,21.385035333372699],[77.481125035670217,21.385190925711107],[77.481340964913528,21.385387686860962],[77.481426245527047,21.385153615363901],[77.481425601123405,21.384923625604987],[77.481361458503486,21.384650648158612],[77.481252463382475,21.384471809478494],[77.481187376093644,21.384244880870941],[77.481177882187069,21.383923303310596],[77.481338109664847,21.383697172756612],[77.481595473633476,21.383443425678479],[77.481681698188353,21.383163305190401],[77.481664298626882,21.382704091045067],[77.481592381659112,21.381764423887923],[77.481574681515696,21.381425047787047]]},"properties":{"FID":2,"LGD_CODE":"531859","ROAD_TYPE":"B"}},{"type":"Feature","id":3,"geometry":{"type":"LineString","coordinates":[[77.477228125308955,21.379053890851527],[77.47734325703486,21.379112040138413],[77.477487425776332,21.379240069462035],[77.47771050474087,21.379656579435633],[77.477874803809485,21.380057488035071],[77.477955958357512,21.380322761009424]]},"properties":{"FID":3,"LGD_CODE":"531859","ROAD_TYPE":"B"}},{"type":"Feature","id":4,"geometry":{"type":"LineString","coordinates":[[77.477219560464903,21.378970728788055],[77.477391056592978,21.37903340170309],[77.477553089612314,21.379219845778866],[77.477661028893053,21.379394553189258],[77.477843091358736,21.379766008805273],[77.477945827412313,21.380008400122168],[77.478020400599618,21.380229649551257],[77.478028399788698,21.380257879380455]]},"properties":{"FID":4,"LGD_CODE":"531859","ROAD_TYPE":"B"}},{"type":"Feature","id":5,"geometry":{"type":"LineString","coordinates":[[77.478252664568856,21.380999026026451],[77.478686952711016,21.381583000317306],[77.479112250942038,21.382001302282735],[77.479243598854396,21.382094723408446],[77.479425539405241,21.382139234331895],[77.479869435754338,21.382104864990051],[77.480063456831274,21.382084524439012]]},"properties":{"FID":5,"LGD_CODE":"531859","ROAD_TYPE":"B"}},{"type":"Feature","id":6,"geometry":{"type":"LineString","coordinates":[[77.478315802632579,21.380942876814302],[77.478508879868897,21.381199465342629],[77.478919991180987,21.381704812437484],[77.47912967483893,21.381907460142042],[77.479359475276709,21.382036069197671],[77.48005201729778,21.381984147732684]]},"properties":{"FID":6,"LGD_CODE":"531859","ROAD_TYPE":"B"}},{"type":"Feature","id":7,"geometry":{"type":"LineString","coordinates":[[77.476435555441697,21.375316689359938],[77.476653869101483,21.375829036467394],[77.476780876819944,21.375982461179607],[77.476861352741778,21.376138094879806],[77.47677865338251,21.376693466329858],[77.476736871801236,21.377067509412196],[77.476934324657194,21.377563073611647],[77.47721298266427,21.378028206523389]]},"properties":{"FID":7,"LGD_CODE":"531859","ROAD_TYPE":"C"}},{"type":"Feature","id":8,"geometry":{"type":"LineString","coordinates":[[77.477137538187606,21.378174309706882],[77.477658255721067,21.376870955942561],[77.477835341174654,21.376397473739924],[77.477933095051682,21.376014129066515],[77.478269700645086,21.375167656974273],[77.478650278931454,21.374292520692762],[77.478954626649326,21.373507374469263],[77.47934459942654,21.37277795699077],[77.479409550969436,21.372482540270401],[77.479424322964121,21.37221608211085],[77.4793902820428,21.371912078391325],[77.479344516386163,21.371575411842979],[77.479310475922702,21.371271408055875],[77.479228306550979,21.370896606632439],[77.479204884514218,21.370690589695361],[77.479058657263636,21.370509641043579]]},"properties":{"FID":8,"LGD_CODE":"531859","ROAD_TYPE":"C"}},{"type":"Feature","id":9,"geometry":{"type":"LineString","coordinates":[[77.478987703715106,21.370663745255396],[77.479050712485432,21.370792093111703],[77.479045655787402,21.371038158256201],[77.479053239365854,21.371423145476435],[77.479019171081745,21.371723739581999],[77.478977941943654,21.372071181097517],[77.478913672944145,21.372333345700937],[77.478750411009912,21.372586923043741],[77.478576380517325,21.372761284525101],[77.478413937699059,21.372974959130072],[77.478133068770163,21.373220832197916],[77.477980729105923,21.373340504106288]]},"properties":{"FID":9,"LGD_CODE":"531859","ROAD_TYPE":"C"}},{"type":"Feature","id":10,"geometry":{"type":"LineString","coordinates":[[77.484035473154563,21.368366737767335],[77.483672936976433,21.369926216807801],[77.483233175844902,21.371422058174709],[77.483138986311815,21.37163249426775],[77.483051819405347,21.37180273325054],[77.482779423792067,21.371636288714306],[77.482135604425849,21.371447624491651],[77.481706607036784,21.371361700149873],[77.481628100469095,21.371411936672899],[77.481455772724189,21.371805469214348],[77.481226436973955,21.372560480681926],[77.481149217422626,21.372849836738734],[77.48091197756284,21.373385974136546],[77.48052173851093,21.374128695387245],[77.480139475778117,21.374784666175206],[77.479855874913639,21.375363234124595],[77.479681079522592,21.375676788921194],[77.479605222109825,21.375899640610864],[77.479558609733488,21.376207474340262],[77.479494750674888,21.376449687892503],[77.479450870533569,21.376624513517534],[77.479383949320606,21.37671406242799]]},"properties":{"FID":10,"LGD_CODE":"531859","ROAD_TYPE":"C"}},{"type":"Feature","id":11,"geometry":{"type":"LineString","coordinates":[[77.478112671593891,21.377717309026128],[77.478892006887492,21.377428390758389]]},"properties":{"FID":11,"LGD_CODE":"531859","ROAD_TYPE":"C"}},{"type":"Feature","id":12,"geometry":{"type":"LineString","coordinates":[[77.482635068949506,21.378561385581662],[77.482026366802231,21.378493827664094],[77.480968877282749,21.378371318773667],[77.480734365980737,21.37833414709133]]},"properties":{"FID":12,"LGD_CODE":"531859","ROAD_TYPE":"C"}},{"type":"Feature","id":13,"geometry":{"type":"LineString","coordinates":[[77.481819797328157,21.379589406886605],[77.481133577167085,21.380353607927596],[77.480605589962977,21.381009858195309]]},"properties":{"FID":13,"LGD_CODE":"531859","ROAD_TYPE":"B"}},{"type":"Feature","id":14,"geometry":{"type":"LineString","coordinates":[[77.48062836173834,21.381108435216774],[77.48136534616475,21.380236296088032],[77.481562615271741,21.379987744586792],[77.4818280323897,21.379702073366666]]},"properties":{"FID":14,"LGD_CODE":"531859","ROAD_TYPE":"B"}},{"type":"Feature","id":15,"geometry":{"type":"LineString","coordinates":[[77.479743174405201,21.376855565680216],[77.479973652675142,21.376717832017277],[77.480183524648226,21.37676101592054],[77.480403839551187,21.376933906652386],[77.480424811609993,21.377387371876047],[77.480450236343742,21.37765856477392],[77.480542003043752,21.378019621445073],[77.480727884781444,21.378510221222452]]},"properties":{"FID":15,"LGD_CODE":"531859","ROAD_TYPE":"C"}},{"type":"Feature","id":16,"geometry":{"type":"LineString","coordinates":[[77.477339457283975,21.374489036627953],[77.476849211273034,21.375721504436065]]},"properties":{"FID":16,"LGD_CODE":"531859","ROAD_TYPE":"C"}},{"type":"Feature","id":17,"geometry":{"type":"LineString","coordinates":[[77.476795057534929,21.379611409946826],[77.477097882604014,21.380132670687846],[77.477395880284163,21.380787057502673],[77.477514925938479,21.381255624471969],[77.477531461824981,21.381959094610227],[77.47751377468802,21.38251802343725],[77.477489828475839,21.38277827313723],[77.477596654268979,21.383311358318956],[77.477626230924685,21.383682013309752],[77.4773575832955,21.384401875373804]]},"properties":{"FID":17,"LGD_CODE":"531859","ROAD_TYPE":"C"}},{"type":"Feature","id":18,"geometry":{"type":"LineString","coordinates":[[77.478085605195304,21.385986040551234],[77.47803651429922,21.3854364576327],[77.477960942822904,21.385010470848275]]},"properties":{"FID":18,"LGD_CODE":"531859","ROAD_TYPE":"C"}},{"type":"Feature","id":19,"geometry":{"type":"LineString","coordinates":[[77.471605034093059,21.383136441246595],[77.471958815311879,21.382882188996582],[77.472307465974282,21.382357449684442],[77.472389568653242,21.382112160601032],[77.472500811856122,21.381890898614817],[77.472647128361658,21.381693382162009],[77.473020768896177,21.381682004949791],[77.473444140663801,21.381846135755552],[77.473586660642923,21.38183301997967],[77.473601138906346,21.381501293288881],[77.473891896639486,21.381113411882687],[77.474197436465005,21.380666944499868],[77.474555061452847,21.38028152921644],[77.475171064940582,21.379725038232905]]},"properties":{"FID":19,"LGD_CODE":"531859","ROAD_TYPE":"C"}},{"type":"Feature","id":20,"geometry":{"type":"LineString","coordinates":[[77.473775726365901,21.378662475778047],[77.474106138893092,21.37893974542747],[77.474352524702212,21.378996808637869],[77.475235318742463,21.378997013828183]]},"properties":{"FID":20,"LGD_CODE":"531859","ROAD_TYPE":"C"}},{"type":"Feature","id":21,"geometry":{"type":"LineString","coordinates":[[77.473974101952891,21.379526467857371],[77.474253070179287,21.378973774916783]]},"properties":{"FID":21,"LGD_CODE":"531859","ROAD_TYPE":"C"}},{"type":"Feature","id":22,"geometry":{"type":"LineString","coordinates":[[77.474976401220815,21.378174991837739],[77.474099843698724,21.378124958129145],[77.473899190091416,21.378080290459618],[77.47377862878507,21.377923943320628],[77.473522473870503,21.377559457469854]]},"properties":{"FID":22,"LGD_CODE":"531859","ROAD_TYPE":"C"}},{"type":"Feature","id":23,"geometry":{"type":"LineString","coordinates":[[77.4737705292642,21.381277758843005],[77.47386560477176,21.381592050708981],[77.473793602363614,21.381822913142678],[77.473822859556833,21.382109751552235],[77.474104324226431,21.382500418097163],[77.474227449897427,21.382945092706798],[77.474273586872485,21.383214624246925],[77.474279963857057,21.383512295262154]]},"properties":{"FID":23,"LGD_CODE":"531859","ROAD_TYPE":"C"}},{"type":"Feature","id":24,"geometry":{"type":"LineString","coordinates":[[77.481783673565161,21.381520640347006],[77.481848654586003,21.381095471569175]]},"properties":{"FID":24,"LGD_CODE":"531859","ROAD_TYPE":"A"}},{"type":"Feature","id":25,"geometry":{"type":"LineString","coordinates":[[77.481848654586003,21.381095471569175],[77.482103156452908,21.379658855016125],[77.482108533907109,21.379568153469407],[77.482980129374738,21.378727804734037],[77.484236100009099,21.377217226655077]]},"properties":{"FID":25,"LGD_CODE":"531859","ROAD_TYPE":"A"}},{"type":"Feature","id":26,"geometry":{"type":"LineString","coordinates":[[77.484023552116483,21.377098535403519],[77.483537345378977,21.377615976740906],[77.482623022061503,21.378654324505394]]},"properties":{"FID":26,"LGD_CODE":"531859","ROAD_TYPE":"A"}},{"type":"Feature","id":27,"geometry":{"type":"LineString","coordinates":[[77.471904555152605,21.388631766120628],[77.472278583934127,21.388860973986649],[77.472358983925773,21.389221711875358]]},"properties":{"FID":27,"LGD_CODE":"531859","ROAD_TYPE":"A"}},{"type":"Feature","id":28,"geometry":{"type":"LineString","coordinates":[[77.472336942169719,21.388825865551983],[77.471930916148253,21.388551136864947]]},"properties":{"FID":28,"LGD_CODE":"531859","ROAD_TYPE":"A"}},{"type":"Feature","id":29,"geometry":{"type":"LineString","coordinates":[[77.472392920140592,21.389173062421339],[77.472336942169719,21.388825865551983]]},"properties":{"FID":29,"LGD_CODE":"531859","ROAD_TYPE":"A"}},{"type":"Feature","id":30,"geometry":{"type":"LineString","coordinates":[[77.479560672069255,21.377439599880361],[77.479909262393804,21.378190643578019],[77.480156321761598,21.37858931439596],[77.480149572088024,21.378917958450678],[77.479831724261658,21.379480259935001],[77.47977434611677,21.379881891167152],[77.479842232024538,21.380095588148507],[77.479897719650637,21.38020916060098],[77.479982145717372,21.380321358645627],[77.480274304885739,21.380524403740264],[77.480360368420435,21.38068680386602]]},"properties":{"FID":30,"LGD_CODE":"531859","ROAD_TYPE":"C"}},{"type":"Feature","id":31,"geometry":{"type":"LineString","coordinates":[[77.476849211273034,21.375721504436065],[77.476844015522289,21.376104566182779]]},"properties":{"FID":31,"LGD_CODE":"531859","ROAD_TYPE":"C"}}]
}