{
  "type" : "FeatureCollection",
  "features" : [{"type":"Feature","id":0,"geometry":{"type":"Polygon","coordinates":[[[77.480971225583232,21.371689881652742],[77.480874973522262,21.37198134795112],[77.480089247715554,21.371765703152747],[77.479058656990162,21.370509641021265],[77.478998362701844,21.369622621833685],[77.479527867442599,21.368989169055013],[77.480496515010103,21.370034769878302],[77.481335901530784,21.370842047006114],[77.480971225583232,21.371689881652742]]]},"properties":{"FID":0,"Join_Count":3,"TARGET_FID":1,"Layer":"TEXT_PARCEL","Text":"22","vill_code":"531859","LGD_CODE":"531859"}},{"type":"Feature","id":1,"geometry":{"type":"Polygon","coordinates":[[[77.481168551732566,21.373550821667259],[77.480161328725757,21.375454470643184],[77.479411899427589,21.375230622740521],[77.47992406347754,21.373085199293754],[77.479425643429792,21.372296313683698],[77.478284266263884,21.372231142024951],[77.478333927316044,21.37208366896424],[77.479058656990162,21.370509641021265],[77.480089247715554,21.371765703152747],[77.480874973522262,21.37198134795112],[77.481168551732566,21.373550821667259]]]},"properties":{"FID":1,"Join_Count":3,"TARGET_FID":2,"Layer":"TEXT_PARCEL","Text":"24","vill_code":"531859","LGD_CODE":"531859"}},{"type":"Feature","id":2,"geometry":{"type":"Polygon","coordinates":[[[77.479411899427589,21.375230622740521],[77.477988244450515,21.375624806161088],[77.477922240998382,21.37471205077313],[77.477888174677744,21.37386890654604],[77.477895654811533,21.373664806471901],[77.47822760509645,21.372399402136494],[77.478284266263884,21.372231142024951],[77.479425643429792,21.372296313683698],[77.47992406347754,21.373085199293754],[77.479411899427589,21.375230622740521]]]},"properties":{"FID":2,"Join_Count":3,"TARGET_FID":3,"Layer":"TEXT_PARCEL","Text":"25","vill_code":"531859","LGD_CODE":"531859"}},{"type":"Feature","id":3,"geometry":{"type":"Polygon","coordinates":[[[77.482609715179606,21.37335366372583],[77.482023621750628,21.375603365825359],[77.481840417848105,21.375587589992364],[77.480161328725757,21.375454470643184],[77.481168551732566,21.373550821667259],[77.480874973522262,21.37198134795112],[77.480971225583232,21.371689881652742],[77.481335901530784,21.370842047006114],[77.483033528620922,21.371450935640752],[77.482609715179606,21.37335366372583]]]},"properties":{"FID":3,"Join_Count":3,"TARGET_FID":4,"Layer":"TEXT_PARCEL","Text":"23","vill_code":"531859","LGD_CODE":"531859"}},{"type":"Feature","id":4,"geometry":{"type":"Polygon","coordinates":[[[77.483931873909597,21.375021281633806],[77.483800826825899,21.376228820350704],[77.482826304278831,21.375651712449528],[77.482023621750628,21.375603365825359],[77.482609715179606,21.37335366372583],[77.483033528620922,21.371450935640752],[77.481335901530784,21.370842047006114],[77.480496515010103,21.370034769878302],[77.479527867442599,21.368989169055013],[77.480654800945445,21.368997787976117],[77.482862671829238,21.368026201988123],[77.484381356718515,21.368483228096775],[77.484563081162591,21.368584290701612],[77.484461371531381,21.369617833127506],[77.484333656201798,21.370977104357486],[77.484186457811361,21.37234420503772],[77.484059166343016,21.373682742916845],[77.483931873909597,21.375021281633806]]]},"properties":{"FID":4,"Join_Count":3,"TARGET_FID":5,"Layer":"TEXT_PARCEL","Text":"21","vill_code":"531859","LGD_CODE":"531859"}},{"type":"Feature","id":5,"geometry":{"type":"Polygon","coordinates":[[[77.476042271791584,21.377570843783527],[77.475747427764674,21.377591483945746],[77.475513666967615,21.376554442846327],[77.474885153449122,21.376270406395594],[77.4746974922421,21.376195647771539],[77.474819560930015,21.376040856239737],[77.475056543844772,21.375636074565861],[77.475127794572799,21.375460089546909],[77.475298362045208,21.375465802332524],[77.475931566271043,21.375525500207942],[77.476571450974276,21.375260384947097],[77.477020563662649,21.374562462358078],[77.477565758612414,21.373576907439407],[77.477895654811533,21.373664806471901],[77.477888174677744,21.37386890654604],[77.477922240998382,21.37471205077313],[77.477988244450515,21.375624806161088],[77.476984982398051,21.375885043917695],[77.476042271791584,21.377570843783527]]]},"properties":{"FID":5,"Join_Count":3,"TARGET_FID":7,"Layer":"TEXT_PARCEL","Text":"28","vill_code":"531859","LGD_CODE":"531859"}},{"type":"Feature","id":6,"geometry":{"type":"Polygon","coordinates":[[[77.47729630329701,21.378124274384199],[77.477137537441095,21.378174309812405],[77.476112529966173,21.378081296255914],[77.476042271791584,21.377570843783527],[77.476984982398051,21.375885043917695],[77.477988244450515,21.375624806161088],[77.478327274375914,21.376771394323889],[77.478080177447396,21.377619848347962],[77.47729630329701,21.378124274384199]]]},"properties":{"FID":6,"Join_Count":3,"TARGET_FID":8,"Layer":"TEXT_PARCEL","Text":"27","vill_code":"531859","LGD_CODE":"531859"}},{"type":"Feature","id":7,"geometry":{"type":"Polygon","coordinates":[[[77.478536347179741,21.378656283379833],[77.478446039578202,21.378665058825064],[77.478393483518488,21.378559557007119],[77.478080177447396,21.377619848347962],[77.478327274375914,21.376771394323889],[77.477988244450515,21.375624806161088],[77.479411899427589,21.375230622740521],[77.480161328725757,21.375454470643184],[77.479698129411304,21.377006492400433],[77.479177234932152,21.378647733115393],[77.478536347179741,21.378656283379833]]]},"properties":{"FID":7,"Join_Count":3,"TARGET_FID":9,"Layer":"TEXT_PARCEL","Text":"26","vill_code":"531859","LGD_CODE":"531859"}},{"type":"Feature","id":8,"geometry":{"type":"Polygon","coordinates":[[[77.483537345333943,21.377615976952558],[77.482623021878055,21.37865432464443],[77.480739227120338,21.378440504988841],[77.480734365446921,21.37833414773857],[77.481216153678318,21.377208373557369],[77.481268497829475,21.376621223523365],[77.482023621750628,21.375603365825359],[77.482826304278831,21.375651712449528],[77.483800826825899,21.376228820350704],[77.483966322002487,21.376952790724449],[77.484023551445418,21.377098535659382],[77.483537345333943,21.377615976952558]]]},"properties":{"FID":8,"Join_Count":3,"TARGET_FID":10,"Layer":"TEXT_PARCEL","Text":"20","vill_code":"531859","LGD_CODE":"531859"}},{"type":"Feature","id":9,"geometry":{"type":"Polygon","coordinates":[[[77.475957518074551,21.378836222298013],[77.475437472076536,21.378994791335501],[77.475235318803868,21.378997014027821],[77.474506977063015,21.378795409097737],[77.473726081008067,21.377516000791978],[77.47352247308217,21.377559457484722],[77.472783786698074,21.376949083039989],[77.472998105175506,21.37691436476285],[77.473614107931226,21.376871325128217],[77.4736580529474,21.377083267120558],[77.474084297182614,21.376759417443779],[77.474589187401236,21.37632576571211],[77.4746974922421,21.376195647771539],[77.474885153449122,21.376270406395594],[77.475513666967615,21.376554442846327],[77.475747427764674,21.377591483945746],[77.476042271791584,21.377570843783527],[77.476112529966173,21.378081296255914],[77.476092480773289,21.378795312836544],[77.475957518074551,21.378836222298013]]]},"properties":{"FID":9,"Join_Count":3,"TARGET_FID":11,"Layer":"TEXT_PARCEL","Text":"29","vill_code":"531859","LGD_CODE":"531859"}},{"type":"Feature","id":10,"geometry":{"type":"Polygon","coordinates":[[[77.480739227120338,21.378440504988841],[77.480586522113867,21.379379076802952],[77.479493677169543,21.379172142895506],[77.479318899989863,21.379153231598238],[77.479177234932152,21.378647733115393],[77.479698129411304,21.377006492400433],[77.480161328725757,21.375454470643184],[77.481840417848105,21.375587589992364],[77.482023621750628,21.375603365825359],[77.481268497829475,21.376621223523365],[77.481216153678318,21.377208373557369],[77.480734365446921,21.37833414773857],[77.480739227120338,21.378440504988841]]]},"properties":{"FID":10,"Join_Count":3,"TARGET_FID":12,"Layer":"TEXT_PARCEL","Text":"19","vill_code":"531859","LGD_CODE":"531859"}},{"type":"Feature","id":11,"geometry":{"type":"Polygon","coordinates":[[[77.477238532371658,21.379154943289837],[77.476617973682394,21.379781863463997],[77.476092480773289,21.378795312836544],[77.476112529966173,21.378081296255914],[77.477137537441095,21.378174309812405],[77.477238532371658,21.379154943289837]]]},"properties":{"FID":11,"Join_Count":3,"TARGET_FID":13,"Layer":"TEXT_PARCEL","Text":"ग\u093E\u0902वठ\u093Eण","vill_code":"531859","LGD_CODE":"531859"}},{"type":"Feature","id":12,"geometry":{"type":"Polygon","coordinates":[[[77.480586522113867,21.379379076802952],[77.480572622406314,21.380077715026637],[77.478945778534253,21.379878952345937],[77.479318899989863,21.379153231598238],[77.479493677169543,21.379172142895506],[77.480586522113867,21.379379076802952]]]},"properties":{"FID":12,"Join_Count":3,"TARGET_FID":14,"Layer":"TEXT_PARCEL","Text":"15","vill_code":"531859","LGD_CODE":"531859"}},{"type":"Feature","id":13,"geometry":{"type":"Polygon","coordinates":[[[77.47333573285934,21.377839811574919],[77.473502447012265,21.380417471484133],[77.471969982593549,21.380418636307589],[77.471622100242698,21.379982785356777],[77.471613927225917,21.379776951835741],[77.471462602110279,21.379193357765651],[77.471460647107463,21.379157892551749],[77.471826378115537,21.378295550740603],[77.472628543475281,21.377560463712534],[77.47333573285934,21.377839811574919]]]},"properties":{"FID":13,"Join_Count":3,"TARGET_FID":15,"Layer":"TEXT_PARCEL","Text":"4","vill_code":"531859","LGD_CODE":"531859"}},{"type":"Feature","id":14,"geometry":{"type":"Polygon","coordinates":[[[77.477955957995192,21.380322761137219],[77.477717695207602,21.380638828612891],[77.477399623272532,21.379234507228539],[77.477238532371658,21.379154943289837],[77.477137537441095,21.378174309812405],[77.47729630329701,21.378124274384199],[77.478080177447396,21.377619848347962],[77.478393483518488,21.378559557007119],[77.478446039578202,21.378665058825064],[77.478536347179741,21.378656283379833],[77.479177234932152,21.378647733115393],[77.479318899989863,21.379153231598238],[77.478945778534253,21.379878952345937],[77.478814560859632,21.380159455410389],[77.478240639332569,21.380033897991588],[77.477955957995192,21.380322761137219]]]},"properties":{"FID":14,"Join_Count":3,"TARGET_FID":16,"Layer":"TEXT_PARCEL","Text":"17","vill_code":"531859","LGD_CODE":"531859"}},{"type":"Feature","id":15,"geometry":{"type":"Polygon","coordinates":[[[77.478455328573901,21.380747890994403],[77.478186462515623,21.380860316371802],[77.477717695207602,21.380638828612891],[77.477955957995192,21.380322761137219],[77.478240639332569,21.380033897991588],[77.478814560859632,21.380159455410389],[77.478455328573901,21.380747890994403]]]},"properties":{"FID":15,"Join_Count":2,"TARGET_FID":17,"Layer":"TEXT_PARCEL","Text":"छन\u094Dस\u094Dस\u094D","vill_code":"531859","LGD_CODE":"531859"}},{"type":"Feature","id":16,"geometry":{"type":"Polygon","coordinates":[[[77.482115950012158,21.381086581125803],[77.481848654181135,21.381095471740107],[77.482103155994324,21.379658854985028],[77.482108533644677,21.379568153349961],[77.482980129292216,21.378727804753971],[77.484236099160626,21.377217227076059],[77.483820277625668,21.3787695247889],[77.48376360250171,21.378985321378618],[77.483476449113624,21.379811230235731],[77.482115950012158,21.381086581125803]]]},"properties":{"FID":16,"Join_Count":3,"TARGET_FID":18,"Layer":"TEXT_PARCEL","Text":"14","vill_code":"531859","LGD_CODE":"531859"}},{"type":"Feature","id":17,"geometry":{"type":"Polygon","coordinates":[[[77.476617973682394,21.379781863463997],[77.476325726451691,21.381279965919898],[77.475060602444202,21.380978266487187],[77.473949708937809,21.380782479195087],[77.473974102023476,21.379526468250809],[77.47352247308217,21.377559457484722],[77.473726081008067,21.377516000791978],[77.474506977063015,21.378795409097737],[77.475235318803868,21.378997014027821],[77.475437472076536,21.378994791335501],[77.475957518074551,21.378836222298013],[77.476092480773289,21.378795312836544],[77.476617973682394,21.379781863463997]]]},"properties":{"FID":17,"Join_Count":3,"TARGET_FID":19,"Layer":"TEXT_PARCEL","Text":"2","vill_code":"531859","LGD_CODE":"531859"}},{"type":"Feature","id":18,"geometry":{"type":"Polygon","coordinates":[[[77.476383170568724,21.381278545167852],[77.476325726451691,21.381279965919898],[77.476617973682394,21.379781863463997],[77.477238532371658,21.379154943289837],[77.477399623272532,21.379234507228539],[77.477717695207602,21.380638828612891],[77.476383170568724,21.381278545167852]]]},"properties":{"FID":18,"Join_Count":4,"TARGET_FID":20,"Layer":"TEXT_PARCEL","Text":"1","vill_code":"531859","LGD_CODE":"531859"}},{"type":"Feature","id":19,"geometry":{"type":"Polygon","coordinates":[[[77.481848654181135,21.381095471740107],[77.48178367288854,21.381520641020565],[77.481574681471997,21.381425048168737],[77.481578595010276,21.38106307718796],[77.481828032026201,21.379702073825054],[77.481819796998892,21.379589407501104],[77.482623021878055,21.37865432464443],[77.483537345333943,21.377615976952558],[77.484023551445418,21.377098535659382],[77.484249009136306,21.376858593008802],[77.484429223539564,21.376985698685885],[77.484236099160626,21.377217227076059],[77.482980129292216,21.378727804753971],[77.482108533644677,21.379568153349961],[77.482103155994324,21.379658854985028],[77.481848654181135,21.381095471740107]]]},"properties":{"FID":19,"Join_Count":0,"TARGET_FID":21,"Layer":"TEXT_PARCEL","Text":" ","vill_code":" ","LGD_CODE":"531859"}},{"type":"Feature","id":20,"geometry":{"type":"Polygon","coordinates":[[[77.475190210329203,21.38216934939781],[77.474214839300217,21.382561296942129],[77.473601138241492,21.381501293907444],[77.473482816500308,21.381310682330952],[77.473949708937809,21.380782479195087],[77.475060602444202,21.380978266487187],[77.476325726451691,21.381279965919898],[77.476232065833429,21.381399422230221],[77.475190210329203,21.38216934939781]]]},"properties":{"FID":20,"Join_Count":3,"TARGET_FID":22,"Layer":"TEXT_PARCEL","Text":"3","vill_code":"531859","LGD_CODE":"531859"}},{"type":"Feature","id":21,"geometry":{"type":"Polygon","coordinates":[[[77.481368819592589,21.381889003194456],[77.480235329345376,21.38359260627648],[77.480016591570461,21.381673302592571],[77.480572622406314,21.380077715026637],[77.480586522113867,21.379379076802952],[77.480739227120338,21.378440504988841],[77.482623021878055,21.37865432464443],[77.481819796998892,21.379589407501104],[77.481828032026201,21.379702073825054],[77.481578595010276,21.38106307718796],[77.481574681471997,21.381425048168737],[77.481368819592589,21.381889003194456]]]},"properties":{"FID":21,"Join_Count":2,"TARGET_FID":23,"Layer":"TEXT_PARCEL","Text":"छन\u094Dस\u094Dस\u094D","vill_code":"531859","LGD_CODE":"531859"}},{"type":"Feature","id":22,"geometry":{"type":"Polygon","coordinates":[[[77.480105376876907,21.383725171571587],[77.479472514703559,21.384365438960071],[77.477767456474865,21.383628180272346],[77.477872028802068,21.382888352930312],[77.478186462515623,21.380860316371802],[77.478455328573901,21.380747890994403],[77.478814560859632,21.380159455410389],[77.478945778534253,21.379878952345937],[77.480572622406314,21.380077715026637],[77.480016591570461,21.381673302592571],[77.480235329345376,21.38359260627648],[77.480105376876907,21.383725171571587]]]},"properties":{"FID":22,"Join_Count":3,"TARGET_FID":24,"Layer":"TEXT_PARCEL","Text":"16","vill_code":"531859","LGD_CODE":"531859"}},{"type":"Feature","id":23,"geometry":{"type":"Polygon","coordinates":[[[77.469928822002487,21.384300625850369],[77.470114587774461,21.384641420494038],[77.469960077367219,21.384625411105969],[77.468289507778707,21.384417729489691],[77.468103637307664,21.384394621792975],[77.468198433346856,21.384212822464015],[77.468726337443059,21.383385953142831],[77.469761269307824,21.381769631193333],[77.470815049976864,21.380150094101079],[77.471462602110279,21.379193357765651],[77.471613927225917,21.379776951835741],[77.471622100242698,21.379982785356777],[77.471160857751357,21.381434911358102],[77.470429993531809,21.383471923664246],[77.469928822002487,21.384300625850369]]]},"properties":{"FID":23,"Join_Count":4,"TARGET_FID":25,"Layer":"TEXT_PARCEL","Text":"5","vill_code":"531859","LGD_CODE":"531859"}},{"type":"Feature","id":24,"geometry":{"type":"Polygon","coordinates":[[[77.471581723469214,21.381463195936675],[77.471179527422024,21.384783812008255],[77.470782816498371,21.384710656324412],[77.470114587774461,21.384641420494038],[77.469928822002487,21.384300625850369],[77.470429993531809,21.383471923664246],[77.471160857751357,21.381434911358102],[77.471622100242698,21.379982785356777],[77.471969982593549,21.380418636307589],[77.471581723469214,21.381463195936675]]]},"properties":{"FID":24,"Join_Count":3,"TARGET_FID":26,"Layer":"TEXT_PARCEL","Text":"6","vill_code":"531859","LGD_CODE":"531859"}},{"type":"Feature","id":25,"geometry":{"type":"Polygon","coordinates":[[[77.471605033482504,21.383136441378067],[77.471728214105141,21.384809599295131],[77.471179527422024,21.384783812008255],[77.471581723469214,21.381463195936675],[77.471969982593549,21.380418636307589],[77.473502447012265,21.380417471484133],[77.47333573285934,21.377839811574919],[77.472628543475281,21.377560463712534],[77.472783786698074,21.376949083039989],[77.47352247308217,21.377559457484722],[77.473974102023476,21.379526468250809],[77.473949708937809,21.380782479195087],[77.473482816500308,21.381310682330952],[77.472421493025891,21.381004511585026],[77.471914477289801,21.381396601147024],[77.471605033482504,21.383136441378067]]]},"properties":{"FID":25,"Join_Count":1,"TARGET_FID":27,"Layer":"TEXT_PARCEL","Text":"छन\u094Dस\u094Dस\u094D","vill_code":"531859","LGD_CODE":"531859"}},{"type":"Feature","id":26,"geometry":{"type":"Polygon","coordinates":[[[77.477068971528766,21.383565297072316],[77.476666701129659,21.38486828605701],[77.475772970281909,21.384717797676625],[77.476014360335952,21.383089833076006],[77.47673466258054,21.382317234945415],[77.477090504224918,21.382366864105887],[77.47710192845868,21.38256589043166],[77.4770821228133,21.383378409263347],[77.477068971528766,21.383565297072316]]]},"properties":{"FID":26,"Join_Count":3,"TARGET_FID":28,"Layer":"TEXT_PARCEL","Text":"10","vill_code":"531859","LGD_CODE":"531859"}},{"type":"Feature","id":27,"geometry":{"type":"Polygon","coordinates":[[[77.472629905385915,21.383621339598971],[77.472281518084685,21.385642443527608],[77.472190478751443,21.385526600974863],[77.471794303863035,21.38496985989531],[77.471728214105141,21.384809599295131],[77.471605033482504,21.383136441378067],[77.471914477289801,21.381396601147024],[77.472421493025891,21.381004511585026],[77.473482816500308,21.381310682330952],[77.473601138241492,21.381501293907444],[77.474214839300217,21.382561296942129],[77.473373817167385,21.382251670179876],[77.472679324613765,21.38235271041815],[77.472629905385915,21.383621339598971]]]},"properties":{"FID":27,"Join_Count":3,"TARGET_FID":30,"Layer":"TEXT_PARCEL","Text":"7","vill_code":"531859","LGD_CODE":"531859"}},{"type":"Feature","id":28,"geometry":{"type":"Polygon","coordinates":[[[77.483423624850332,21.386568275219915],[77.481766870980451,21.386626815799534],[77.481787234459176,21.386418829923198],[77.481955985772927,21.384731664520217],[77.482016603109798,21.384130732301951],[77.482025517131419,21.383957793912412],[77.482172404528498,21.383858807213606],[77.483320754984277,21.383585728262787],[77.484019770148365,21.383771032593877],[77.484163821927851,21.383810191496973],[77.484176391703912,21.383982109043068],[77.483898843332511,21.385743451393829],[77.483423624850332,21.386568275219915]]]},"properties":{"FID":28,"Join_Count":3,"TARGET_FID":31,"Layer":"TEXT_PARCEL","Text":"12","vill_code":"531859","LGD_CODE":"531859"}},{"type":"Feature","id":29,"geometry":{"type":"Polygon","coordinates":[[[77.476558308698515,21.387177498129347],[77.476411615000316,21.387270847101949],[77.476379844008548,21.387093314184355],[77.476322125743877,21.38653441024929],[77.476666521769673,21.385027949418951],[77.476666701129659,21.38486828605701],[77.477068971528766,21.383565297072316],[77.477240633668075,21.383593323248668],[77.477767456474865,21.383628180272346],[77.479472514703559,21.384365438960071],[77.4788078483422,21.38540801786105],[77.478088183520683,21.385988832604088],[77.477071416076186,21.386814836126831],[77.476558308698515,21.387177498129347]]]},"properties":{"FID":29,"Join_Count":3,"TARGET_FID":32,"Layer":"TEXT_PARCEL","Text":"11","vill_code":"531859","LGD_CODE":"531859"}},{"type":"Feature","id":30,"geometry":{"type":"Polygon","coordinates":[[[77.475566122483642,21.385849473036551],[77.47497832755414,21.387420703824791],[77.473856679764864,21.387034889855133],[77.473872189429642,21.385303898494982],[77.474708033975318,21.385624095594871],[77.474828386083189,21.385636612050423],[77.475566122483642,21.385849473036551]]]},"properties":{"FID":30,"Join_Count":3,"TARGET_FID":33,"Layer":"TEXT_PARCEL","Text":"8","vill_code":"531859","LGD_CODE":"531859"}},{"type":"Feature","id":31,"geometry":{"type":"Polygon","coordinates":[[[77.474726861055416,21.387887326887586],[77.474542350623011,21.38794979630174],[77.474392775786924,21.387834634142063],[77.47360903698987,21.387231203153071],[77.473461205034383,21.387117381309803],[77.473343383316859,21.386968902032969],[77.473159474290227,21.386727975232052],[77.472718543788218,21.386199687585737],[77.472281518084685,21.385642443527608],[77.472629905385915,21.383621339598971],[77.472679324613765,21.38235271041815],[77.473373817167385,21.382251670179876],[77.474214839300217,21.382561296942129],[77.475190210329203,21.38216934939781],[77.476232065833429,21.381399422230221],[77.476325726451691,21.381279965919898],[77.476383170568724,21.381278545167852],[77.477717695207602,21.380638828612891],[77.478186462515623,21.380860316371802],[77.477872028802068,21.382888352930312],[77.477767456474865,21.383628180272346],[77.477240633668075,21.383593323248668],[77.477068971528766,21.383565297072316],[77.4770821228133,21.383378409263347],[77.47710192845868,21.38256589043166],[77.477090504224918,21.382366864105887],[77.47673466258054,21.382317234945415],[77.476014360335952,21.383089833076006],[77.475772970281909,21.384717797676625],[77.476666701129659,21.38486828605701],[77.476666521769673,21.385027949418951],[77.476322125743877,21.38653441024929],[77.476379844008548,21.387093314184355],[77.476411615000316,21.387270847101949],[77.476241756586603,21.387378936659079],[77.475680757087801,21.38756436278668],[77.474726861055416,21.387887326887586]],[[77.473856679764864,21.387034889855133],[77.47497832755414,21.387420703824791],[77.475566122483642,21.385849473036551],[77.474828386083189,21.385636612050423],[77.474708033975318,21.385624095594871],[77.473872189429642,21.385303898494982],[77.473856679764864,21.387034889855133]]]},"properties":{"FID":31,"Join_Count":3,"TARGET_FID":34,"Layer":"TEXT_PARCEL","Text":"9","vill_code":"531859","LGD_CODE":"531859"}},{"type":"Feature","id":32,"geometry":{"type":"Polygon","coordinates":[[[77.484066132801118,21.387317988452349],[77.483039699962404,21.388526648072627],[77.480479868564757,21.38825888118404],[77.479453892541599,21.388128381307713],[77.47927042874673,21.388105045104282],[77.479232839124549,21.387911969918761],[77.479177200567733,21.387626185648582],[77.47913087096768,21.387372934159185],[77.478956928255315,21.386276538599862],[77.4788078483422,21.38540801786105],[77.479472514703559,21.384365438960071],[77.480105376876907,21.383725171571587],[77.480235329345376,21.38359260627648],[77.481368819592589,21.381889003194456],[77.481574681471997,21.381425048168737],[77.48178367288854,21.381520641020565],[77.481848654181135,21.381095471740107],[77.482115950012158,21.381086581125803],[77.483476449113624,21.379811230235731],[77.48376360250171,21.378985321378618],[77.483834912185998,21.379120014873592],[77.484222522162966,21.380009482913561],[77.484471599066055,21.380581043629061],[77.485101427292136,21.382063107616428],[77.485738142235348,21.383524129537587],[77.486146588843667,21.384587695106671],[77.486212048485314,21.384758147246409],[77.486091524344261,21.384904235108625],[77.485257565790391,21.38591507045496],[77.484066132801118,21.387317988452349]],[[77.481787234459176,21.386418829923198],[77.481766870980451,21.386626815799534],[77.483423624850332,21.386568275219915],[77.483898843332511,21.385743451393829],[77.484176391703912,21.383982109043068],[77.484163821927851,21.383810191496973],[77.484019770148365,21.383771032593877],[77.483320754984277,21.383585728262787],[77.482172404528498,21.383858807213606],[77.482025517131419,21.383957793912412],[77.482016603109798,21.384130732301951],[77.481955985772927,21.384731664520217],[77.481787234459176,21.386418829923198]]]},"properties":{"FID":32,"Join_Count":3,"TARGET_FID":35,"Layer":"TEXT_PARCEL","Text":"13","vill_code":"531859","LGD_CODE":"531859"}}]
}