{
  "type" : "FeatureCollection",
  "features" : [{"type":"Feature","id":0,"geometry":{"type":"Polygon","coordinates":[[[77.481644498495172,21.347672584115845],[77.481596270127326,21.347686954223992],[77.481590174845863,21.347635655714981],[77.481644498495172,21.347672584115845]]]},"properties":{"FID":0,"Join_Count":0,"TARGET_FID":1,"Layer":"TEXT_PARCEL","Text":" ","vill_code":"531858","LGD_CODE":"531858"}},{"type":"Feature","id":1,"geometry":{"type":"Polygon","coordinates":[[[77.481816642088532,21.350474316046899],[77.480039532494985,21.350545559397162],[77.479901013837093,21.348857901363655],[77.481596270127326,21.347686954223992],[77.48156589652308,21.349410265036127],[77.481794468425875,21.349697934543027],[77.481816642088532,21.350474316046899]]]},"properties":{"FID":1,"Join_Count":2,"TARGET_FID":2,"Layer":"TEXT_PARCEL","Text":"50","vill_code":"531858","LGD_CODE":"531858"}},{"type":"Feature","id":2,"geometry":{"type":"Polygon","coordinates":[[[77.485633223507236,21.350982697990421],[77.485458956639874,21.351078990855601],[77.48586427773121,21.34891932037679],[77.48761350934214,21.349040331067901],[77.487886369416444,21.350658307913992],[77.487896297427213,21.350759845084518],[77.487840339802503,21.350831099428614],[77.485734425569674,21.350947985530883],[77.485633223507236,21.350982697990421]]]},"properties":{"FID":2,"Join_Count":2,"TARGET_FID":3,"Layer":"TEXT_PARCEL","Text":"47","vill_code":"531858","LGD_CODE":"531858"}},{"type":"Feature","id":3,"geometry":{"type":"Polygon","coordinates":[[[77.4853702316896,21.351121640918269],[77.483104065794507,21.351320985644062],[77.483097788238396,21.351234387483789],[77.482582003259679,21.348667434056047],[77.483277704222388,21.348602451491882],[77.484565881812756,21.348599859640728],[77.485745337216699,21.348468219975274],[77.48586427773121,21.34891932037679],[77.485458956639874,21.351078990855601],[77.4853702316896,21.351121640918269]]]},"properties":{"FID":3,"Join_Count":2,"TARGET_FID":4,"Layer":"TEXT_PARCEL","Text":"48","vill_code":"531858","LGD_CODE":"531858"}},{"type":"Feature","id":4,"geometry":{"type":"Polygon","coordinates":[[[77.47991163939416,21.351990340036011],[77.479380729179326,21.352031900947186],[77.478946928307039,21.349727166677646],[77.478970920661098,21.349612232354897],[77.479042244405335,21.349473901092246],[77.479084605420326,21.349421798440286],[77.479779553066564,21.348967375428099],[77.479901013837093,21.348857901363655],[77.480039532494985,21.350545559397162],[77.481816642088532,21.350474316046899],[77.481823951489815,21.351840624898674],[77.47991163939416,21.351990340036011]]]},"properties":{"FID":4,"Join_Count":2,"TARGET_FID":5,"Layer":"TEXT_PARCEL","Text":"51","vill_code":"531858","LGD_CODE":"531858"}},{"type":"Feature","id":5,"geometry":{"type":"Polygon","coordinates":[[[77.48316082113071,21.352103879294742],[77.482741101685136,21.352981034313444],[77.481327153349596,21.352937702857837],[77.481869066374585,21.352040359344681],[77.481940805167241,21.351877119785179],[77.481823951489815,21.351840624898674],[77.481816642088532,21.350474316046899],[77.481794468425875,21.349697934543027],[77.48156589652308,21.349410265036127],[77.481596270127326,21.347686954223992],[77.481644498495172,21.347672584115845],[77.482212052982305,21.348226061258909],[77.482582003259679,21.348667434056047],[77.483097788238396,21.351234387483789],[77.483104065794507,21.351320985644062],[77.48316082113071,21.352103879294742]]]},"properties":{"FID":5,"Join_Count":2,"TARGET_FID":6,"Layer":"TEXT_PARCEL","Text":"49","vill_code":"531858","LGD_CODE":"531858"}},{"type":"Feature","id":6,"geometry":{"type":"Polygon","coordinates":[[[77.485436743847472,21.352278277722952],[77.485424358663579,21.353062125450283],[77.485389852243131,21.352257111902663],[77.485575422360341,21.351169326054467],[77.485627964649055,21.351170455936664],[77.485572707455219,21.351419614490361],[77.485436743847472,21.352278277722952]]]},"properties":{"FID":6,"Join_Count":0,"TARGET_FID":7,"Layer":"TEXT_PARCEL","Text":" ","vill_code":"531858","LGD_CODE":"531858"}},{"type":"Feature","id":7,"geometry":{"type":"Polygon","coordinates":[[[77.485228171724387,21.353133536602439],[77.483831219641317,21.353236524413408],[77.48316082113071,21.352103879294742],[77.483104065794507,21.351320985644062],[77.4853702316896,21.351121640918269],[77.485458956639874,21.351078990855601],[77.485633223507236,21.350982697990421],[77.485734425569674,21.350947985530883],[77.485627964649055,21.351170455936664],[77.485575422360341,21.351169326054467],[77.485389852243131,21.352257111902663],[77.485424358663579,21.353062125450283],[77.485437946773956,21.353118070096077],[77.485228171724387,21.353133536602439]]]},"properties":{"FID":7,"Join_Count":2,"TARGET_FID":8,"Layer":"TEXT_PARCEL","Text":"46","vill_code":"531858","LGD_CODE":"531858"}},{"type":"Feature","id":8,"geometry":{"type":"Polygon","coordinates":[[[77.473059902240252,21.352503263322063],[77.472138848829303,21.354190895145589],[77.472126002801701,21.35286586892753],[77.472771826565364,21.351973021642987],[77.473782117026829,21.351547972002223],[77.476460398419817,21.351323216611856],[77.474933379747185,21.351814163913129],[77.473320397053556,21.352437108855352],[77.473059902240252,21.352503263322063]]]},"properties":{"FID":8,"Join_Count":2,"TARGET_FID":9,"Layer":"TEXT_PARCEL","Text":"59","vill_code":"531858","LGD_CODE":"531858"}},{"type":"Feature","id":9,"geometry":{"type":"Polygon","coordinates":[[[77.478729826346978,21.35396442572689],[77.477491743209555,21.354166338408859],[77.476701826685769,21.35267934004051],[77.476356086828858,21.352309369328204],[77.476460398419817,21.351323216611856],[77.477539648127163,21.350702193400686],[77.478729826346978,21.35396442572689]]]},"properties":{"FID":9,"Join_Count":2,"TARGET_FID":10,"Layer":"TEXT_PARCEL","Text":"55","vill_code":"531858","LGD_CODE":"531858"}},{"type":"Feature","id":10,"geometry":{"type":"Polygon","coordinates":[[[77.474766807321501,21.353977706201388],[77.474412876078489,21.354431199325255],[77.474048747894969,21.354409331384957],[77.472138848829303,21.354190895145589],[77.473059902240252,21.352503263322063],[77.473320397053556,21.352437108855352],[77.474933379747185,21.351814163913129],[77.474490554575681,21.352925270181146],[77.474766807321501,21.353977706201388]]]},"properties":{"FID":10,"Join_Count":2,"TARGET_FID":11,"Layer":"TEXT_PARCEL","Text":"60","vill_code":"531858","LGD_CODE":"531858"}},{"type":"Feature","id":11,"geometry":{"type":"Polygon","coordinates":[[[77.481327153349596,21.352937702857837],[77.480447398817617,21.354343790365434],[77.47991163939416,21.351990340036011],[77.481823951489815,21.351840624898674],[77.481940805167241,21.351877119785179],[77.481869066374585,21.352040359344681],[77.481327153349596,21.352937702857837]]]},"properties":{"FID":11,"Join_Count":2,"TARGET_FID":12,"Layer":"TEXT_PARCEL","Text":"52","vill_code":"531858","LGD_CODE":"531858"}},{"type":"Feature","id":12,"geometry":{"type":"Polygon","coordinates":[[[77.476701826685769,21.35267934004051],[77.475840745104705,21.354516945684662],[77.474412876078489,21.354431199325255],[77.474766807321501,21.353977706201388],[77.474490554575681,21.352925270181146],[77.474933379747185,21.351814163913129],[77.476460398419817,21.351323216611856],[77.476356086828858,21.352309369328204],[77.476701826685769,21.35267934004051]]]},"properties":{"FID":12,"Join_Count":2,"TARGET_FID":13,"Layer":"TEXT_PARCEL","Text":"58","vill_code":"531858","LGD_CODE":"531858"}},{"type":"Feature","id":13,"geometry":{"type":"Polygon","coordinates":[[[77.484556547554632,21.354431960248501],[77.483147637249218,21.354718864939251],[77.482984047828509,21.353809087331189],[77.482741101685136,21.352981034313444],[77.48316082113071,21.352103879294742],[77.483831219641317,21.353236524413408],[77.485228171724387,21.353133536602439],[77.485478883583539,21.354259643863614],[77.484556547554632,21.354431960248501]]]},"properties":{"FID":13,"Join_Count":2,"TARGET_FID":14,"Layer":"TEXT_PARCEL","Text":"45","vill_code":"531858","LGD_CODE":"531858"}},{"type":"Feature","id":14,"geometry":{"type":"Polygon","coordinates":[[[77.486440136669827,21.354167596093053],[77.486367897789876,21.354872713310115],[77.486394350812418,21.354213699086657],[77.485956680165629,21.353401412777917],[77.485437946773956,21.353118070096077],[77.485424358663579,21.353062125450283],[77.48587990827815,21.353295733245307],[77.4859528364738,21.353289753217449],[77.486440136669827,21.354167596093053]]]},"properties":{"FID":14,"Join_Count":1,"TARGET_FID":15,"Layer":"TEXT_PARCEL","Text":"छन\u094Dस\u094Dस\u094D","vill_code":"531858","LGD_CODE":"531858"}},{"type":"Feature","id":15,"geometry":{"type":"Polygon","coordinates":[[[77.479853514234776,21.355316688323196],[77.479260051145744,21.355331398926381],[77.478729826346978,21.35396442572689],[77.477539648127163,21.350702193400686],[77.478946928307039,21.349727166677646],[77.479380729179326,21.352031900947186],[77.47991163939416,21.351990340036011],[77.480447398817617,21.354343790365434],[77.480334075889104,21.354527395811495],[77.479853514234776,21.355316688323196]]]},"properties":{"FID":15,"Join_Count":2,"TARGET_FID":16,"Layer":"TEXT_PARCEL","Text":"53","vill_code":"531858","LGD_CODE":"531858"}},{"type":"Feature","id":16,"geometry":{"type":"Polygon","coordinates":[[[77.483208121389794,21.355221156865355],[77.482022410298583,21.355405603268835],[77.482109135818305,21.354549738730253],[77.480334075889104,21.354527395811495],[77.480447398817617,21.354343790365434],[77.481327153349596,21.352937702857837],[77.482741101685136,21.352981034313444],[77.482984047828509,21.353809087331189],[77.483147637249218,21.354718864939251],[77.483208121389794,21.355221156865355]]]},"properties":{"FID":16,"Join_Count":2,"TARGET_FID":17,"Layer":"TEXT_PARCEL","Text":"41","vill_code":"531858","LGD_CODE":"531858"}},{"type":"Feature","id":17,"geometry":{"type":"Polygon","coordinates":[[[77.478403021545006,21.355493392745036],[77.477641123351589,21.355627850839589],[77.477507465586712,21.354714167123223],[77.477382088400816,21.354212840078866],[77.477491743209555,21.354166338408859],[77.478729826346978,21.35396442572689],[77.479260051145744,21.355331398926381],[77.478403021545006,21.355493392745036]]]},"properties":{"FID":17,"Join_Count":2,"TARGET_FID":18,"Layer":"TEXT_PARCEL","Text":"54","vill_code":"531858","LGD_CODE":"531858"}},{"type":"Feature","id":18,"geometry":{"type":"Polygon","coordinates":[[[77.477641123351589,21.355627850839589],[77.47671992472516,21.355796529591785],[77.47655054884018,21.355255754038271],[77.475888274071622,21.354519799370848],[77.475840745104705,21.354516945684662],[77.476701826685769,21.35267934004051],[77.477491743209555,21.354166338408859],[77.477382088400816,21.354212840078866],[77.477507465586712,21.354714167123223],[77.477641123351589,21.355627850839589]]]},"properties":{"FID":18,"Join_Count":2,"TARGET_FID":19,"Layer":"TEXT_PARCEL","Text":"56","vill_code":"531858","LGD_CODE":"531858"}},{"type":"Feature","id":19,"geometry":{"type":"Polygon","coordinates":[[[77.481917978361537,21.355978648815299],[77.480582046022562,21.356169961322447],[77.479853514234776,21.355316688323196],[77.480334075889104,21.354527395811495],[77.482109135818305,21.354549738730253],[77.482022410298583,21.355405603268835],[77.481994110778942,21.355684882365303],[77.481917978361537,21.355978648815299]]]},"properties":{"FID":19,"Join_Count":2,"TARGET_FID":20,"Layer":"TEXT_PARCEL","Text":"39","vill_code":"531858","LGD_CODE":"531858"}},{"type":"Feature","id":20,"geometry":{"type":"Polygon","coordinates":[[[77.472863849702975,21.355605973822033],[77.471671892593633,21.356459199444458],[77.471617245161525,21.3551584267334],[77.47213345529903,21.354305820479993],[77.472138848829303,21.354190895145589],[77.474048747894969,21.354409331384957],[77.474412876078489,21.354431199325255],[77.474552220837793,21.355227759893275],[77.474354436968284,21.355971275153586],[77.47429974921981,21.356068896988909],[77.473760788974971,21.355781236665369],[77.473470801786618,21.355426077621836],[77.472863849702975,21.355605973822033]]]},"properties":{"FID":20,"Join_Count":2,"TARGET_FID":21,"Layer":"TEXT_PARCEL","Text":"61","vill_code":"531858","LGD_CODE":"531858"}},{"type":"Feature","id":21,"geometry":{"type":"Polygon","coordinates":[[[77.486907594288567,21.355924022641258],[77.486717478524213,21.356264950098257],[77.48580401680934,21.356146111678974],[77.485769464929447,21.355298415752959],[77.485478883583539,21.354259643863614],[77.485228171724387,21.353133536602439],[77.485437946773956,21.353118070096077],[77.485956680165629,21.353401412777917],[77.486394350812418,21.354213699086657],[77.486367897789876,21.354872713310115],[77.486698527323171,21.3552734232488],[77.486907594288567,21.355924022641258]]]},"properties":{"FID":21,"Join_Count":3,"TARGET_FID":22,"Layer":"TEXT_PARCEL","Text":"44","vill_code":"531858","LGD_CODE":"531858"}},{"type":"Feature","id":22,"geometry":{"type":"Polygon","coordinates":[[[77.486972579910798,21.355912911205113],[77.486717478524213,21.356264950098257],[77.486907594288567,21.355924022641258],[77.486698527323171,21.3552734232488],[77.486367897789876,21.354872713310115],[77.486752554688749,21.355260583596941],[77.486972579910798,21.355912911205113]]]},"properties":{"FID":22,"Join_Count":0,"TARGET_FID":23,"Layer":"TEXT_PARCEL","Text":" ","vill_code":"531858","LGD_CODE":"531858"}},{"type":"Feature","id":23,"geometry":{"type":"Polygon","coordinates":[[[77.48580401680934,21.356146111678974],[77.484876372934309,21.35629520102599],[77.484556547554632,21.354431960248501],[77.485478883583539,21.354259643863614],[77.485769464929447,21.355298415752959],[77.48580401680934,21.356146111678974]]]},"properties":{"FID":23,"Join_Count":2,"TARGET_FID":24,"Layer":"TEXT_PARCEL","Text":"43","vill_code":"531858","LGD_CODE":"531858"}},{"type":"Feature","id":24,"geometry":{"type":"Polygon","coordinates":[[[77.476726151667691,21.356309989695621],[77.476116606520151,21.356497914861535],[77.475178208702388,21.356076554692098],[77.474552220837793,21.355227759893275],[77.474412876078489,21.354431199325255],[77.475840745104705,21.354516945684662],[77.475888274071622,21.354519799370848],[77.47655054884018,21.355255754038271],[77.47671992472516,21.355796529591785],[77.476726151667691,21.356309989695621]]]},"properties":{"FID":24,"Join_Count":2,"TARGET_FID":25,"Layer":"TEXT_PARCEL","Text":"57","vill_code":"531858","LGD_CODE":"531858"}},{"type":"Feature","id":25,"geometry":{"type":"Polygon","coordinates":[[[77.484876372934309,21.35629520102599],[77.483885419901725,21.356520294720838],[77.483939874648428,21.355778889670272],[77.483272574128279,21.355852991249559],[77.483208121389794,21.355221156865355],[77.483147637249218,21.354718864939251],[77.484556547554632,21.354431960248501],[77.484876372934309,21.35629520102599]]]},"properties":{"FID":25,"Join_Count":2,"TARGET_FID":26,"Layer":"TEXT_PARCEL","Text":"42","vill_code":"531858","LGD_CODE":"531858"}},{"type":"Feature","id":26,"geometry":{"type":"Polygon","coordinates":[[[77.478515697031938,21.356608438608752],[77.476395265436821,21.356939583915839],[77.476116606520151,21.356497914861535],[77.476726151667691,21.356309989695621],[77.47671992472516,21.355796529591785],[77.477641123351589,21.355627850839589],[77.478403021545006,21.355493392745036],[77.478515697031938,21.356608438608752]]]},"properties":{"FID":26,"Join_Count":2,"TARGET_FID":27,"Layer":"TEXT_PARCEL","Text":"36","vill_code":"531858","LGD_CODE":"531858"}},{"type":"Feature","id":27,"geometry":{"type":"Polygon","coordinates":[[[77.483885419901725,21.356520294720838],[77.481901344571256,21.35720970979299],[77.481917978361537,21.355978648815299],[77.481994110778942,21.355684882365303],[77.482022410298583,21.355405603268835],[77.483208121389794,21.355221156865355],[77.483272574128279,21.355852991249559],[77.483939874648428,21.355778889670272],[77.483885419901725,21.356520294720838]]]},"properties":{"FID":27,"Join_Count":2,"TARGET_FID":28,"Layer":"TEXT_PARCEL","Text":"40","vill_code":"531858","LGD_CODE":"531858"}},{"type":"Feature","id":28,"geometry":{"type":"Polygon","coordinates":[[[77.47132783948787,21.357658456942382],[77.470928873401277,21.357731097275888],[77.470983948387271,21.357193330482072],[77.471671892593633,21.356459199444458],[77.472863849702975,21.355605973822033],[77.473470801786618,21.355426077621836],[77.473760788974971,21.355781236665369],[77.47429974921981,21.356068896988909],[77.474237945699613,21.356179218309752],[77.473252429353721,21.357432736067114],[77.472992469360619,21.357133845363943],[77.471370293309235,21.357645078291949],[77.47132783948787,21.357658456942382]]]},"properties":{"FID":28,"Join_Count":2,"TARGET_FID":29,"Layer":"TEXT_PARCEL","Text":"63","vill_code":"531858","LGD_CODE":"531858"}},{"type":"Feature","id":29,"geometry":{"type":"Polygon","coordinates":[[[77.481901344571256,21.35720970979299],[77.4806190916444,21.357639749321919],[77.479853514234776,21.355316688323196],[77.480582046022562,21.356169961322447],[77.481917978361537,21.355978648815299],[77.481901344571256,21.35720970979299]]]},"properties":{"FID":29,"Join_Count":2,"TARGET_FID":30,"Layer":"TEXT_PARCEL","Text":"38","vill_code":"531858","LGD_CODE":"531858"}},{"type":"Feature","id":30,"geometry":{"type":"Polygon","coordinates":[[[77.470928873401277,21.357731097275888],[77.469881940816194,21.357921706954503],[77.469651268985643,21.356942222327913],[77.469932577477948,21.355931144180083],[77.470463308318784,21.355568667655884],[77.471129694832811,21.355595991225844],[77.471617245161525,21.3551584267334],[77.471671892593633,21.356459199444458],[77.470983948387271,21.357193330482072],[77.470928873401277,21.357731097275888]]]},"properties":{"FID":30,"Join_Count":2,"TARGET_FID":31,"Layer":"TEXT_PARCEL","Text":"62","vill_code":"531858","LGD_CODE":"531858"}},{"type":"Feature","id":31,"geometry":{"type":"Polygon","coordinates":[[[77.4806190916444,21.357639749321919],[77.479347900508785,21.35795443584259],[77.478733581700908,21.356882384664559],[77.478775515651293,21.356624153148509],[77.478515697031938,21.356608438608752],[77.478403021545006,21.355493392745036],[77.479260051145744,21.355331398926381],[77.479853514234776,21.355316688323196],[77.4806190916444,21.357639749321919]]]},"properties":{"FID":31,"Join_Count":2,"TARGET_FID":32,"Layer":"TEXT_PARCEL","Text":"37","vill_code":"531858","LGD_CODE":"531858"}},{"type":"Feature","id":32,"geometry":{"type":"Polygon","coordinates":[[[77.487078835617368,21.358127094370563],[77.485201800441416,21.35837419320616],[77.48508722169116,21.357336465355765],[77.48492844134762,21.356434439905183],[77.48502437163863,21.356413349995716],[77.485795108629659,21.356319646056356],[77.486670875955127,21.356426841137409],[77.486950525334564,21.357037279221068],[77.487030549480465,21.357852809104212],[77.487078835617368,21.358127094370563]]]},"properties":{"FID":32,"Join_Count":2,"TARGET_FID":33,"Layer":"TEXT_PARCEL","Text":"26","vill_code":"531858","LGD_CODE":"531858"}},{"type":"Feature","id":33,"geometry":{"type":"Polygon","coordinates":[[[77.483836188037571,21.358587393843713],[77.482576072068184,21.358641360692413],[77.481831473045546,21.357963320809098],[77.482001221745094,21.357342009181785],[77.482139426576396,21.357281356329825],[77.483834684378948,21.356674889572894],[77.483849489201845,21.357126768183672],[77.483637962456697,21.357195726064749],[77.483743827771931,21.357745730442847],[77.483991476530619,21.357916016057573],[77.484075950967252,21.358438567983828],[77.483836188037571,21.358587393843713]]]},"properties":{"FID":33,"Join_Count":2,"TARGET_FID":34,"Layer":"TEXT_PARCEL","Text":"30","vill_code":"531858","LGD_CODE":"531858"}},{"type":"Feature","id":34,"geometry":{"type":"Polygon","coordinates":[[[77.477830732687323,21.358539263373757],[77.477199968378912,21.358908466890288],[77.477042765785129,21.358213111976518],[77.476532289122474,21.357592029240326],[77.476225132842757,21.357629035000969],[77.476395265436821,21.356939583915839],[77.478515697031938,21.356608438608752],[77.478775515651293,21.356624153148509],[77.478733581700908,21.356882384664559],[77.479347900508785,21.35795443584259],[77.477830732687323,21.358539263373757]]]},"properties":{"FID":34,"Join_Count":2,"TARGET_FID":35,"Layer":"TEXT_PARCEL","Text":"35","vill_code":"531858","LGD_CODE":"531858"}},{"type":"Feature","id":35,"geometry":{"type":"Polygon","coordinates":[[[77.481631673986797,21.358694618297292],[77.480045114883922,21.358883124360478],[77.479704013864563,21.357983154549295],[77.480626156795381,21.357721364608889],[77.482001221745094,21.357342009181785],[77.481831473045546,21.357963320809098],[77.481631673986797,21.358694618297292]]]},"properties":{"FID":35,"Join_Count":2,"TARGET_FID":36,"Layer":"TEXT_PARCEL","Text":"31","vill_code":"531858","LGD_CODE":"531858"}},{"type":"Feature","id":36,"geometry":{"type":"Polygon","coordinates":[[[77.485194275644346,21.358724101768612],[77.483934473249676,21.358940483145478],[77.483836188037571,21.358587393843713],[77.484075950967252,21.358438567983828],[77.483991476530619,21.357916016057573],[77.483743827771931,21.357745730442847],[77.483637962456697,21.357195726064749],[77.483849489201845,21.357126768183672],[77.483834684378948,21.356674889572894],[77.48492844134762,21.356434439905183],[77.48508722169116,21.357336465355765],[77.485201800441416,21.35837419320616],[77.485194275644346,21.358724101768612]]]},"properties":{"FID":36,"Join_Count":2,"TARGET_FID":37,"Layer":"TEXT_PARCEL","Text":"27","vill_code":"531858","LGD_CODE":"531858"}},{"type":"Feature","id":37,"geometry":{"type":"Polygon","coordinates":[[[77.477101832872378,21.359122636380246],[77.476410027375763,21.359769759487236],[77.476257129377331,21.359759685543054],[77.477199968378912,21.358908466890288],[77.477830732687323,21.358539263373757],[77.479347900508785,21.35795443584259],[77.4806190916444,21.357639749321919],[77.481901344571256,21.35720970979299],[77.483885419901725,21.356520294720838],[77.484876372934309,21.35629520102599],[77.48580401680934,21.356146111678974],[77.486717478524213,21.356264950098257],[77.486701517700951,21.356301216688269],[77.486670875955127,21.356426841137409],[77.485795108629659,21.356319646056356],[77.48502437163863,21.356413349995716],[77.48492844134762,21.356434439905183],[77.483834684378948,21.356674889572894],[77.482139426576396,21.357281356329825],[77.482001221745094,21.357342009181785],[77.480626156795381,21.357721364608889],[77.479704013864563,21.357983154549295],[77.479212186063194,21.358110586611417],[77.477929373958659,21.358583584142306],[77.477101832872378,21.359122636380246]]]},"properties":{"FID":37,"Join_Count":1,"TARGET_FID":38,"Layer":"TEXT_PARCEL","Text":"छन\u094Dस\u094Dस\u094D","vill_code":"531858","LGD_CODE":"531858"}},{"type":"Feature","id":38,"geometry":{"type":"Polygon","coordinates":[[[77.478009106661972,21.35972833440562],[77.477233023249269,21.359787661929087],[77.476410027375763,21.359769759487236],[77.477101832872378,21.359122636380246],[77.477929373958659,21.358583584142306],[77.479212186063194,21.358110586611417],[77.479704013864563,21.357983154549295],[77.480045114883922,21.358883124360478],[77.480198047638027,21.359286622440415],[77.478009106661972,21.35972833440562]]]},"properties":{"FID":38,"Join_Count":2,"TARGET_FID":39,"Layer":"TEXT_PARCEL","Text":"34","vill_code":"531858","LGD_CODE":"531858"}},{"type":"Feature","id":39,"geometry":{"type":"Polygon","coordinates":[[[77.483406846488165,21.360308439873041],[77.48254209903692,21.36042809413194],[77.482349388642277,21.359585096044398],[77.482130754430656,21.359395308842021],[77.481800826785204,21.359397432467958],[77.481691054426904,21.359046648558092],[77.481213525097004,21.359925964670371],[77.48054043376888,21.360123143801314],[77.480198047638027,21.359286622440415],[77.480045114883922,21.358883124360478],[77.481631673986797,21.358694618297292],[77.481831473045546,21.357963320809098],[77.482576072068184,21.358641360692413],[77.482931540743309,21.359262042407739],[77.483406846488165,21.360308439873041]]]},"properties":{"FID":39,"Join_Count":2,"TARGET_FID":40,"Layer":"TEXT_PARCEL","Text":"32","vill_code":"531858","LGD_CODE":"531858"}},{"type":"Feature","id":40,"geometry":{"type":"Polygon","coordinates":[[[77.476043745925338,21.360312315078502],[77.475856374934494,21.360568437536152],[77.475736165122711,21.360331811263755],[77.475818610434814,21.360182299555543],[77.475894597145114,21.359865635747472],[77.475762602382559,21.359174257576075],[77.474471857432462,21.358964554582045],[77.474270811766687,21.358825684272361],[77.473252429353721,21.357432736067114],[77.474237945699613,21.356179218309752],[77.47429974921981,21.356068896988909],[77.474354436968284,21.355971275153586],[77.474552220837793,21.355227759893275],[77.475178208702388,21.356076554692098],[77.476116606520151,21.356497914861535],[77.476395265436821,21.356939583915839],[77.476225132842757,21.357629035000969],[77.476532289122474,21.357592029240326],[77.477042765785129,21.358213111976518],[77.477199968378912,21.358908466890288],[77.476257129377331,21.359759685543054],[77.476253897731937,21.360028308771813],[77.476060825058255,21.360203305778203],[77.476043745925338,21.360312315078502]]]},"properties":{"FID":40,"Join_Count":2,"TARGET_FID":41,"Layer":"TEXT_PARCEL","Text":"64","vill_code":"531858","LGD_CODE":"531858"}},{"type":"Feature","id":41,"geometry":{"type":"Polygon","coordinates":[[[77.476486484876119,21.360136254251454],[77.475856374934494,21.360568437536152],[77.476043745925338,21.360312315078502],[77.476060825058255,21.360203305778203],[77.476253897731937,21.360028308771813],[77.476257129377331,21.359759685543054],[77.476410027375763,21.359769759487236],[77.476486484876119,21.360136254251454]]]},"properties":{"FID":41,"Join_Count":1,"TARGET_FID":42,"Layer":"TEXT_PARCEL","Text":"छन\u094Dस\u094Dस\u094D","vill_code":"531858","LGD_CODE":"531858"}},{"type":"Feature","id":42,"geometry":{"type":"Polygon","coordinates":[[[77.483622151673615,21.360437594206012],[77.4834752175245,21.360458957983816],[77.483406846488165,21.360308439873041],[77.482931540743309,21.359262042407739],[77.482576072068184,21.358641360692413],[77.483836188037571,21.358587393843713],[77.483934473249676,21.358940483145478],[77.484397117991932,21.360296797659249],[77.483622151673615,21.360437594206012]]]},"properties":{"FID":42,"Join_Count":2,"TARGET_FID":43,"Layer":"TEXT_PARCEL","Text":"29","vill_code":"531858","LGD_CODE":"531858"}},{"type":"Feature","id":43,"geometry":{"type":"Polygon","coordinates":[[[77.485271199884835,21.360413917963498],[77.484498234487049,21.360479320390667],[77.484397117991932,21.360296797659249],[77.483934473249676,21.358940483145478],[77.485194275644346,21.358724101768612],[77.485271199884835,21.360413917963498]]]},"properties":{"FID":43,"Join_Count":2,"TARGET_FID":44,"Layer":"TEXT_PARCEL","Text":"28","vill_code":"531858","LGD_CODE":"531858"}},{"type":"Feature","id":44,"geometry":{"type":"Polygon","coordinates":[[[77.475736165122711,21.360331811263755],[77.475135163844172,21.360690431122528],[77.472950968102978,21.360575139301886],[77.472968260028964,21.360441010009811],[77.473123491021482,21.359236925664696],[77.474471857432462,21.358964554582045],[77.475762602382559,21.359174257576075],[77.475894597145114,21.359865635747472],[77.475818610434814,21.360182299555543],[77.475736165122711,21.360331811263755]]]},"properties":{"FID":44,"Join_Count":2,"TARGET_FID":45,"Layer":"TEXT_PARCEL","Text":"65","vill_code":"531858","LGD_CODE":"531858"}},{"type":"Feature","id":45,"geometry":{"type":"Polygon","coordinates":[[[77.48054043376888,21.360123143801314],[77.47911809929343,21.360681853000415],[77.478067933896924,21.359803828676629],[77.478009106661972,21.35972833440562],[77.480198047638027,21.359286622440415],[77.48054043376888,21.360123143801314]]]},"properties":{"FID":45,"Join_Count":2,"TARGET_FID":46,"Layer":"TEXT_PARCEL","Text":"33","vill_code":"531858","LGD_CODE":"531858"}},{"type":"Feature","id":46,"geometry":{"type":"Polygon","coordinates":[[[77.470791513873579,21.360199673279546],[77.470635545456602,21.360833575136493],[77.469611258968314,21.360400752678025],[77.46996079972989,21.359831675408113],[77.469881940816194,21.357921706954503],[77.470928873401277,21.357731097275888],[77.47132783948787,21.357658456942382],[77.471370293309235,21.357645078291949],[77.471227528369951,21.358478332544124],[77.471054660548475,21.359351544708602],[77.470791513873579,21.360199673279546]]]},"properties":{"FID":46,"Join_Count":2,"TARGET_FID":47,"Layer":"TEXT_PARCEL","Text":"74","vill_code":"531858","LGD_CODE":"531858"}},{"type":"Feature","id":47,"geometry":{"type":"Polygon","coordinates":[[[77.47229342269739,21.360669054901422],[77.470635545456602,21.360833575136493],[77.470791513873579,21.360199673279546],[77.471054660548475,21.359351544708602],[77.471227528369951,21.358478332544124],[77.471370293309235,21.357645078291949],[77.472992469360619,21.357133845363943],[77.473252429353721,21.357432736067114],[77.474270811766687,21.358825684272361],[77.474471857432462,21.358964554582045],[77.473123491021482,21.359236925664696],[77.472968260028964,21.360441010009811],[77.47229342269739,21.360669054901422]]]},"properties":{"FID":47,"Join_Count":2,"TARGET_FID":48,"Layer":"TEXT_PARCEL","Text":"73","vill_code":"531858","LGD_CODE":"531858"}},{"type":"Feature","id":48,"geometry":{"type":"Polygon","coordinates":[[[77.487004546632548,21.360969264508551],[77.485273926853949,21.361141187926613],[77.485289852112444,21.360571180248435],[77.485271199884835,21.360413917963498],[77.485194275644346,21.358724101768612],[77.485201800441416,21.35837419320616],[77.487078835617368,21.358127094370563],[77.487099545824904,21.358244732916617],[77.487265562951833,21.358423230352898],[77.487536778288572,21.360214189353901],[77.486981942482487,21.360291550086487],[77.487004546632548,21.360969264508551]]]},"properties":{"FID":48,"Join_Count":2,"TARGET_FID":49,"Layer":"TEXT_PARCEL","Text":"25","vill_code":"531858","LGD_CODE":"531858"}},{"type":"Feature","id":49,"geometry":{"type":"Polygon","coordinates":[[[77.485337282473665,21.361772165162215],[77.484014124214568,21.361897050603641],[77.483979990479853,21.361776134999879],[77.483941354714673,21.36169248272655],[77.483622151673615,21.360437594206012],[77.484397117991932,21.360296797659249],[77.484498234487049,21.360479320390667],[77.485271199884835,21.360413917963498],[77.485289852112444,21.360571180248435],[77.485273926853949,21.361141187926613],[77.485337282473665,21.361772165162215]]]},"properties":{"FID":49,"Join_Count":2,"TARGET_FID":50,"Layer":"TEXT_PARCEL","Text":"24","vill_code":"531858","LGD_CODE":"531858"}},{"type":"Feature","id":50,"geometry":{"type":"Polygon","coordinates":[[[77.472160931081163,21.362399773246121],[77.470800568621726,21.362475214584034],[77.470635545456602,21.360833575136493],[77.47229342269739,21.360669054901422],[77.472534070965338,21.360977903535836],[77.472462884032268,21.361607126282085],[77.472160931081163,21.362399773246121]]]},"properties":{"FID":50,"Join_Count":2,"TARGET_FID":51,"Layer":"TEXT_PARCEL","Text":"72","vill_code":"531858","LGD_CODE":"531858"}},{"type":"Feature","id":51,"geometry":{"type":"Polygon","coordinates":[[[77.47291442308358,21.362380127760193],[77.472501878997107,21.36245719125623],[77.472160931081163,21.362399773246121],[77.472462884032268,21.361607126282085],[77.472534070965338,21.360977903535836],[77.47229342269739,21.360669054901422],[77.472968260028964,21.360441010009811],[77.472950968102978,21.360575139301886],[77.475135163844172,21.360690431122528],[77.474469631798996,21.362370635484403],[77.47291442308358,21.362380127760193]]]},"properties":{"FID":51,"Join_Count":2,"TARGET_FID":52,"Layer":"TEXT_PARCEL","Text":"66","vill_code":"531858","LGD_CODE":"531858"}},{"type":"Feature","id":52,"geometry":{"type":"Polygon","coordinates":[[[77.481785661048676,21.362356506370162],[77.480834316069107,21.362632029017796],[77.481251288580737,21.361399981705851],[77.481213525097004,21.359925964670371],[77.481691054426904,21.359046648558092],[77.481800826785204,21.359397432467958],[77.482130754430656,21.359395308842021],[77.482349388642277,21.359585096044398],[77.48254209903692,21.36042809413194],[77.482700105331816,21.362590648492667],[77.481785661048676,21.362356506370162]]]},"properties":{"FID":52,"Join_Count":2,"TARGET_FID":53,"Layer":"TEXT_PARCEL","Text":"22","vill_code":"531858","LGD_CODE":"531858"}},{"type":"Feature","id":53,"geometry":{"type":"Polygon","coordinates":[[[77.484014124214568,21.361897050603641],[77.484227564619715,21.362653125446641],[77.4829658591011,21.362622636454059],[77.482700105331816,21.362590648492667],[77.48254209903692,21.36042809413194],[77.483406846488165,21.360308439873041],[77.4834752175245,21.360458957983816],[77.483622151673615,21.360437594206012],[77.483941354714673,21.36169248272655],[77.483979990479853,21.361776134999879],[77.484014124214568,21.361897050603641]]]},"properties":{"FID":53,"Join_Count":2,"TARGET_FID":54,"Layer":"TEXT_PARCEL","Text":"23","vill_code":"531858","LGD_CODE":"531858"}},{"type":"Feature","id":54,"geometry":{"type":"Polygon","coordinates":[[[77.480834316069107,21.362632029017796],[77.480353306182437,21.362748112387642],[77.480319932330005,21.362223589124142],[77.479367113949493,21.362382516656197],[77.479224362505249,21.362132324603895],[77.479796390318995,21.361409205050439],[77.479677778337518,21.361120828711364],[77.47911809929343,21.360681853000415],[77.48054043376888,21.360123143801314],[77.481213525097004,21.359925964670371],[77.481251288580737,21.361399981705851],[77.480834316069107,21.362632029017796]]]},"properties":{"FID":54,"Join_Count":2,"TARGET_FID":55,"Layer":"TEXT_PARCEL","Text":"21","vill_code":"531858","LGD_CODE":"531858"}},{"type":"Feature","id":55,"geometry":{"type":"Polygon","coordinates":[[[77.479232742762619,21.362784784904587],[77.47770238248097,21.362971764159791],[77.476285255022475,21.362225206880751],[77.476226216953435,21.362128363284445],[77.476174007524193,21.362042724137126],[77.475856374934494,21.360568437536152],[77.476486484876119,21.360136254251454],[77.476410027375763,21.359769759487236],[77.477233023249269,21.359787661929087],[77.478009106661972,21.35972833440562],[77.478067933896924,21.359803828676629],[77.47911809929343,21.360681853000415],[77.479677778337518,21.361120828711364],[77.479796390318995,21.361409205050439],[77.479224362505249,21.362132324603895],[77.479232742762619,21.362784784904587]]]},"properties":{"FID":55,"Join_Count":2,"TARGET_FID":56,"Layer":"TEXT_PARCEL","Text":"20","vill_code":"531858","LGD_CODE":"531858"}},{"type":"Feature","id":56,"geometry":{"type":"Polygon","coordinates":[[[77.474784646805716,21.363189238828671],[77.474428998421516,21.363525626016791],[77.474320332466533,21.363385485255662],[77.474469631798996,21.362370635484403],[77.475135163844172,21.360690431122528],[77.475736165122711,21.360331811263755],[77.475856374934494,21.360568437536152],[77.476174007524193,21.362042724137126],[77.476226216953435,21.362128363284445],[77.475754964999069,21.362008140893369],[77.475346948846024,21.362106610906235],[77.475181847501872,21.362184090085446],[77.474784646805716,21.363189238828671]]]},"properties":{"FID":56,"Join_Count":3,"TARGET_FID":57,"Layer":"TEXT_PARCEL","Text":"19","vill_code":"531858","LGD_CODE":"531858"}},{"type":"Feature","id":57,"geometry":{"type":"Polygon","coordinates":[[[77.4829658591011,21.362622636454059],[77.482945143503585,21.363660019705719],[77.481777958545962,21.363642333617843],[77.480462514889652,21.363619765846604],[77.480353306182437,21.362748112387642],[77.480834316069107,21.362632029017796],[77.481785661048676,21.362356506370162],[77.482700105331816,21.362590648492667],[77.4829658591011,21.362622636454059]]]},"properties":{"FID":57,"Join_Count":2,"TARGET_FID":58,"Layer":"TEXT_PARCEL","Text":"12","vill_code":"531858","LGD_CODE":"531858"}},{"type":"Feature","id":58,"geometry":{"type":"Polygon","coordinates":[[[77.484032095179955,21.36348612837369],[77.484083783854786,21.363677266063892],[77.482945143503585,21.363660019705719],[77.4829658591011,21.362622636454059],[77.484227564619715,21.362653125446641],[77.484014124214568,21.361897050603641],[77.485337282473665,21.361772165162215],[77.485364334201961,21.362041580123798],[77.485590256755373,21.362218012535941],[77.485775395699406,21.362988360655645],[77.484694646166702,21.363328213925445],[77.484032095179955,21.36348612837369]]]},"properties":{"FID":58,"Join_Count":2,"TARGET_FID":59,"Layer":"TEXT_PARCEL","Text":"11","vill_code":"531858","LGD_CODE":"531858"}},{"type":"Feature","id":59,"geometry":{"type":"Polygon","coordinates":[[[77.474320332466533,21.363385485255662],[77.473700214008886,21.364163362713722],[77.472832031585881,21.364021349367363],[77.472677482353333,21.363516617470722],[77.472501878997107,21.36245719125623],[77.47291442308358,21.362380127760193],[77.474469631798996,21.362370635484403],[77.474320332466533,21.363385485255662]]]},"properties":{"FID":59,"Join_Count":2,"TARGET_FID":60,"Layer":"TEXT_PARCEL","Text":"67","vill_code":"531858","LGD_CODE":"531858"}},{"type":"Feature","id":60,"geometry":{"type":"Polygon","coordinates":[[[77.480462514889652,21.363619765846604],[77.479730788039845,21.364122210988015],[77.479773517553895,21.36397847072557],[77.480353306182437,21.362748112387642],[77.480462514889652,21.363619765846604]]]},"properties":{"FID":60,"Join_Count":2,"TARGET_FID":61,"Layer":"TEXT_PARCEL","Text":"13","vill_code":"531858","LGD_CODE":"531858"}},{"type":"Feature","id":61,"geometry":{"type":"Polygon","coordinates":[[[77.472832031585881,21.364021349367363],[77.471540275225649,21.364247275239546],[77.47080843458113,21.364193175913041],[77.470800568621726,21.362475214584034],[77.472160931081163,21.362399773246121],[77.472501878997107,21.36245719125623],[77.472677482353333,21.363516617470722],[77.472832031585881,21.364021349367363]]]},"properties":{"FID":61,"Join_Count":3,"TARGET_FID":62,"Layer":"TEXT_PARCEL","Text":"71","vill_code":"531858","LGD_CODE":"531858"}},{"type":"Feature","id":62,"geometry":{"type":"Polygon","coordinates":[[[77.468659777494096,21.363623790011889],[77.46822545008024,21.364619131352431],[77.46794892114572,21.364489328535086],[77.467566193414498,21.364243975513908],[77.468790164637667,21.362517592536744],[77.468785683258758,21.362225757098731],[77.468947914840143,21.361888295592379],[77.469059998429643,21.361814938628612],[77.46880307885759,21.361516980013025],[77.468985529380632,21.360341922929756],[77.469254553906367,21.359881935938361],[77.469665950486203,21.35961527491909],[77.46996079972989,21.359831675408113],[77.469611258968314,21.360400752678025],[77.470437855326722,21.361374213359372],[77.470289025987896,21.361400624681128],[77.469408821479917,21.3625065060018],[77.468659777494096,21.363623790011889]]]},"properties":{"FID":62,"Join_Count":2,"TARGET_FID":63,"Layer":"TEXT_PARCEL","Text":"78","vill_code":"531858","LGD_CODE":"531858"}},{"type":"Feature","id":63,"geometry":{"type":"Polygon","coordinates":[[[77.477582165680161,21.36400269872842],[77.47686620600858,21.364791113895762],[77.475420705554939,21.364693053742972],[77.474451987694479,21.364813469477212],[77.474664667146016,21.364535155250319],[77.47569569274485,21.36378170535804],[77.47534870824903,21.363427192893433],[77.475342734379339,21.362755699361681],[77.475754964999069,21.362008140893369],[77.476226216953435,21.362128363284445],[77.476285255022475,21.362225206880751],[77.47770238248097,21.362971764159791],[77.477582165680161,21.36400269872842]]]},"properties":{"FID":63,"Join_Count":2,"TARGET_FID":64,"Layer":"TEXT_PARCEL","Text":"17","vill_code":"531858","LGD_CODE":"531858"}},{"type":"Feature","id":64,"geometry":{"type":"Polygon","coordinates":[[[77.469820108652144,21.363717692335705],[77.469056661484245,21.365056106866643],[77.468858491033743,21.364951928291415],[77.46822545008024,21.364619131352431],[77.468659777494096,21.363623790011889],[77.469408821479917,21.3625065060018],[77.469943577557856,21.362421161122924],[77.469254356047585,21.363302895375046],[77.469820108652144,21.363717692335705]]]},"properties":{"FID":64,"Join_Count":2,"TARGET_FID":65,"Layer":"TEXT_PARCEL","Text":"77","vill_code":"531858","LGD_CODE":"531858"}},{"type":"Feature","id":65,"geometry":{"type":"Polygon","coordinates":[[[77.485212899631151,21.364691265801667],[77.484914285139908,21.364831021909549],[77.482754100603316,21.364713248203483],[77.481741512974281,21.36475084020638],[77.481777958545962,21.363642333617843],[77.482945143503585,21.363660019705719],[77.484083783854786,21.363677266063892],[77.484032095179955,21.36348612837369],[77.484694646166702,21.363328213925445],[77.484829056648962,21.36392987666451],[77.484903120759753,21.363975580665794],[77.485120307207453,21.36419043022514],[77.485212899631151,21.364691265801667]]]},"properties":{"FID":65,"Join_Count":2,"TARGET_FID":66,"Layer":"TEXT_PARCEL","Text":"10","vill_code":"531858","LGD_CODE":"531858"}},{"type":"Feature","id":66,"geometry":{"type":"Polygon","coordinates":[[[77.472853364661631,21.365276751924537],[77.471510713245891,21.36542602885714],[77.471540275225649,21.364247275239546],[77.472832031585881,21.364021349367363],[77.473700214008886,21.364163362713722],[77.473303110549807,21.364765531839527],[77.472853364661631,21.365276751924537]]]},"properties":{"FID":66,"Join_Count":2,"TARGET_FID":67,"Layer":"TEXT_PARCEL","Text":"68","vill_code":"531858","LGD_CODE":"531858"}},{"type":"Feature","id":67,"geometry":{"type":"Polygon","coordinates":[[[77.470466624283858,21.364395655078969],[77.469758357994877,21.365565936367076],[77.469671690008923,21.365538319088504],[77.469494614354147,21.36543413424226],[77.468980576425494,21.365241438150576],[77.469056661484245,21.365056106866643],[77.469820108652144,21.363717692335705],[77.469254356047585,21.363302895375046],[77.469943577557856,21.362421161122924],[77.469408821479917,21.3625065060018],[77.470289025987896,21.361400624681128],[77.470437855326722,21.361374213359372],[77.470483547094688,21.361466899303384],[77.470462259229066,21.362608421585353],[77.470581101676316,21.363316996326887],[77.470466624283858,21.364395655078969]]]},"properties":{"FID":67,"Join_Count":2,"TARGET_FID":68,"Layer":"TEXT_PARCEL","Text":"76","vill_code":"531858","LGD_CODE":"531858"}},{"type":"Feature","id":68,"geometry":{"type":"Polygon","coordinates":[[[77.469944224575315,21.365535550734666],[77.46991870638324,21.365617031632798],[77.469758357994877,21.36556593636708],[77.470466624283858,21.364395655078969],[77.470581101676316,21.363316996326894],[77.470462259229066,21.362608421585353],[77.470483547094688,21.361466899303391],[77.470437855326722,21.36137421335938],[77.469611258968314,21.360400752678029],[77.470635545456602,21.360833575136493],[77.470800568621726,21.362475214584038],[77.47080843458113,21.364193175913041],[77.469944224575315,21.365535550734666]]]},"properties":{"FID":68,"Join_Count":1,"TARGET_FID":69,"Layer":"TEXT_PARCEL","Text":"75","vill_code":"531858","LGD_CODE":"531858"}},{"type":"Feature","id":69,"geometry":{"type":"Polygon","coordinates":[[[77.471510713245891,21.36542602885714],[77.470946230471625,21.365813676372625],[77.470542422385606,21.365747971754832],[77.46991870638324,21.365617031632798],[77.469944224575315,21.365535550734666],[77.47080843458113,21.364193175913041],[77.471540275225649,21.364247275239546],[77.471510713245891,21.36542602885714]]]},"properties":{"FID":69,"Join_Count":2,"TARGET_FID":70,"Layer":"TEXT_PARCEL","Text":"70","vill_code":"531858","LGD_CODE":"531858"}},{"type":"Feature","id":70,"geometry":{"type":"Polygon","coordinates":[[[77.478913700160504,21.36603015329209],[77.478831465132231,21.366059759954769],[77.478874513025175,21.365961816563519],[77.47882372914286,21.365709422409296],[77.4786064663611,21.365527071497521],[77.478310409243278,21.36487482353602],[77.477582165680161,21.36400269872842],[77.47770238248097,21.362971764159791],[77.479232742762619,21.362784784904587],[77.479224362505249,21.362132324603895],[77.479367113949493,21.362382516656197],[77.480319932330005,21.362223589124142],[77.480353306182437,21.362748112387642],[77.479773517553895,21.36397847072557],[77.479730788039845,21.364122210988015],[77.479903579660132,21.364769454737328],[77.479362474138938,21.36508497004629],[77.479224328413508,21.365418311666545],[77.479444651141833,21.365782838042644],[77.479263565146255,21.365834681373041],[77.478934897485018,21.365977327418086],[77.478913700160504,21.36603015329209]]]},"properties":{"FID":70,"Join_Count":2,"TARGET_FID":71,"Layer":"TEXT_PARCEL","Text":"14","vill_code":"531858","LGD_CODE":"531858"}},{"type":"Feature","id":71,"geometry":{"type":"Polygon","coordinates":[[[77.467207876319733,21.366164972752241],[77.46643171383765,21.366270865211256],[77.466624922828728,21.365571584065126],[77.467566193414498,21.364243975513908],[77.46794892114572,21.364489328535086],[77.46822545008024,21.364619131352431],[77.468858491033743,21.364951928291415],[77.468677620510405,21.365225578596736],[77.467671855851208,21.365980928841584],[77.467207876319733,21.366164972752241]]]},"properties":{"FID":71,"Join_Count":2,"TARGET_FID":72,"Layer":"TEXT_PARCEL","Text":"79","vill_code":"531858","LGD_CODE":"531858"}},{"type":"Feature","id":72,"geometry":{"type":"Polygon","coordinates":[[[77.473701882675968,21.365439489855284],[77.473331702816125,21.366267529887068],[77.472522443309117,21.366132997403572],[77.472925222429311,21.365391698840742],[77.473842731654429,21.364181866775727],[77.474428998421516,21.363525626016791],[77.474784646805716,21.363189238828671],[77.475181847501872,21.362184090085446],[77.475346948846024,21.362106610906235],[77.475754964999069,21.362008140893369],[77.475342734379339,21.362755699361681],[77.47534870824903,21.363427192893433],[77.47569569274485,21.36378170535804],[77.474664667146016,21.364535155250319],[77.474451987694479,21.364813469477212],[77.473701882675968,21.365439489855284]]]},"properties":{"FID":72,"Join_Count":2,"TARGET_FID":73,"Layer":"TEXT_PARCEL","Text":"18","vill_code":"531858","LGD_CODE":"531858"}},{"type":"Feature","id":73,"geometry":{"type":"Polygon","coordinates":[[[77.478657660445634,21.366445866294921],[77.478649971454061,21.366540389883461],[77.47780767368458,21.366522153268988],[77.47754875244425,21.36557055746605],[77.47686620600858,21.364791113895762],[77.477582165680161,21.36400269872842],[77.478310409243278,21.36487482353602],[77.4786064663611,21.365527071497521],[77.47882372914286,21.365709422409296],[77.478874513025175,21.365961816563519],[77.478831465132231,21.366059759954769],[77.478657660445634,21.366445866294921]]]},"properties":{"FID":73,"Join_Count":2,"TARGET_FID":74,"Layer":"TEXT_PARCEL","Text":"15","vill_code":"531858","LGD_CODE":"531858"}},{"type":"Feature","id":74,"geometry":{"type":"Polygon","coordinates":[[[77.480090552479538,21.366303149830621],[77.478649971454061,21.366540389883461],[77.478657660445634,21.366445866294921],[77.478831465132231,21.366059759954769],[77.478913700160504,21.36603015329209],[77.478934897485018,21.365977327418086],[77.479263565146255,21.365834681373041],[77.479444651141833,21.365782838042644],[77.479224328413508,21.365418311666545],[77.479362474138938,21.36508497004629],[77.479903579660132,21.364769454737328],[77.479730788039845,21.364122210988015],[77.480462514889652,21.363619765846604],[77.481777958545962,21.363642333617843],[77.481741512974281,21.36475084020638],[77.480967620030057,21.364813518878318],[77.481259334038157,21.365584988267365],[77.481345336623832,21.365921369174121],[77.480090552479538,21.366303149830621]]]},"properties":{"FID":74,"Join_Count":2,"TARGET_FID":75,"Layer":"TEXT_PARCEL","Text":"9","vill_code":"531858","LGD_CODE":"531858"}},{"type":"Feature","id":75,"geometry":{"type":"Polygon","coordinates":[[[77.477100181481561,21.366731958003061],[77.476463537258255,21.36683977609578],[77.475276225475028,21.366782270237337],[77.475063708644853,21.365622106763162],[77.474451987694479,21.364813469477212],[77.475420705554939,21.364693053742972],[77.47686620600858,21.364791113895762],[77.47754875244425,21.36557055746605],[77.47780767368458,21.366522153268988],[77.477100181481561,21.366731958003061]]]},"properties":{"FID":75,"Join_Count":2,"TARGET_FID":76,"Layer":"TEXT_PARCEL","Text":"16","vill_code":"531858","LGD_CODE":"531858"}},{"type":"Feature","id":76,"geometry":{"type":"Polygon","coordinates":[[[77.469671690008923,21.365538319088504],[77.468978335275906,21.366967372338394],[77.468348711902991,21.366534044693044],[77.467671855851208,21.365980928841584],[77.468677620510405,21.365225578596736],[77.468858491033743,21.364951928291415],[77.469056661484245,21.365056106866643],[77.468980576425494,21.365241438150576],[77.469494614354147,21.36543413424226],[77.469671690008923,21.365538319088504]]]},"properties":{"FID":76,"Join_Count":2,"TARGET_FID":77,"Layer":"TEXT_PARCEL","Text":"80","vill_code":"531858","LGD_CODE":"531858"}},{"type":"Feature","id":77,"geometry":{"type":"Polygon","coordinates":[[[77.470220095687409,21.36704784514199],[77.469716035776614,21.367166933395801],[77.468978335275906,21.366967372338394],[77.469671690008923,21.365538319088504],[77.469758357994877,21.365565936367076],[77.46991870638324,21.365617031632798],[77.470542422385606,21.365747971754832],[77.470370538554505,21.36695722036497],[77.470220095687409,21.36704784514199]]]},"properties":{"FID":77,"Join_Count":2,"TARGET_FID":78,"Layer":"TEXT_PARCEL","Text":"ग\u093E\u0902वठ\u093Eण","vill_code":"531858","LGD_CODE":"531858"}},{"type":"Feature","id":78,"geometry":{"type":"Polygon","coordinates":[[[77.472522443309117,21.366132997403572],[77.472084073288912,21.367239102573627],[77.471980341553177,21.367185412966645],[77.472449600570471,21.366115063794826],[77.472853364661631,21.365276751924537],[77.473303110549807,21.364765531839527],[77.473700214008886,21.364163362713722],[77.474320332466533,21.363385485255662],[77.474428998421516,21.363525626016791],[77.473842731654429,21.364181866775727],[77.472925222429311,21.365391698840742],[77.472522443309117,21.366132997403572]]]},"properties":{"FID":78,"Join_Count":1,"TARGET_FID":79,"Layer":"TEXT_PARCEL","Text":"छन\u094Dस\u094Dस\u094D","vill_code":"531858","LGD_CODE":"531858"}},{"type":"Feature","id":79,"geometry":{"type":"Polygon","coordinates":[[[77.471980341553177,21.367185412966645],[77.471788697509211,21.367450117466948],[77.470976351031979,21.367445918845572],[77.470635820924926,21.367258549181226],[77.470460242548015,21.366970803792317],[77.470370538554505,21.36695722036497],[77.470542422385606,21.365747971754832],[77.470946230471625,21.365813676372625],[77.471510713245891,21.36542602885714],[77.472853364661631,21.365276751924537],[77.472449600570471,21.366115063794826],[77.471980341553177,21.367185412966645]]]},"properties":{"FID":79,"Join_Count":2,"TARGET_FID":80,"Layer":"TEXT_PARCEL","Text":"69","vill_code":"531858","LGD_CODE":"531858"}},{"type":"Feature","id":80,"geometry":{"type":"Polygon","coordinates":[[[77.467302409348392,21.367580001566125],[77.467236677302083,21.367675378795791],[77.466143424265312,21.367314255670276],[77.46643171383765,21.366270865211256],[77.467207876319733,21.366164972752241],[77.467671855851208,21.365980928841584],[77.468348711902991,21.366534044693044],[77.467302409348392,21.367580001566125]]]},"properties":{"FID":80,"Join_Count":2,"TARGET_FID":81,"Layer":"TEXT_PARCEL","Text":"81","vill_code":"531858","LGD_CODE":"531858"}},{"type":"Feature","id":81,"geometry":{"type":"Polygon","coordinates":[[[77.480090552479538,21.366303149830621],[77.480155161543678,21.367537293142725],[77.478471922108938,21.367425298557244],[77.478649971454061,21.366540389883461],[77.480090552479538,21.366303149830621]]]},"properties":{"FID":81,"Join_Count":3,"TARGET_FID":82,"Layer":"TEXT_PARCEL","Text":"ग\u093E\u0902वठ\u093Eण","vill_code":"531858","LGD_CODE":"531858"}},{"type":"Feature","id":82,"geometry":{"type":"Polygon","coordinates":[[[77.482076925001351,21.367492515541986],[77.481646437044219,21.367649381591495],[77.481146843772876,21.366877278716061],[77.481529532147832,21.366575511419402],[77.482076925001351,21.367492515541986]]]},"properties":{"FID":82,"Join_Count":2,"TARGET_FID":83,"Layer":"TEXT_PARCEL","Text":"8","vill_code":"531858","LGD_CODE":"531858"}},{"type":"Feature","id":83,"geometry":{"type":"Polygon","coordinates":[[[77.47406995687443,21.365827660935068],[77.473787991581133,21.368026570716207],[77.472859487919962,21.368035630589823],[77.472152155889489,21.367695276628961],[77.472084073288912,21.367239102573627],[77.472522443309117,21.366132997403572],[77.473331702816125,21.366267529887068],[77.473701882675968,21.365439489855284],[77.474451987694479,21.364813469477212],[77.475063708644853,21.365622106763162],[77.47428664487181,21.365652902357933],[77.47423829109124,21.365833758079617],[77.47406995687443,21.365827660935068]]]},"properties":{"FID":83,"Join_Count":2,"TARGET_FID":84,"Layer":"TEXT_PARCEL","Text":"2","vill_code":"531858","LGD_CODE":"531858"}},{"type":"Feature","id":84,"geometry":{"type":"Polygon","coordinates":[[[77.470375180340355,21.368119138905207],[77.469758537639933,21.368246945087428],[77.469089160710013,21.368221962667153],[77.469002805948875,21.367997656172047],[77.468833723002433,21.368075707625167],[77.468593584393432,21.368034196132673],[77.468548977667822,21.367637149640746],[77.467302409348392,21.367580001566125],[77.468348711902991,21.366534044693044],[77.468978335275906,21.366967372338394],[77.469716035776614,21.367166933395801],[77.470220095687409,21.36704784514199],[77.470370538554505,21.36695722036497],[77.470435907822832,21.367124694733249],[77.470682859589118,21.367577798921793],[77.470581180156813,21.367821788419203],[77.470375180340355,21.368119138905207]]]},"properties":{"FID":84,"Join_Count":2,"TARGET_FID":85,"Layer":"TEXT_PARCEL","Text":"82","vill_code":"531858","LGD_CODE":"531858"}},{"type":"Feature","id":85,"geometry":{"type":"Polygon","coordinates":[[[77.481646437044219,21.367649381591495],[77.480250136269191,21.368158169417509],[77.480155161543678,21.367537293142725],[77.480090552479538,21.366303149830621],[77.481345336623832,21.365921369174121],[77.481491799594238,21.366494218971635],[77.481529532147832,21.366575511419402],[77.481146843772876,21.366877278716061],[77.481646437044219,21.367649381591495]]]},"properties":{"FID":85,"Join_Count":2,"TARGET_FID":86,"Layer":"TEXT_PARCEL","Text":"7","vill_code":"531858","LGD_CODE":"531858"}},{"type":"Feature","id":86,"geometry":{"type":"Polygon","coordinates":[[[77.475498718414002,21.367098510257872],[77.47571947612208,21.368356581723308],[77.474345866498226,21.368354445858966],[77.473787991581133,21.368026570716207],[77.47406995687443,21.365827660935068],[77.47423829109124,21.365833758079617],[77.47428664487181,21.365652902357933],[77.475063708644853,21.365622106763162],[77.475276225475028,21.366782270237337],[77.475291532007247,21.36686583375009],[77.475498718414002,21.367098510257872]]]},"properties":{"FID":86,"Join_Count":2,"TARGET_FID":87,"Layer":"TEXT_PARCEL","Text":"3","vill_code":"531858","LGD_CODE":"531858"}},{"type":"Feature","id":87,"geometry":{"type":"Polygon","coordinates":[[[77.476850533386681,21.368181419079242],[77.476634433137122,21.368357998882651],[77.47571947612208,21.368356581723308],[77.475498718414002,21.367098510257872],[77.475291532007247,21.36686583375009],[77.475276225475028,21.366782270237337],[77.476463537258255,21.36683977609578],[77.477100181481561,21.366731958003061],[77.47780767368458,21.366522153268988],[77.478649971454061,21.366540389883461],[77.478471922108938,21.367425298557244],[77.478236144671612,21.368109900840512],[77.476850533386681,21.368181419079242]]]},"properties":{"FID":87,"Join_Count":2,"TARGET_FID":88,"Layer":"TEXT_PARCEL","Text":"4","vill_code":"531858","LGD_CODE":"531858"}},{"type":"Feature","id":88,"geometry":{"type":"Polygon","coordinates":[[[77.470944113383837,21.368920666706131],[77.470768582093726,21.36905523216118],[77.470682859589118,21.367577798921793],[77.470435907822832,21.367124694733249],[77.470370538554505,21.36695722036497],[77.470460242548015,21.366970803792317],[77.470635820924926,21.367258549181226],[77.470976351031979,21.367445918845572],[77.471788697509211,21.367450117466948],[77.471980341553177,21.367185412966645],[77.472084073288912,21.367239102573627],[77.472152155889489,21.367695276628961],[77.472859487919962,21.368035630589823],[77.473787991581133,21.368026570716207],[77.473769456425003,21.368171115264975],[77.473705644796254,21.368333198144178],[77.472129141860876,21.368012194575243],[77.470944113383837,21.368920666706131]]]},"properties":{"FID":88,"Join_Count":2,"TARGET_FID":89,"Layer":"TEXT_PARCEL","Text":"1","vill_code":"531858","LGD_CODE":"531858"}},{"type":"Feature","id":89,"geometry":{"type":"Polygon","coordinates":[[[77.48237740562989,21.367784347093082],[77.480000296413451,21.368957092629667],[77.478693358010347,21.368841458094341],[77.47848908827369,21.368114242537885],[77.478236144671612,21.368109900840512],[77.478471922108938,21.367425298557244],[77.480155161543678,21.367537293142725],[77.480250136269191,21.368158169417509],[77.481646437044219,21.367649381591495],[77.482076925001351,21.367492515541986],[77.48237740562989,21.367784347093082]]]},"properties":{"FID":89,"Join_Count":2,"TARGET_FID":90,"Layer":"TEXT_PARCEL","Text":"6","vill_code":"531858","LGD_CODE":"531858"}},{"type":"Feature","id":90,"geometry":{"type":"Polygon","coordinates":[[[77.469787383932783,21.36876337029755],[77.468918549365952,21.369343763664869],[77.468904487903856,21.369257406362738],[77.468337303892412,21.369255773439598],[77.468242260620343,21.369116774481785],[77.467237893891351,21.369132816746312],[77.466548530047959,21.368950208175267],[77.4663893767639,21.368904798698139],[77.467236677302083,21.367675378795791],[77.467302409348392,21.367580001566125],[77.468548977667822,21.367637149640746],[77.468593584393432,21.368034196132673],[77.468833723002433,21.368075707625167],[77.469002805948875,21.367997656172047],[77.469089160710013,21.368221962667153],[77.469758537639933,21.368246945087428],[77.469787383932783,21.36876337029755]]]},"properties":{"FID":90,"Join_Count":2,"TARGET_FID":91,"Layer":"TEXT_PARCEL","Text":"83","vill_code":"531858","LGD_CODE":"531858"}},{"type":"Feature","id":91,"geometry":{"type":"Polygon","coordinates":[[[77.470768582093726,21.36905523216118],[77.470020157681319,21.369366914760569],[77.469845796763238,21.36906371129578],[77.469787383932783,21.36876337029755],[77.469758537639933,21.368246945087428],[77.470375180340355,21.368119138905207],[77.470581180156813,21.367821788419203],[77.470682859589118,21.367577798921793],[77.470768582093726,21.36905523216118]]]},"properties":{"FID":91,"Join_Count":2,"TARGET_FID":92,"Layer":"TEXT_PARCEL","Text":"108","vill_code":"531858","LGD_CODE":"531858"}},{"type":"Feature","id":92,"geometry":{"type":"Polygon","coordinates":[[[77.478693358010347,21.368841458094341],[77.478250546640965,21.369536198857535],[77.477152847362717,21.369503125167505],[77.476572674057465,21.368761973918534],[77.476634433137122,21.368357998882651],[77.476850533386681,21.368181419079242],[77.478236144671612,21.368109900840512],[77.47848908827369,21.368114242537885],[77.478693358010347,21.368841458094341]]]},"properties":{"FID":92,"Join_Count":2,"TARGET_FID":93,"Layer":"TEXT_PARCEL","Text":"5","vill_code":"531858","LGD_CODE":"531858"}},{"type":"Feature","id":93,"geometry":{"type":"Polygon","coordinates":[[[77.466298839879386,21.369590150953062],[77.465635339761562,21.369753099136478],[77.465322459350872,21.369234983654152],[77.465833385675225,21.368682788986703],[77.465859271841367,21.368308069640054],[77.465965745960247,21.367957310861833],[77.466143424265312,21.367314255670276],[77.467236677302083,21.367675378795791],[77.4663893767639,21.368904798698139],[77.466548530047959,21.368950208175267],[77.466298839879386,21.369590150953062]]]},"properties":{"FID":93,"Join_Count":2,"TARGET_FID":94,"Layer":"TEXT_PARCEL","Text":"84","vill_code":"531858","LGD_CODE":"531858"}},{"type":"Feature","id":94,"geometry":{"type":"Polygon","coordinates":[[[77.468994426417552,21.369809731601798],[77.468131224054872,21.369927515365397],[77.466298839879386,21.369590150953062],[77.466548530047959,21.368950208175267],[77.467237893891351,21.369132816746312],[77.468242260620343,21.369116774481785],[77.468337303892412,21.369255773439598],[77.468904487903856,21.369257406362738],[77.468918549365952,21.369343763664869],[77.468994426417552,21.369809731601798]]]},"properties":{"FID":94,"Join_Count":2,"TARGET_FID":95,"Layer":"TEXT_PARCEL","Text":"85","vill_code":"531858","LGD_CODE":"531858"}},{"type":"Feature","id":95,"geometry":{"type":"Polygon","coordinates":[[[77.46771463743309,21.371718991810848],[77.467458986183971,21.371892244103744],[77.467233294507167,21.371639681990992],[77.467266778009602,21.371470738876997],[77.467306208111125,21.371086917812715],[77.46715479255748,21.370659486088599],[77.466790467409666,21.370398531557289],[77.466092696391229,21.37022882312673],[77.465635339761562,21.369753099136478],[77.466298839879386,21.369590150953062],[77.468131224054872,21.369927515365397],[77.468994426417552,21.369809731601798],[77.46771463743309,21.371718991810848]]]},"properties":{"FID":95,"Join_Count":2,"TARGET_FID":96,"Layer":"TEXT_PARCEL","Text":"86","vill_code":"531858","LGD_CODE":"531858"}},{"type":"Feature","id":96,"geometry":{"type":"Polygon","coordinates":[[[77.473929197298744,21.372034077214263],[77.473730914221932,21.372049216746401],[77.473727298929433,21.370176004277486],[77.474511284428317,21.36984554497468],[77.475022586117831,21.370019327686865],[77.474954073635303,21.370699825606355],[77.474994646014736,21.371361530070693],[77.474096024916648,21.371608368589754],[77.473929197298744,21.372034077214263]]]},"properties":{"FID":96,"Join_Count":2,"TARGET_FID":97,"Layer":"TEXT_PARCEL","Text":"103","vill_code":"531858","LGD_CODE":"531858"}},{"type":"Feature","id":97,"geometry":{"type":"Polygon","coordinates":[[[77.468362849410127,21.371982064576706],[77.467761344155306,21.372497490589875],[77.467584191525802,21.372466160055243],[77.467458986183971,21.371892244103744],[77.46771463743309,21.371718991810848],[77.468994426417552,21.369809731601798],[77.468918549365952,21.369343763664869],[77.469787383932783,21.36876337029755],[77.469845796763238,21.36906371129578],[77.470020157681319,21.369366914760569],[77.46935715601893,21.369883479156478],[77.46925917182989,21.370279739209611],[77.469420300913271,21.370658467364706],[77.46876689003399,21.371181440303253],[77.468362849410127,21.371982064576706]]]},"properties":{"FID":97,"Join_Count":2,"TARGET_FID":98,"Layer":"TEXT_PARCEL","Text":"87","vill_code":"531858","LGD_CODE":"531858"}},{"type":"Feature","id":98,"geometry":{"type":"Polygon","coordinates":[[[77.477252786281852,21.372637896611259],[77.475826710916721,21.372685454857312],[77.475504511161375,21.372479678726783],[77.475232580437918,21.372504272310529],[77.474994646014736,21.371361530070693],[77.474954073635303,21.370699825606355],[77.475022586117831,21.370019327686865],[77.475974197285211,21.369944169869438],[77.476219016359153,21.370161192123788],[77.476299767663619,21.370636623792773],[77.476938064972018,21.370846072691915],[77.477252786281852,21.372637896611259]]]},"properties":{"FID":98,"Join_Count":2,"TARGET_FID":99,"Layer":"TEXT_PARCEL","Text":"102","vill_code":"531858","LGD_CODE":"531858"}},{"type":"Feature","id":99,"geometry":{"type":"Polygon","coordinates":[[[77.466720458466497,21.372634456056623],[77.464384376794555,21.372995244127683],[77.466138584751647,21.372226758286448],[77.465698111635589,21.371327686594686],[77.464716466103894,21.370179078484444],[77.46566783047939,21.365111395734214],[77.467605760674445,21.362104712485891],[77.468364568389987,21.359640295789514],[77.468316653800315,21.358249028399424],[77.46869096048809,21.35654672625671],[77.46984688429724,21.355344355109125],[77.471745919841482,21.352107848088835],[77.476267780607614,21.349550052682162],[77.4805812796032,21.347427888051016],[77.480289760419382,21.346778285448757],[77.481010355952719,21.346331099265985],[77.4815279425071,21.347111912465262],[77.481590174845863,21.347635655714981],[77.481202658467552,21.347372227117653],[77.480083127151886,21.348086105392699],[77.476966366911881,21.350215990156642],[77.475599690330384,21.350778146180872],[77.47344284683642,21.351466857436069],[77.472543058297958,21.35191422622411],[77.47202274596404,21.352247812368766],[77.471594883652799,21.353013546091514],[77.470459169341268,21.355230621080302],[77.469093992870498,21.356613313027857],[77.468976637118843,21.358178183235314],[77.468962165918299,21.359622570153061],[77.468081753169002,21.362306740688563],[77.466628264879631,21.364464422212997],[77.466027871292297,21.365583530259578],[77.465091064892448,21.369249121227579],[77.46508701282616,21.370140876536677],[77.466865192301299,21.372309791545351],[77.467659023440589,21.372911852145023],[77.466720458466497,21.372634456056623]]]},"properties":{"FID":99,"Join_Count":1,"TARGET_FID":100,"Layer":"TEXT_PARCEL","Text":"सप\u0940Zण   नद\u0940","vill_code":"531858","LGD_CODE":"531858"}},{"type":"Feature","id":100,"geometry":{"type":"Polygon","coordinates":[[[77.473730914221932,21.372049216746401],[77.473538854097583,21.372905370498703],[77.47316497739007,21.372693567254803],[77.473038469257091,21.372048862720604],[77.472989870610903,21.371356748291628],[77.472720606771958,21.371111697769422],[77.472746416045311,21.370431324659034],[77.473727298929433,21.370176004277486],[77.473730914221932,21.372049216746401]]]},"properties":{"FID":100,"Join_Count":2,"TARGET_FID":101,"Layer":"TEXT_PARCEL","Text":"104","vill_code":"531858","LGD_CODE":"531858"}},{"type":"Feature","id":101,"geometry":{"type":"Polygon","coordinates":[[[77.472801254336559,21.372620218049075],[77.472645112802027,21.372986236207964],[77.471891504656867,21.372960427243349],[77.47164960061022,21.372581680797815],[77.47183774754474,21.372054970629065],[77.471777382176512,21.371913932715898],[77.471616955355117,21.371437877660377],[77.471357041735516,21.371247365060032],[77.471123043084674,21.370867606206467],[77.470739432862914,21.370502454573582],[77.470208971034552,21.370372655661175],[77.469695511243131,21.370375927612894],[77.469420300913271,21.370658467364706],[77.46925917182989,21.370279739209611],[77.46935715601893,21.369883479156478],[77.470020157681319,21.369366914760569],[77.470768582093726,21.36905523216118],[77.470944113383837,21.368920666706131],[77.471280874422632,21.369165352161822],[77.472302028554154,21.370663405206606],[77.472525703598478,21.371104535715865],[77.472801254336559,21.372620218049075]]]},"properties":{"FID":101,"Join_Count":2,"TARGET_FID":102,"Layer":"TEXT_PARCEL","Text":"107","vill_code":"531858","LGD_CODE":"531858"}},{"type":"Feature","id":102,"geometry":{"type":"Polygon","coordinates":[[[77.470422167874702,21.374015598974736],[77.470401958238057,21.374097409905396],[77.470204619464027,21.373990302752222],[77.470569248120739,21.373202055999677],[77.470705485455525,21.372649983950943],[77.470901553628948,21.372265137736839],[77.470926918554312,21.371972760432165],[77.470553554473113,21.371607509149406],[77.470215763100953,21.371408499502195],[77.469729517120967,21.371578393131184],[77.46984455599231,21.371809771593849],[77.469308433647811,21.372457551185352],[77.468700612240511,21.373127654377399],[77.468189099099618,21.373265127873793],[77.46834722293444,21.372947402756292],[77.468823047326424,21.37232896016673],[77.469480049797241,21.371249027528567],[77.470174477996892,21.371112452757238],[77.470727595358937,21.371393973260961],[77.471022947805295,21.371878958043727],[77.471043520926116,21.372399896029357],[77.470422167874702,21.374015598974736]]]},"properties":{"FID":102,"Join_Count":2,"TARGET_FID":103,"Layer":"TEXT_PARCEL","Text":"88","vill_code":"531858","LGD_CODE":"531858"}},{"type":"Feature","id":103,"geometry":{"type":"Polygon","coordinates":[[[77.469355823798651,21.374224981152022],[77.469212975946206,21.374272801762704],[77.469112403691867,21.37421073221849],[77.468449018577942,21.373540284547666],[77.46885970552745,21.373417460402976],[77.469764232324579,21.372429042986933],[77.47034930449118,21.371707934200529],[77.470819523404529,21.372050089666356],[77.470328625530527,21.372793534225821],[77.469307639334787,21.373704217917464],[77.469425463697391,21.37388557253831],[77.469355823798651,21.374224981152022]]]},"properties":{"FID":103,"Join_Count":2,"TARGET_FID":104,"Layer":"TEXT_PARCEL","Text":"89","vill_code":"531858","LGD_CODE":"531858"}},{"type":"Feature","id":104,"geometry":{"type":"Polygon","coordinates":[[[77.473665066532419,21.374178869950772],[77.473614510699832,21.374335074562616],[77.47329259032071,21.374169850320591],[77.473483337485249,21.373808328823827],[77.473392831874676,21.373618495459631],[77.473538854097583,21.372905370498703],[77.473730914221932,21.372049216746401],[77.473929197298744,21.372034077214263],[77.474096024916648,21.371608368589754],[77.474994646014736,21.371361530070693],[77.475232580437918,21.372504272310529],[77.474437921058467,21.373887307109676],[77.474000494910527,21.37426093553924],[77.473665066532419,21.374178869950772]]]},"properties":{"FID":104,"Join_Count":2,"TARGET_FID":105,"Layer":"TEXT_PARCEL","Text":"105","vill_code":"531858","LGD_CODE":"531858"}},{"type":"Feature","id":105,"geometry":{"type":"Polygon","coordinates":[[[77.476608427135389,21.374353277678015],[77.476168357004966,21.374453659431044],[77.476016446328615,21.374322371005459],[77.476015852640757,21.373785669958519],[77.47580047766823,21.373753821905762],[77.475932692599429,21.373076025176253],[77.475826710916721,21.372685454857312],[77.477252786281852,21.372637896611259],[77.477177543947874,21.373413544082272],[77.477148004760153,21.37347431034334],[77.476648162454154,21.374261181055292],[77.476608427135389,21.374353277678015]]]},"properties":{"FID":105,"Join_Count":2,"TARGET_FID":106,"Layer":"TEXT_PARCEL","Text":"101","vill_code":"531858","LGD_CODE":"531858"}},{"type":"Feature","id":106,"geometry":{"type":"Polygon","coordinates":[[[77.47632550704715,21.375009009024609],[77.475753337197133,21.375337994544118],[77.474734084583886,21.375339965953948],[77.474239621079988,21.375123835932854],[77.474113497857729,21.375041320194573],[77.474026431139819,21.37510371921535],[77.473937018142365,21.375036999860082],[77.473912417626934,21.374760904865823],[77.474000494910527,21.37426093553924],[77.474437921058467,21.373887307109676],[77.475232580437918,21.372504272310529],[77.475504511161375,21.372479678726783],[77.475826710916721,21.372685454857312],[77.475932692599429,21.373076025176253],[77.47580047766823,21.373753821905762],[77.476015852640757,21.373785669958519],[77.476016446328615,21.374322371005459],[77.476168357004966,21.374453659431044],[77.476608427135389,21.374353277678015],[77.47632550704715,21.375009009024609]]]},"properties":{"FID":106,"Join_Count":2,"TARGET_FID":107,"Layer":"TEXT_PARCEL","Text":"100","vill_code":"531858","LGD_CODE":"531858"}},{"type":"Feature","id":107,"geometry":{"type":"Polygon","coordinates":[[[77.472638071202326,21.374984329814581],[77.472394166470266,21.375579116360363],[77.471823319445093,21.375395934061771],[77.471167286581874,21.374999587742035],[77.471046174526919,21.37460977097728],[77.470922239134282,21.374042806185759],[77.471110876058418,21.373765710623342],[77.471147134444138,21.373282475060297],[77.471219276679435,21.373157849856351],[77.47164960061022,21.372581680797815],[77.471891504656867,21.372960427243349],[77.472645112802027,21.372986236207964],[77.47267143085277,21.373698630613365],[77.4727359512015,21.373977726571336],[77.472530872479382,21.374756324442711],[77.472638071202326,21.374984329814581]]]},"properties":{"FID":107,"Join_Count":2,"TARGET_FID":108,"Layer":"TEXT_PARCEL","Text":"106","vill_code":"531858","LGD_CODE":"531858"}},{"type":"Feature","id":108,"geometry":{"type":"Polygon","coordinates":[[[77.467920569332662,21.376481585252478],[77.467649193461753,21.376498459971703],[77.467003910864037,21.375730649427833],[77.467613466096523,21.374717370917722],[77.468092274450015,21.374715464537829],[77.468512606925913,21.374970148083186],[77.468481729413696,21.375437342992264],[77.468325272053562,21.376170177877164],[77.467920569332662,21.376481585252478]]]},"properties":{"FID":108,"Join_Count":2,"TARGET_FID":109,"Layer":"TEXT_PARCEL","Text":"90","vill_code":"531858","LGD_CODE":"531858"}},{"type":"Feature","id":109,"geometry":{"type":"Polygon","coordinates":[[[77.472685334641213,21.375670099262422],[77.473270558010199,21.376668836128712],[77.472371399135582,21.376678092536096],[77.471245624402314,21.375158777502129],[77.471196050466517,21.375083575514235],[77.471167286581874,21.374999587742035],[77.471823319445093,21.375395934061771],[77.472394166470266,21.375579116360363],[77.472638071202326,21.374984329814581],[77.472530872479382,21.374756324442711],[77.4727359512015,21.373977726571336],[77.47267143085277,21.373698630613365],[77.472645112802027,21.372986236207964],[77.472801254336559,21.372620218049075],[77.472525703598478,21.371104535715865],[77.472302028554154,21.370663405206606],[77.471280874422632,21.369165352161822],[77.470944113383837,21.368920666706131],[77.472129141860876,21.368012194575243],[77.473705644796254,21.368333198144178],[77.473769456425003,21.368171115264975],[77.473787991581133,21.368026570716207],[77.474345866498226,21.368354445858966],[77.47571947612208,21.368356581723308],[77.476634433137122,21.368357998882651],[77.476572674057465,21.368761973918534],[77.477152847362717,21.369503125167505],[77.478250546640965,21.369536198857535],[77.478198648194621,21.369617623429665],[77.478290886278728,21.370288536189193],[77.478286397455207,21.370388847028092],[77.477708390423686,21.3721139066364],[77.477378334371281,21.373454119235337],[77.477177543947874,21.373413544082272],[77.477252786281852,21.372637896611259],[77.476938064972018,21.370846072691915],[77.476299767663619,21.370636623792773],[77.476219016359153,21.370161192123788],[77.475974197285211,21.369944169869438],[77.475022586117831,21.370019327686865],[77.474511284428317,21.36984554497468],[77.473727298929433,21.370176004277486],[77.472746416045311,21.370431324659034],[77.472720606771958,21.371111697769422],[77.472989870610903,21.371356748291628],[77.473038469257091,21.372048862720604],[77.47316497739007,21.372693567254803],[77.473538854097583,21.372905370498703],[77.473392831874676,21.373618495459631],[77.473483337485249,21.373808328823827],[77.47329259032071,21.374169850320591],[77.473614510699832,21.374335074562616],[77.473665066532419,21.374178869950772],[77.474000494910527,21.37426093553924],[77.473912417626934,21.374760904865823],[77.473937018142365,21.375036999860082],[77.472685334641213,21.375670099262422]]]},"properties":{"FID":109,"Join_Count":2,"TARGET_FID":110,"Layer":"TEXT_PARCEL","Text":"99","vill_code":"531858","LGD_CODE":"531858"}},{"type":"Feature","id":110,"geometry":{"type":"Polygon","coordinates":[[[77.47436969799945,21.376053990892572],[77.473316372918219,21.376878104278664],[77.473270558010199,21.376668836128712],[77.472685334641213,21.375670099262422],[77.473937018142365,21.375036999860082],[77.474026431139819,21.37510371921535],[77.474113497857729,21.375041320194573],[77.474239621079988,21.375123835932854],[77.474734084583886,21.375339965953948],[77.47436969799945,21.376053990892572]]]},"properties":{"FID":110,"Join_Count":2,"TARGET_FID":111,"Layer":"TEXT_PARCEL","Text":"109","vill_code":"531858","LGD_CODE":"531858"}},{"type":"Feature","id":111,"geometry":{"type":"Polygon","coordinates":[[[77.473196175199718,21.377381592597445],[77.473076096912322,21.37755494637295],[77.472185040667782,21.377369145999761],[77.472150029779613,21.377337295714018],[77.470983326812402,21.376275932086902],[77.470530646520402,21.375691812643652],[77.470460466809854,21.375634976535778],[77.470201270613799,21.374818150882632],[77.470274109030939,21.374614953133449],[77.470401958238057,21.374097409905396],[77.470422167874702,21.374015598974736],[77.471043520926116,21.372399896029357],[77.471022947805295,21.371878958043727],[77.470727595358937,21.371393973260961],[77.470174477996892,21.371112452757238],[77.469480049797241,21.371249027528567],[77.468823047326424,21.37232896016673],[77.46834722293444,21.372947402756292],[77.467659023440589,21.372911852145023],[77.466865192301299,21.372309791545351],[77.46508701282616,21.370140876536677],[77.465091064892448,21.369249121227579],[77.466027871292297,21.365583530259578],[77.466628264879631,21.364464422212997],[77.468081753169002,21.362306740688563],[77.468962165918299,21.359622570153061],[77.468976637118843,21.358178183235314],[77.469093992870498,21.356613313027857],[77.470459169341268,21.355230621080302],[77.471594883652799,21.353013546091514],[77.47202274596404,21.352247812368766],[77.472543058297958,21.35191422622411],[77.47344284683642,21.351466857436069],[77.475599690330384,21.350778146180872],[77.476966366911881,21.350215990156642],[77.480083127151886,21.348086105392699],[77.481202658467552,21.347372227117653],[77.481590174845863,21.347635655714981],[77.481596270127326,21.347686954223992],[77.479901013837093,21.348857901363655],[77.479779553066564,21.348967375428099],[77.479084605420326,21.349421798440286],[77.479042244405335,21.349473901092246],[77.478970920661098,21.349612232354897],[77.478946928307039,21.349727166677646],[77.477539648127163,21.350702193400686],[77.476460398419817,21.351323216611856],[77.473782117026829,21.351547972002223],[77.472771826565364,21.351973021642987],[77.472126002801701,21.35286586892753],[77.472138848829303,21.354190895145589],[77.47213345529903,21.354305820479993],[77.471617245161525,21.3551584267334],[77.471129694832811,21.355595991225844],[77.470463308318784,21.355568667655884],[77.469932577477948,21.355931144180083],[77.469651268985643,21.356942222327913],[77.469881940816194,21.357921706954503],[77.46996079972989,21.359831675408113],[77.469665950486203,21.35961527491909],[77.469254553906367,21.359881935938361],[77.468985529380632,21.360341922929756],[77.46880307885759,21.361516980013025],[77.469059998429643,21.361814938628612],[77.468947914840143,21.361888295592379],[77.468785683258758,21.362225757098731],[77.468790164637667,21.362517592536744],[77.467566193414498,21.364243975513908],[77.466624922828728,21.365571584065126],[77.46643171383765,21.366270865211256],[77.466143424265312,21.367314255670276],[77.465965745960247,21.367957310861833],[77.465859271841367,21.368308069640054],[77.465833385675225,21.368682788986703],[77.465322459350872,21.369234983654152],[77.465635339761562,21.369753099136478],[77.466092696391229,21.37022882312673],[77.466790467409666,21.370398531557289],[77.46715479255748,21.370659486088599],[77.467306208111125,21.371086917812715],[77.467266778009602,21.371470738876997],[77.467233294507167,21.371639681990992],[77.467458986183971,21.371892244103744],[77.467584191525802,21.372466160055243],[77.467761344155306,21.372497490589875],[77.468362849410127,21.371982064576706],[77.46876689003399,21.371181440303253],[77.469420300913271,21.370658467364706],[77.469695511243131,21.370375927612894],[77.470208971034552,21.370372655661175],[77.470739432862914,21.370502454573582],[77.471123043084674,21.370867606206467],[77.471357041735516,21.371247365060032],[77.471616955355117,21.371437877660377],[77.471777382176512,21.371913932715898],[77.47183774754474,21.372054970629065],[77.47164960061022,21.372581680797815],[77.471219276679435,21.373157849856351],[77.471147134444138,21.373282475060297],[77.471110876058418,21.373765710623342],[77.470922239134282,21.374042806185759],[77.471046174526919,21.37460977097728],[77.471167286581874,21.374999587742035],[77.471196050466517,21.375083575514235],[77.471245624402314,21.375158777502129],[77.472371399135582,21.376678092536096],[77.472399547126741,21.376717329479163],[77.473196175199718,21.377381592597445]]]},"properties":{"FID":111,"Join_Count":1,"TARGET_FID":112,"Layer":"TEXT_PARCEL","Text":"सप\u0940Zण   नद\u0940","vill_code":"531858","LGD_CODE":"531858"}},{"type":"Feature","id":112,"geometry":{"type":"Polygon","coordinates":[[[77.469425034630603,21.377031912963094],[77.469069384205838,21.377714567690141],[77.468388365641346,21.377326351743893],[77.468669248562421,21.376645004651607],[77.469386895414857,21.375877640804593],[77.469322548694862,21.37528254206741],[77.469921813077718,21.374708298112317],[77.470054400604369,21.374761205191447],[77.470161863358982,21.374574178739564],[77.470274109030939,21.374614953133449],[77.470201270613799,21.374818150882632],[77.470460466809854,21.375634976535778],[77.470222855406462,21.375883560494671],[77.470150041890676,21.376358731549455],[77.469924468359793,21.376752857608935],[77.469425034630603,21.377031912963094]]]},"properties":{"FID":112,"Join_Count":2,"TARGET_FID":113,"Layer":"TEXT_PARCEL","Text":"97","vill_code":"531858","LGD_CODE":"531858"}},{"type":"Feature","id":113,"geometry":{"type":"Polygon","coordinates":[[[77.47111816373878,21.378927548046224],[77.470559908567694,21.379081281370148],[77.470468695862479,21.378562260019788],[77.470021517260292,21.37770703220027],[77.469494124525554,21.377472419488356],[77.469069384205838,21.377714567690141],[77.469425034630603,21.377031912963094],[77.469924468359793,21.376752857608935],[77.470150041890676,21.376358731549455],[77.470222855406462,21.375883560494671],[77.470460466809854,21.375634976535778],[77.470530646520402,21.375691812643652],[77.470983326812402,21.376275932086902],[77.472150029779613,21.377337295714018],[77.47147828251245,21.377993378728398],[77.47111816373878,21.378927548046224]]]},"properties":{"FID":113,"Join_Count":2,"TARGET_FID":114,"Layer":"TEXT_PARCEL","Text":"98","vill_code":"531858","LGD_CODE":"531858"}},{"type":"Feature","id":114,"geometry":{"type":"Polygon","coordinates":[[[77.468810213472509,21.38081922422035],[77.467425501819264,21.38084449300332],[77.467235830532573,21.380001463857219],[77.46732237397255,21.378812052202161],[77.467688743506514,21.378167422906174],[77.469190602705979,21.379022780785906],[77.468810213472509,21.38081922422035]]]},"properties":{"FID":114,"Join_Count":2,"TARGET_FID":115,"Layer":"TEXT_PARCEL","Text":"96","vill_code":"531858","LGD_CODE":"531858"}},{"type":"Feature","id":115,"geometry":{"type":"Polygon","coordinates":[[[77.467425501819264,21.38084449300332],[77.466615157076504,21.381883444101096],[77.465536157329296,21.38130945130602],[77.465333613922027,21.381605603674164],[77.465020562240881,21.380641586154752],[77.465005190735539,21.378608542877728],[77.465246253658805,21.377726846301687],[77.465021502155963,21.376253393797874],[77.467405898384129,21.374319462172],[77.467659023440589,21.372911852145023],[77.46834722293444,21.372947402756292],[77.468189099099618,21.373265127873793],[77.468700612240511,21.373127654377399],[77.469308433647811,21.372457551185352],[77.46984455599231,21.371809771593849],[77.469729517120967,21.371578393131184],[77.470215763100953,21.371408499502195],[77.470553554473113,21.371607509149406],[77.470926918554312,21.371972760432165],[77.470901553628948,21.372265137736839],[77.470705485455525,21.372649983950943],[77.470569248120739,21.373202055999677],[77.470204619464027,21.373990302752222],[77.470401958238057,21.374097409905396],[77.470274109030939,21.374614953133449],[77.470161863358982,21.374574178739564],[77.470054400604369,21.374761205191447],[77.469921813077718,21.374708298112317],[77.469322548694862,21.37528254206741],[77.469386895414857,21.375877640804593],[77.468669248562421,21.376645004651607],[77.468388365641346,21.377326351743893],[77.469069384205838,21.377714567690141],[77.469494124525554,21.377472419488356],[77.470021517260292,21.37770703220027],[77.470468695862479,21.378562260019788],[77.470559908567694,21.379081281370148],[77.47111816373878,21.378927548046224],[77.470020498916071,21.380642440924959],[77.469538201821592,21.38064127360246],[77.468810213472509,21.38081922422035],[77.469190602705979,21.379022780785906],[77.467688743506514,21.378167422906174],[77.46732237397255,21.378812052202161],[77.467235830532573,21.380001463857219],[77.467425501819264,21.38084449300332]],[[77.467003910864037,21.375730649427833],[77.467649193461753,21.376498459971703],[77.467920569332662,21.376481585252478],[77.468325272053562,21.376170177877164],[77.468481729413696,21.375437342992264],[77.468512606925913,21.374970148083186],[77.468092274450015,21.374715464537829],[77.467613466096523,21.374717370917722],[77.467003910864037,21.375730649427833]],[[77.469112403691867,21.37421073221849],[77.469212975946206,21.374272801762704],[77.469355823798651,21.374224981152022],[77.469425463697391,21.37388557253831],[77.469307639334787,21.373704217917464],[77.470328625530527,21.372793534225821],[77.470819523404529,21.372050089666356],[77.47034930449118,21.371707934200529],[77.469764232324579,21.372429042986933],[77.46885970552745,21.373417460402976],[77.468449018577942,21.373540284547666],[77.469112403691867,21.37421073221849]]]},"properties":{"FID":115,"Join_Count":2,"TARGET_FID":116,"Layer":"TEXT_PARCEL","Text":"91","vill_code":"531858","LGD_CODE":"531858"}},{"type":"Feature","id":116,"geometry":{"type":"Polygon","coordinates":[[[77.470020498916071,21.380642440924959],[77.468212806783811,21.383421118593375],[77.466123121462303,21.383037521935876],[77.466434033779464,21.382784425111932],[77.466615157076504,21.381883444101096],[77.467425501819264,21.38084449300332],[77.468810213472509,21.38081922422035],[77.469538201821592,21.38064127360246],[77.470020498916071,21.380642440924959]]]},"properties":{"FID":116,"Join_Count":2,"TARGET_FID":117,"Layer":"TEXT_PARCEL","Text":"95","vill_code":"531858","LGD_CODE":"531858"}},{"type":"Feature","id":117,"geometry":{"type":"Polygon","coordinates":[[[77.466123121462303,21.383037521935876],[77.46412539632945,21.386289524125324],[77.463963076065298,21.386225324905421],[77.464377213222704,21.385456887364494],[77.464414633705744,21.385353758173025],[77.464940021013035,21.383307286785069],[77.465333613922027,21.381605603674164],[77.465536157329296,21.38130945130602],[77.466615157076504,21.381883444101096],[77.466434033779464,21.382784425111932],[77.466123121462303,21.383037521935876]]]},"properties":{"FID":117,"Join_Count":2,"TARGET_FID":118,"Layer":"TEXT_PARCEL","Text":"92","vill_code":"531858","LGD_CODE":"531858"}},{"type":"Feature","id":118,"geometry":{"type":"Polygon","coordinates":[[[77.465083609981036,21.386503980748873],[77.465107219289152,21.386677838429993],[77.46412539632945,21.386289524125324],[77.466123121462303,21.383037521935876],[77.466402709461931,21.383416407651843],[77.466150386395185,21.384043981469251],[77.465614618250967,21.384415019389415],[77.465933098310444,21.384873961451568],[77.465726603861697,21.385567049254696],[77.465182098721939,21.385578490810811],[77.465083609981036,21.386503980748873]]]},"properties":{"FID":118,"Join_Count":2,"TARGET_FID":119,"Layer":"TEXT_PARCEL","Text":"93","vill_code":"531858","LGD_CODE":"531858"}},{"type":"Feature","id":119,"geometry":{"type":"Polygon","coordinates":[[[77.467910909803322,21.383885165991472],[77.465107219289152,21.386677838429993],[77.465083609981036,21.386503980748873],[77.465182098721939,21.385578490810811],[77.465726603861697,21.385567049254696],[77.465933098310444,21.384873961451568],[77.465614618250967,21.384415019389415],[77.466150386395185,21.384043981469251],[77.466402709461931,21.383416407651843],[77.466123121462303,21.383037521935876],[77.468212806783811,21.383421118593375],[77.467910909803322,21.383885165991472]]]},"properties":{"FID":119,"Join_Count":2,"TARGET_FID":120,"Layer":"TEXT_PARCEL","Text":"94","vill_code":"531858","LGD_CODE":"531858"}}]
}