{
  "type" : "FeatureCollection",
  "features" : [{"type":"Feature","id":0,"geometry":{"type":"LineString","coordinates":[[77.485437946567401,21.353118070791403],[77.485409824907805,21.353054798805786],[77.485389852167174,21.35225711176528],[77.485575422986031,21.351169326438701]]},"properties":{"FID":0,"LGD_CODE":"531858","ROAD_TYPE":"A"}},{"type":"Feature","id":1,"geometry":{"type":"LineString","coordinates":[[77.487840340015481,21.350831099919954],[77.488574569378059,21.350817911192294]]},"properties":{"FID":1,"LGD_CODE":"531858","ROAD_TYPE":"B"}},{"type":"Feature","id":2,"geometry":{"type":"LineString","coordinates":[[77.487896297329485,21.350759845188897],[77.488540465252129,21.350745377425842]]},"properties":{"FID":2,"LGD_CODE":"531858","ROAD_TYPE":"B"}},{"type":"Feature","id":3,"geometry":{"type":"LineString","coordinates":[[77.469840814367316,21.365592211384271],[77.470517643954608,21.364538604102311],[77.470746181844703,21.364194173408819],[77.470652619507902,21.362517722890658],[77.470581780404387,21.360809985250626],[77.470585246665848,21.360675947183729],[77.471137327695175,21.358511723141731],[77.471199371497335,21.357801475414568],[77.470772718032435,21.357847718307802],[77.470826027645458,21.357158437644568],[77.471665688516865,21.356311519641665],[77.471700839738133,21.356125223172494],[77.47174918598958,21.355113623823076],[77.47224398757308,21.354253815300286],[77.47323829733503,21.352525629793085]]},"properties":{"FID":3,"LGD_CODE":"531858","ROAD_TYPE":"C"}},{"type":"Feature","id":4,"geometry":{"type":"LineString","coordinates":[[77.47323829733503,21.352525629793085],[77.473051080847725,21.351855535105017]]},"properties":{"FID":4,"LGD_CODE":"531858","ROAD_TYPE":"C"}},{"type":"Feature","id":5,"geometry":{"type":"LineString","coordinates":[[77.483225976730438,21.352213960898901],[77.483043068327206,21.352508317205878],[77.482671109157664,21.353069195032184],[77.481911603781427,21.356189097912033]]},"properties":{"FID":5,"LGD_CODE":"531858","ROAD_TYPE":"C"}},{"type":"Feature","id":6,"geometry":{"type":"LineString","coordinates":[[77.482108344850914,21.357294997221565],[77.481665785832192,21.358854588391313],[77.481229976181893,21.359827740179405],[77.481167627895985,21.360300859683537],[77.481102938988272,21.361500932321842],[77.481089193879427,21.361655580360079],[77.480679527014402,21.362734837350633],[77.480326784323992,21.36317079481951],[77.480361789526313,21.363682222194978],[77.481222063097903,21.365824973448696]]},"properties":{"FID":6,"LGD_CODE":"531858","ROAD_TYPE":"C"}},{"type":"Feature","id":7,"geometry":{"type":"LineString","coordinates":[[77.479942163203773,21.366323291455597],[77.480048179209277,21.366191019002343],[77.481324839802312,21.365860266662921]]},"properties":{"FID":7,"LGD_CODE":"531858","ROAD_TYPE":"B"}},{"type":"Feature","id":8,"geometry":{"type":"LineString","coordinates":[[77.479754620138905,21.366348746429367],[77.479854596494576,21.366219160355744],[77.479995920289667,21.366137556143137],[77.481222063097903,21.365824973448696],[77.481310525325327,21.365800112346953]]},"properties":{"FID":8,"LGD_CODE":"531858","ROAD_TYPE":"B"}},{"type":"Feature","id":9,"geometry":{"type":"LineString","coordinates":[[77.477327469851957,21.369508387136939],[77.479042544672652,21.367454017475232]]},"properties":{"FID":9,"LGD_CODE":"531858","ROAD_TYPE":"B"}},{"type":"Feature","id":10,"geometry":{"type":"LineString","coordinates":[[77.477229325134914,21.369505429803301],[77.478962999104297,21.367448622478229]]},"properties":{"FID":10,"LGD_CODE":"531858","ROAD_TYPE":"B"}},{"type":"Feature","id":11,"geometry":{"type":"LineString","coordinates":[[77.470688850939652,21.370490077778406],[77.470690680648346,21.369087674656424]]},"properties":{"FID":11,"LGD_CODE":"531858","ROAD_TYPE":"B"}},{"type":"Feature","id":12,"geometry":{"type":"LineString","coordinates":[[77.470783644058699,21.370544538275649],[77.470793818005959,21.369035886041168]]},"properties":{"FID":12,"LGD_CODE":"531858","ROAD_TYPE":"B"}},{"type":"Feature","id":13,"geometry":{"type":"LineString","coordinates":[[77.46885541752988,21.371110585584319],[77.469176249596998,21.369814947940696],[77.469176249596998,21.369814947940696],[77.470749151851706,21.368720355085681]]},"properties":{"FID":13,"LGD_CODE":"531858","ROAD_TYPE":"B"}},{"type":"Feature","id":14,"geometry":{"type":"LineString","coordinates":[[77.470754723800312,21.368816386890142],[77.469240597851979,21.369857535172972],[77.46894865731177,21.371035959223278]]},"properties":{"FID":14,"LGD_CODE":"531858","ROAD_TYPE":"B"}},{"type":"Feature","id":15,"geometry":{"type":"LineString","coordinates":[[77.467820516461543,21.372920195044241],[77.467884429261986,21.374658426723681],[77.467173184576069,21.377483180971531],[77.467148749616427,21.377650671835735],[77.46724125613656,21.378970616041421],[77.467375875217854,21.380623918392349],[77.466510645136296,21.381827847413167],[77.466347202104245,21.38277824537521],[77.466075052375558,21.383309605764168],[77.464196274776242,21.386317556933751]]},"properties":{"FID":15,"LGD_CODE":"531858","ROAD_TYPE":"C"}},{"type":"Feature","id":16,"geometry":{"type":"LineString","coordinates":[[77.474414700122153,21.363392183595277],[77.475773043104184,21.36063300342235],[77.475856375502545,21.360568437492216]]},"properties":{"FID":16,"LGD_CODE":"531858","ROAD_TYPE":"B"}},{"type":"Feature","id":17,"geometry":{"type":"LineString","coordinates":[[77.475733697908126,21.360562216183357],[77.474320332923,21.363385485623898]]},"properties":{"FID":17,"LGD_CODE":"531858","ROAD_TYPE":"B"}},{"type":"Feature","id":18,"geometry":{"type":"LineString","coordinates":[[77.470793818005959,21.369035886041168],[77.470748605343246,21.367501744326276],[77.470748605343246,21.367501744326276]]},"properties":{"FID":18,"LGD_CODE":"531858","ROAD_TYPE":"B"}},{"type":"Feature","id":19,"geometry":{"type":"LineString","coordinates":[[77.470748605343246,21.367501744326276],[77.471777782393644,21.367471064814271],[77.472047827814578,21.367251454464281],[77.472166145925058,21.367193267675773],[77.474304831606361,21.366972347139352],[77.47529153241284,21.366865833842745],[77.476478220076956,21.366894216690739],[77.477353360198023,21.366693226382633],[77.478465075232521,21.366545387239153]]},"properties":{"FID":19,"LGD_CODE":"531858","ROAD_TYPE":"B"}},{"type":"Feature","id":20,"geometry":{"type":"LineString","coordinates":[[77.4784572190039,21.366621169963871],[77.477099599917395,21.36679979878372],[77.476465295951016,21.366978080122561],[77.475306872567614,21.366925092845467],[77.472121576615734,21.367269142618522],[77.471816788517586,21.367502000321132],[77.471691823341985,21.367524259646348],[77.470794911401882,21.367560314036194],[77.470856567081469,21.36898778163971]]},"properties":{"FID":20,"LGD_CODE":"531858","ROAD_TYPE":"B"}},{"type":"Feature","id":21,"geometry":{"type":"LineString","coordinates":[[77.479704014384808,21.357983155168817],[77.479212186464252,21.358110586629248],[77.477929374608777,21.35858358424413],[77.477101833062278,21.359122636242038],[77.47641002749053,21.359769759691904]]},"properties":{"FID":21,"LGD_CODE":"531858","ROAD_TYPE":"A"}},{"type":"Feature","id":22,"geometry":{"type":"LineString","coordinates":[[77.485804017394614,21.356146112047607],[77.486711288927523,21.356261158519104]]},"properties":{"FID":22,"LGD_CODE":"531858","ROAD_TYPE":"A"}},{"type":"Feature","id":23,"geometry":{"type":"LineString","coordinates":[[77.474320332923,21.363385485623898],[77.473700214084047,21.36416336325723]]},"properties":{"FID":23,"LGD_CODE":"531858","ROAD_TYPE":"A"}},{"type":"Feature","id":24,"geometry":{"type":"LineString","coordinates":[[77.474428998728754,21.363525626423385],[77.473842731703527,21.364181867455294]]},"properties":{"FID":24,"LGD_CODE":"531858","ROAD_TYPE":"A"}},{"type":"Feature","id":25,"geometry":{"type":"LineString","coordinates":[[77.472522443562255,21.366132997856067],[77.47208407400467,21.367239102844984]]},"properties":{"FID":25,"LGD_CODE":"531858","ROAD_TYPE":"A"}},{"type":"Feature","id":26,"geometry":{"type":"LineString","coordinates":[[77.472853365227493,21.365276752253365],[77.473303110389182,21.364765532422464],[77.473700214084047,21.36416336325723]]},"properties":{"FID":26,"LGD_CODE":"531858","ROAD_TYPE":"A"}},{"type":"Feature","id":27,"geometry":{"type":"LineString","coordinates":[[77.47043482889309,21.366504922538436],[77.471201015879942,21.366603834515061]]},"properties":{"FID":27,"LGD_CODE":"531858","ROAD_TYPE":"C"}},{"type":"Feature","id":28,"geometry":{"type":"LineString","coordinates":[[77.466394728539896,21.366404724414995],[77.467691853815793,21.366104578504757],[77.468154644686777,21.366538900199796],[77.468472227849063,21.366739556769808],[77.469026842141048,21.367072959467581]]},"properties":{"FID":28,"LGD_CODE":"531858","ROAD_TYPE":"C"}},{"type":"Feature","id":29,"geometry":{"type":"LineString","coordinates":[[77.469026842141048,21.367072959467581],[77.469138222645441,21.367010057734916]]},"properties":{"FID":29,"LGD_CODE":"531858","ROAD_TYPE":"C"}},{"type":"Feature","id":30,"geometry":{"type":"LineString","coordinates":[[77.486711288927523,21.356261158519104],[77.486907594213221,21.355924022856932],[77.486698527640456,21.355273423452598],[77.486343180820413,21.354876632081705],[77.486394351314075,21.35421369921804],[77.485956679944024,21.353401412655913],[77.485437946567401,21.353118070791403]]},"properties":{"FID":30,"LGD_CODE":"531858","ROAD_TYPE":"A"}},{"type":"Feature","id":31,"geometry":{"type":"LineString","coordinates":[[77.485627965381667,21.351170456195486],[77.485575422986031,21.351169326438701]]},"properties":{"FID":31,"LGD_CODE":"531858","ROAD_TYPE":"A"}},{"type":"Feature","id":32,"geometry":{"type":"LineString","coordinates":[[77.482486275259902,21.348683497773763],[77.482982801327054,21.35131949213109]]},"properties":{"FID":32,"LGD_CODE":"531858","ROAD_TYPE":"B"}},{"type":"Feature","id":33,"geometry":{"type":"LineString","coordinates":[[77.482980376125738,21.351386015867529],[77.483123932370844,21.352180973069572]]},"properties":{"FID":33,"LGD_CODE":"531858","ROAD_TYPE":"B"}},{"type":"Feature","id":34,"geometry":{"type":"LineString","coordinates":[[77.485462645670012,21.35104707300486],[77.483224267077759,21.351291592505163],[77.482980376125738,21.351386015867529]]},"properties":{"FID":34,"LGD_CODE":"531858","ROAD_TYPE":"B"}},{"type":"Feature","id":35,"geometry":{"type":"LineString","coordinates":[[77.482919376868239,21.351426264699885],[77.481969945437626,21.351867159607554],[77.480879473907152,21.35350685206825],[77.48078543774669,21.353737181284792],[77.480792565339456,21.353877957755007],[77.480754217510366,21.354159279628576],[77.480458127785198,21.354706547636461],[77.478872977795959,21.356536316574246],[77.478600079854871,21.356981728409842],[77.47783073299837,21.35853926332825]]},"properties":{"FID":35,"LGD_CODE":"531858","ROAD_TYPE":"B"}},{"type":"Feature","id":36,"geometry":{"type":"LineString","coordinates":[[77.477735378722656,21.358580698708458],[77.478584423813246,21.35684300665325],[77.478807966838616,21.356471736483748],[77.479839170173094,21.355340959339731],[77.480490187049625,21.354553010822166],[77.480681510580965,21.354166725575652],[77.480716420867907,21.353980445334077],[77.480731239130108,21.353753754385352],[77.480757907151443,21.353659274886617],[77.480824864665109,21.353464396319179],[77.481921818936144,21.35181973286883],[77.48290659909577,21.351355420911592]]},"properties":{"FID":36,"LGD_CODE":"531858","ROAD_TYPE":"B"}},{"type":"Feature","id":37,"geometry":{"type":"LineString","coordinates":[[77.482982801327054,21.35131949213109],[77.482982801327054,21.35131949213109],[77.48325485200327,21.351224207177104],[77.485435701294406,21.351003719977903]]},"properties":{"FID":37,"LGD_CODE":"531858","ROAD_TYPE":"B"}},{"type":"Feature","id":38,"geometry":{"type":"LineString","coordinates":[[77.48308027537999,21.352272210515324],[77.482919376868239,21.351426264699885]]},"properties":{"FID":38,"LGD_CODE":"531858","ROAD_TYPE":"B"}},{"type":"Feature","id":39,"geometry":{"type":"LineString","coordinates":[[77.48290659909577,21.351355420911592],[77.482367478159688,21.348403454442213]]},"properties":{"FID":39,"LGD_CODE":"531858","ROAD_TYPE":"B"}},{"type":"Feature","id":40,"geometry":{"type":"LineString","coordinates":[[77.47208407400467,21.367239102844984],[77.47198034180451,21.367185413306391]]},"properties":{"FID":40,"LGD_CODE":"531858","ROAD_TYPE":"A"}},{"type":"Feature","id":41,"geometry":{"type":"LineString","coordinates":[[77.47641002749053,21.359769759691904],[77.476257129352035,21.359759685400178]]},"properties":{"FID":41,"LGD_CODE":"531858","ROAD_TYPE":"A"}},{"type":"Feature","id":42,"geometry":{"type":"LineString","coordinates":[[77.48670151804626,21.356301217293492],[77.486711288927523,21.356261158519104]]},"properties":{"FID":42,"LGD_CODE":"531858","ROAD_TYPE":"A"}},{"type":"Feature","id":43,"geometry":{"type":"LineString","coordinates":[[77.47198034180451,21.367185413306391],[77.472449601175086,21.366115064073252],[77.472853365227493,21.365276752253365]]},"properties":{"FID":43,"LGD_CODE":"531858","ROAD_TYPE":"A"}},{"type":"Feature","id":44,"geometry":{"type":"LineString","coordinates":[[77.473842731703527,21.364181867455294],[77.472925222616809,21.365391699239836],[77.472522443562255,21.366132997856067]]},"properties":{"FID":44,"LGD_CODE":"531858","ROAD_TYPE":"A"}},{"type":"Feature","id":45,"geometry":{"type":"LineString","coordinates":[[77.476257129352035,21.359759685400178],[77.477199968584387,21.358908466974754]]},"properties":{"FID":45,"LGD_CODE":"531858","ROAD_TYPE":"A"}},{"type":"Feature","id":46,"geometry":{"type":"LineString","coordinates":[[77.477199968584387,21.358908466974754],[77.47783073299837,21.35853926332825],[77.479347900305527,21.357954435813209]]},"properties":{"FID":46,"LGD_CODE":"531858","ROAD_TYPE":"A"}},{"type":"Feature","id":47,"geometry":{"type":"LineString","coordinates":[[77.479347900305527,21.357954435813209],[77.480619091692432,21.357639749205923]]},"properties":{"FID":47,"LGD_CODE":"531858","ROAD_TYPE":"A"}},{"type":"Feature","id":48,"geometry":{"type":"LineString","coordinates":[[77.480619091692432,21.357639749205923],[77.481901344992934,21.357209710366817]]},"properties":{"FID":48,"LGD_CODE":"531858","ROAD_TYPE":"A"}},{"type":"Feature","id":49,"geometry":{"type":"LineString","coordinates":[[77.481901344992934,21.357209710366817],[77.483885420485919,21.356520294581291]]},"properties":{"FID":49,"LGD_CODE":"531858","ROAD_TYPE":"A"}},{"type":"Feature","id":50,"geometry":{"type":"LineString","coordinates":[[77.483885420485919,21.356520294581291],[77.48487637287559,21.356295201432264]]},"properties":{"FID":50,"LGD_CODE":"531858","ROAD_TYPE":"A"}},{"type":"Feature","id":51,"geometry":{"type":"LineString","coordinates":[[77.48487637287559,21.356295201432264],[77.485804017394614,21.356146112047607]]},"properties":{"FID":51,"LGD_CODE":"531858","ROAD_TYPE":"A"}},{"type":"Feature","id":52,"geometry":{"type":"LineString","coordinates":[[77.486670876650763,21.356426841136226],[77.485795109147375,21.356319645962106],[77.485024372265812,21.356413350311239],[77.48492844120787,21.356434440010116]]},"properties":{"FID":52,"LGD_CODE":"531858","ROAD_TYPE":"A"}},{"type":"Feature","id":53,"geometry":{"type":"LineString","coordinates":[[77.48492844120787,21.356434440010116],[77.483834684403121,21.356674889747264]]},"properties":{"FID":53,"LGD_CODE":"531858","ROAD_TYPE":"A"}},{"type":"Feature","id":54,"geometry":{"type":"LineString","coordinates":[[77.483834684403121,21.356674889747264],[77.482139426387647,21.357281356756889],[77.482001222102141,21.357342009123926]]},"properties":{"FID":54,"LGD_CODE":"531858","ROAD_TYPE":"A"}},{"type":"Feature","id":55,"geometry":{"type":"LineString","coordinates":[[77.482001222102141,21.357342009123926],[77.480626157406519,21.357721364919048],[77.479704014384808,21.357983155168817]]},"properties":{"FID":55,"LGD_CODE":"531858","ROAD_TYPE":"A"}},{"type":"Feature","id":56,"geometry":{"type":"LineString","coordinates":[[77.476163776195293,21.375102000993348],[77.475281453177132,21.373387894273563],[77.474991188512845,21.372924397325747],[77.474897089840709,21.37277829025092],[77.474844188051719,21.372492390445132],[77.474842805063474,21.371807551813731],[77.474733747848575,21.371331171395898],[77.47455174095731,21.371024890258091],[77.473733968629517,21.370556563906209],[77.473341491252853,21.370241724460527],[77.473119621513064,21.370058670462324],[77.472845089860414,21.369819245788602],[77.472745273469755,21.36961845369829],[77.472641114524023,21.369281284818648],[77.472589035269536,21.369112700386619],[77.472564350776508,21.368979279842563],[77.472509561524987,21.3689089518912],[77.472448535741862,21.368917820442341],[77.472336247321408,21.368875421040855],[77.472240774373617,21.368811005312462],[77.472151538259752,21.368667392989902],[77.471926410030449,21.368015070227464],[77.471643279747028,21.367729718985007],[77.471211303101654,21.367543576368835]]},"properties":{"FID":56,"LGD_CODE":"531858","ROAD_TYPE":"C"}},{"type":"Feature","id":57,"geometry":{"type":"LineString","coordinates":[[77.470426656124275,21.365723668825446],[77.470924704109464,21.365204533720387],[77.471528459648567,21.364718411603743],[77.471945566542033,21.364625586512595],[77.472165795120006,21.364574009550527],[77.472317947217263,21.364493180482942],[77.472615198726089,21.36429340180311],[77.472767350238186,21.36421257226915],[77.473364298803361,21.364164963011355],[77.473407691174657,21.364060793916341],[77.473541394064,21.363767346828855],[77.473824796598564,21.36304111959906],[77.474057239309744,21.36235989707821],[77.474307008261576,21.361677701912939],[77.474410604847179,21.361447347184093],[77.474480572324012,21.361261025193478],[77.474645190753151,21.361021801394472],[77.474769944373648,21.360905806855254],[77.474942431952016,21.36082201952652],[77.475040609299015,21.360788177573724],[77.475305038380014,21.360749744444341],[77.475636015942086,21.360757344376175]]},"properties":{"FID":57,"LGD_CODE":"531858","ROAD_TYPE":"C"}},{"type":"Feature","id":58,"geometry":{"type":"LineString","coordinates":[[77.474842805063474,21.371807551813731],[77.475042992622178,21.371698138708744],[77.475299953245894,21.371442829770725],[77.476301999342823,21.370475637900384],[77.476818932141171,21.369981343764284],[77.476994802574566,21.369771351031378],[77.477327469851957,21.369508387136939]]},"properties":{"FID":58,"LGD_CODE":"531858","ROAD_TYPE":"C"}}]
}