{
  "type" : "FeatureCollection",
  "features" : [{"type":"Feature","id":0,"geometry":{"type":"Polygon","coordinates":[[[77.419343546125205,21.336141313238318],[77.418494158976671,21.336228700193118],[77.418258732724439,21.335025050914105],[77.418088429974659,21.334653024278975],[77.419024358703382,21.334334566720088],[77.419343546125205,21.336141313238318]]]},"properties":{"FID":0,"Join_Count":2,"TARGET_FID":1,"Layer":"TEXT_PARCEL","Text":"21","vill_code":"531854","LGD_CODE":"531854"}},{"type":"Feature","id":1,"geometry":{"type":"Polygon","coordinates":[[[77.421368291536098,21.336966375078951],[77.420573703419066,21.337287895150865],[77.420531130799688,21.337047777896519],[77.419658154249959,21.337110159397756],[77.419509251344195,21.337120799081156],[77.419343546125205,21.336141313238318],[77.419024358703382,21.334334566720088],[77.419069218654712,21.33431932211689],[77.420314872964767,21.333527564991886],[77.421099492424872,21.333565911353098],[77.421225854973372,21.334761653558029],[77.42130150962349,21.336311333377015],[77.421368291536098,21.336966375078951]]]},"properties":{"FID":1,"Join_Count":2,"TARGET_FID":2,"Layer":"TEXT_PARCEL","Text":"20","vill_code":"531854","LGD_CODE":"531854"}},{"type":"Feature","id":2,"geometry":{"type":"Polygon","coordinates":[[[77.413009028639635,21.337544952627798],[77.4120101754025,21.337814802762072],[77.411659011695804,21.337293845722005],[77.412053318602446,21.337024384821692],[77.412934690253749,21.336545366173386],[77.413140108346369,21.336314190108503],[77.415177730113683,21.335738519000898],[77.41535144365605,21.335750176631375],[77.416088908596691,21.335502429042531],[77.416168640553138,21.336176172466192],[77.415388882577432,21.336468158605751],[77.413009028639635,21.337544952627798]]]},"properties":{"FID":2,"Join_Count":2,"TARGET_FID":3,"Layer":"TEXT_PARCEL","Text":"22","vill_code":"531854","LGD_CODE":"531854"}},{"type":"Feature","id":3,"geometry":{"type":"Polygon","coordinates":[[[77.415393769878108,21.336854633793479],[77.415359072470523,21.338045786658455],[77.41326090331664,21.338038423665086],[77.413009028639635,21.337544952627798],[77.415388882577432,21.336468158605751],[77.415393769878108,21.336854633793479]]]},"properties":{"FID":3,"Join_Count":2,"TARGET_FID":4,"Layer":"TEXT_PARCEL","Text":"15","vill_code":"531854","LGD_CODE":"531854"}},{"type":"Feature","id":4,"geometry":{"type":"Polygon","coordinates":[[[77.420314692612934,21.338540617480255],[77.419834269637605,21.338898066960446],[77.419658154249959,21.337110159397756],[77.420531130799688,21.337047777896519],[77.420573703419066,21.337287895150865],[77.421368291536098,21.336966375078951],[77.421534309792548,21.338169744090621],[77.421655690245899,21.338720707394518],[77.420640564506684,21.338337431685538],[77.420314692612934,21.338540617480255]]]},"properties":{"FID":4,"Join_Count":2,"TARGET_FID":5,"Layer":"TEXT_PARCEL","Text":"19","vill_code":"531854","LGD_CODE":"531854"}},{"type":"Feature","id":5,"geometry":{"type":"Polygon","coordinates":[[[77.419834269637605,21.338898066960446],[77.418685043738293,21.339307304669859],[77.418620311737172,21.337940698767401],[77.418636433327052,21.337837300205184],[77.418483256368106,21.336373428518183],[77.417988196430301,21.336384302676858],[77.416696676184102,21.336197258193486],[77.416168640553138,21.336176172466192],[77.416088908596691,21.335502429042531],[77.416135906577509,21.335486639749615],[77.417022498727121,21.335045826902153],[77.418088429974659,21.334653024278975],[77.418258732724439,21.335025050914105],[77.418494158976671,21.336228700193118],[77.419343546125205,21.336141313238318],[77.419509251344195,21.337120799081156],[77.419658154249959,21.337110159397756],[77.419834269637605,21.338898066960446]]]},"properties":{"FID":5,"Join_Count":2,"TARGET_FID":6,"Layer":"TEXT_PARCEL","Text":"18","vill_code":"531854","LGD_CODE":"531854"}},{"type":"Feature","id":6,"geometry":{"type":"Polygon","coordinates":[[[77.41108202074831,21.337459824084977],[77.409316063259496,21.339454526464827],[77.407967673079639,21.339193019752951],[77.406040936728743,21.339004587880716],[77.405564404638227,21.338491070296747],[77.40588583290203,21.338659637656779],[77.407586149625942,21.339027494185785],[77.408674704256327,21.339050546419557],[77.410103486462162,21.338033386783046],[77.410623766916359,21.337134463592406],[77.412084489159568,21.336027174000861],[77.41345043133812,21.335379297999822],[77.415735682238477,21.334430029864173],[77.41841048639013,21.333389575165562],[77.420496263707307,21.332251733594571],[77.420696116879995,21.33324673084277],[77.420314872964767,21.333527564991886],[77.419565530695607,21.333313778026959],[77.414821968790179,21.335359530443132],[77.41213615630123,21.336381361934894],[77.41108202074831,21.337459824084977]]]},"properties":{"FID":6,"Join_Count":0,"TARGET_FID":7,"Layer":"TEXT_PARCEL","Text":" ","vill_code":"531854","LGD_CODE":"531854"}},{"type":"Feature","id":7,"geometry":{"type":"Polygon","coordinates":[[[77.411177156590369,21.338713715641511],[77.410680919005728,21.339476482972358],[77.410285942747976,21.339232893072083],[77.411659011695804,21.337293845722005],[77.4120101754025,21.337814802762072],[77.411177156590369,21.338713715641511]]]},"properties":{"FID":7,"Join_Count":2,"TARGET_FID":8,"Layer":"TEXT_PARCEL","Text":"23","vill_code":"531854","LGD_CODE":"531854"}},{"type":"Feature","id":8,"geometry":{"type":"Polygon","coordinates":[[[77.410285942747976,21.339232893072083],[77.409440721559136,21.339825935807781],[77.40807227964487,21.339356389301521],[77.405663102316396,21.339474195587879],[77.406040936728743,21.339004587880716],[77.407967673079639,21.339193019752951],[77.409316063259496,21.339454526464827],[77.41108202074831,21.337459824084977],[77.41213615630123,21.336381361934894],[77.414821968790179,21.335359530443132],[77.419565530695607,21.333313778026959],[77.420314872964767,21.333527564991886],[77.419069218654712,21.33431932211689],[77.419024358703382,21.334334566720088],[77.418088429974659,21.334653024278975],[77.417022498727121,21.335045826902153],[77.416135906577509,21.335486639749615],[77.416088908596691,21.335502429042531],[77.41535144365605,21.335750176631375],[77.415177730113683,21.335738519000898],[77.413140108346369,21.336314190108503],[77.412934690253749,21.336545366173386],[77.412053318602446,21.337024384821692],[77.411659011695804,21.337293845722005],[77.410285942747976,21.339232893072083]]]},"properties":{"FID":8,"Join_Count":0,"TARGET_FID":9,"Layer":"TEXT_PARCEL","Text":" ","vill_code":"531854","LGD_CODE":"531854"}},{"type":"Feature","id":9,"geometry":{"type":"Polygon","coordinates":[[[77.41416449601347,21.339525784876098],[77.413495264147826,21.339831161148922],[77.41349275292437,21.339461242019183],[77.413384719619202,21.338514509814118],[77.41326090331664,21.338038423665086],[77.415359072470523,21.338045786658455],[77.415398266210545,21.339115598719246],[77.415546625102337,21.339560161250919],[77.415212141625631,21.339686134413352],[77.414478585378063,21.339500866350971],[77.41416449601347,21.339525784876098]]]},"properties":{"FID":9,"Join_Count":2,"TARGET_FID":10,"Layer":"TEXT_PARCEL","Text":"14","vill_code":"531854","LGD_CODE":"531854"}},{"type":"Feature","id":10,"geometry":{"type":"Polygon","coordinates":[[[77.417533048831345,21.338493543321409],[77.417723431555928,21.339860496961812],[77.417204437070708,21.339561422961829],[77.415912923982916,21.339174615692414],[77.415650162332199,21.339255155278359],[77.415546625102337,21.339560161250919],[77.415398266210545,21.339115598719246],[77.415359072470523,21.338045786658455],[77.415393769878108,21.336854633793479],[77.415388882577432,21.336468158605751],[77.416168640553138,21.336176172466192],[77.416696676184102,21.336197258193486],[77.416834619416861,21.338676353722121],[77.417533048831345,21.338493543321409]]]},"properties":{"FID":10,"Join_Count":2,"TARGET_FID":11,"Layer":"TEXT_PARCEL","Text":"16","vill_code":"531854","LGD_CODE":"531854"}},{"type":"Feature","id":11,"geometry":{"type":"Polygon","coordinates":[[[77.418198907655807,21.339431788799676],[77.418099812343314,21.339950988078559],[77.417723431555928,21.339860496961812],[77.417533048831345,21.338493543321409],[77.416834619416861,21.338676353722121],[77.416696676184102,21.336197258193486],[77.417988196430301,21.336384302676858],[77.418483256368106,21.336373428518183],[77.418636433327052,21.337837300205184],[77.418620311737172,21.337940698767401],[77.418685043738293,21.339307304669859],[77.418574317755329,21.339313363240947],[77.418300370482427,21.339380512222167],[77.418198907655807,21.339431788799676]]]},"properties":{"FID":11,"Join_Count":2,"TARGET_FID":12,"Layer":"TEXT_PARCEL","Text":"17","vill_code":"531854","LGD_CODE":"531854"}},{"type":"Feature","id":12,"geometry":{"type":"Polygon","coordinates":[[[77.406669359150357,21.340227754704049],[77.405866578102163,21.340249246235338],[77.405469586833405,21.340051215845161],[77.405663102316396,21.339474195587879],[77.40807227964487,21.339356389301521],[77.409440721559136,21.339825935807781],[77.407829670384743,21.340093343130679],[77.406669359150357,21.340227754704049]]]},"properties":{"FID":12,"Join_Count":2,"TARGET_FID":13,"Layer":"TEXT_PARCEL","Text":"3","vill_code":"531854","LGD_CODE":"531854"}},{"type":"Feature","id":13,"geometry":{"type":"Polygon","coordinates":[[[77.418375613341951,21.339582930986008],[77.418269989865848,21.340164217891239],[77.417602870203893,21.34000309633182],[77.417126412972152,21.339717310481081],[77.416198329064727,21.339447217087365],[77.416074865733066,21.339281501571225],[77.416834036335928,21.339560201595528],[77.417313494005768,21.339714171064987],[77.417764141277388,21.339954488686807],[77.418160490296884,21.340047433498349],[77.41829675468918,21.339504907197075],[77.419049574321321,21.339264423332754],[77.419813540105224,21.338997937382079],[77.420614157823209,21.338438458467614],[77.421344722020848,21.338712663331489],[77.421664191842154,21.338833204753605],[77.421578392360829,21.338888099394712],[77.420579156539745,21.338556048790934],[77.420364466452583,21.338666007356338],[77.419781729072341,21.339106426123394],[77.419519695212287,21.339192794960734],[77.419235097031759,21.339480168810855],[77.418985975414017,21.339337926978754],[77.418375613341951,21.339582930986008]]]},"properties":{"FID":13,"Join_Count":0,"TARGET_FID":14,"Layer":"TEXT_PARCEL","Text":" ","vill_code":"531854","LGD_CODE":"531854"}},{"type":"Feature","id":14,"geometry":{"type":"Polygon","coordinates":[[[77.407438369251111,21.341183336201574],[77.405921721604855,21.341363185120493],[77.405674911083352,21.340871966869077],[77.405866578102163,21.340249246235338],[77.406669359150357,21.340227754704049],[77.407829670384743,21.340093343130679],[77.407438369251111,21.341183336201574]]]},"properties":{"FID":14,"Join_Count":2,"TARGET_FID":15,"Layer":"TEXT_PARCEL","Text":"2","vill_code":"531854","LGD_CODE":"531854"}},{"type":"Feature","id":15,"geometry":{"type":"Polygon","coordinates":[[[77.412485132083205,21.341588354116983],[77.410643886099834,21.341879215362365],[77.410268560830829,21.34131942708775],[77.409791902814192,21.341494301905591],[77.409318539658088,21.341603249881935],[77.409319596036553,21.341383600644882],[77.409394499444417,21.341237817739387],[77.409908684824302,21.340509837899894],[77.410463453585379,21.339894454831189],[77.410680919005728,21.339476482972358],[77.411177156590369,21.338713715641511],[77.4120101754025,21.337814802762072],[77.413009028639635,21.337544952627798],[77.41326090331664,21.338038423665086],[77.413384719619202,21.338514509814118],[77.41349275292437,21.339461242019183],[77.413495264147826,21.339831161148922],[77.413336932482878,21.339961640469241],[77.413178668455856,21.340780169991515],[77.413569334309699,21.341318648807928],[77.413223998568824,21.341221021583319],[77.412832732909436,21.341628846838006],[77.412485132083205,21.341588354116983]]]},"properties":{"FID":15,"Join_Count":2,"TARGET_FID":16,"Layer":"TEXT_PARCEL","Text":"13","vill_code":"531854","LGD_CODE":"531854"}},{"type":"Feature","id":16,"geometry":{"type":"Polygon","coordinates":[[[77.408949771586208,21.341920436053492],[77.408636176043345,21.341934245024447],[77.408562003645457,21.341730517112207],[77.408360552419339,21.341735987592575],[77.40836452565901,21.341595564425731],[77.408187064934424,21.341572303189846],[77.408144846370391,21.341380607171718],[77.407752212605189,21.341301728816763],[77.407571888359072,21.341233704152238],[77.407438369251111,21.341183336201574],[77.407829670384743,21.340093343130679],[77.409440721559136,21.339825935807781],[77.409351724568182,21.340636540580711],[77.409046938498747,21.341322770389116],[77.408949771586208,21.341920436053492]]]},"properties":{"FID":16,"Join_Count":2,"TARGET_FID":17,"Layer":"TEXT_PARCEL","Text":"ग\u093E\u0902वठ\u093Eण","vill_code":"531854","LGD_CODE":"531854"}},{"type":"Feature","id":17,"geometry":{"type":"Polygon","coordinates":[[[77.410643886099834,21.341879215362365],[77.410678052052972,21.342005744646308],[77.410177698951827,21.341897863027061],[77.409808511492272,21.341894955001532],[77.409791902814192,21.341494301905591],[77.410268560830829,21.34131942708775],[77.410643886099834,21.341879215362365]]]},"properties":{"FID":17,"Join_Count":2,"TARGET_FID":18,"Layer":"TEXT_PARCEL","Text":"12","vill_code":"531854","LGD_CODE":"531854"}},{"type":"Feature","id":18,"geometry":{"type":"Polygon","coordinates":[[[77.412470053060702,21.341745308630063],[77.410678052052972,21.342005744646308],[77.410643886099834,21.341879215362365],[77.412485132083205,21.341588354116983],[77.412832732909436,21.341628846838006],[77.412771937155597,21.341692216055062],[77.412741863642793,21.341765653156799],[77.412470053060702,21.341745308630063]]]},"properties":{"FID":18,"Join_Count":1,"TARGET_FID":19,"Layer":"TEXT_PARCEL","Text":"छन\u094Dस\u094Dस\u094D","vill_code":"531854","LGD_CODE":"531854"}},{"type":"Feature","id":19,"geometry":{"type":"Polygon","coordinates":[[[77.404635796583634,21.342512833305673],[77.404490517157328,21.342555948413352],[77.404142105396815,21.342537151240784],[77.403170210686326,21.341611447531122],[77.405336841062805,21.340447033320565],[77.405469586833405,21.340051215845161],[77.405866578102163,21.340249246235338],[77.405674911083352,21.340871966869077],[77.405921721604855,21.341363185120493],[77.407438369251111,21.341183336201574],[77.407571888359072,21.341233704152238],[77.40747142333386,21.341628144564069],[77.407054275814161,21.341672294628079],[77.406974361825021,21.342236366993827],[77.405361829681596,21.342297362319734],[77.404635796583634,21.342512833305673]]]},"properties":{"FID":19,"Join_Count":2,"TARGET_FID":20,"Layer":"TEXT_PARCEL","Text":"4","vill_code":"531854","LGD_CODE":"531854"}},{"type":"Feature","id":20,"geometry":{"type":"Polygon","coordinates":[[[77.40933227794072,21.342166590388466],[77.408352389461299,21.342568168083858],[77.408139701581703,21.342548231944566],[77.408384278429153,21.342323146489395],[77.408498976577363,21.341940286737884],[77.408636176043345,21.341934245024447],[77.408949771586208,21.341920436053492],[77.409046938498747,21.341322770389116],[77.409351724568182,21.340636540580711],[77.409440721559136,21.339825935807781],[77.410285942747976,21.339232893072083],[77.410680919005728,21.339476482972358],[77.410463453585379,21.339894454831189],[77.409908684824302,21.340509837899894],[77.409394499444417,21.341237817739387],[77.409319596036553,21.341383600644882],[77.409318539658088,21.341603249881935],[77.409791902814192,21.341494301905591],[77.409808511492272,21.341894955001532],[77.410177698951827,21.341897863027061],[77.410206586128865,21.342149486118757],[77.40933227794072,21.342166590388466]]]},"properties":{"FID":20,"Join_Count":3,"TARGET_FID":21,"Layer":"TEXT_PARCEL","Text":"24","vill_code":"531854","LGD_CODE":"531854"}},{"type":"Feature","id":21,"geometry":{"type":"Polygon","coordinates":[[[77.410463465725343,21.344137737957471],[77.410341092126799,21.34416050129359],[77.410413067522398,21.343578538670009],[77.410206586128865,21.342149486118757],[77.410177698951827,21.341897863027061],[77.410678052052972,21.342005744646308],[77.412470053060702,21.341745308630063],[77.412741863642793,21.341765653156799],[77.412618666783487,21.342066489739469],[77.412758258007656,21.342270656131021],[77.412813334276692,21.342645723497618],[77.41227330069448,21.342961904432208],[77.412338228469636,21.343432810750844],[77.412244690889679,21.343675319474446],[77.4117368029235,21.343840440216606],[77.41080189919461,21.343707723095697],[77.410463465725343,21.344137737957471]]]},"properties":{"FID":21,"Join_Count":2,"TARGET_FID":22,"Layer":"TEXT_PARCEL","Text":"11","vill_code":"531854","LGD_CODE":"531854"}},{"type":"Feature","id":22,"geometry":{"type":"Polygon","coordinates":[[[77.407554959188872,21.343077003346426],[77.406071308167895,21.344543773099129],[77.404458942158755,21.343603462734151],[77.404635796583634,21.342512833305673],[77.405361829681596,21.342297362319734],[77.406974361825021,21.342236366993827],[77.407054275814161,21.341672294628079],[77.40747142333386,21.341628144564069],[77.407571888359072,21.341233704152238],[77.407752212605189,21.341301728816763],[77.408144846370391,21.341380607171718],[77.408187064934424,21.341572303189846],[77.40836452565901,21.341595564425731],[77.408360552419339,21.341735987592575],[77.408562003645457,21.341730517112207],[77.408636176043345,21.341934245024447],[77.408498976577363,21.341940286737884],[77.408384278429153,21.342323146489395],[77.408139701581703,21.342548231944566],[77.407554959188872,21.343077003346426]]]},"properties":{"FID":22,"Join_Count":2,"TARGET_FID":23,"Layer":"TEXT_PARCEL","Text":"1","vill_code":"531854","LGD_CODE":"531854"}},{"type":"Feature","id":23,"geometry":{"type":"Polygon","coordinates":[[[77.403844047672678,21.344643471628949],[77.4023890644755,21.344838728706264],[77.401940836377165,21.344762484517695],[77.402415674130964,21.343236999358005],[77.403170210686326,21.341611447531122],[77.404142105396815,21.342537151240784],[77.404490517157328,21.342555948413352],[77.404635796583634,21.342512833305673],[77.404458942158755,21.343603462734151],[77.403844047672678,21.344643471628949]]]},"properties":{"FID":23,"Join_Count":2,"TARGET_FID":24,"Layer":"TEXT_PARCEL","Text":"5","vill_code":"531854","LGD_CODE":"531854"}},{"type":"Feature","id":24,"geometry":{"type":"Polygon","coordinates":[[[77.411205184310802,21.34483000643235],[77.411170971532783,21.345301491720587],[77.410091237857046,21.345166647716258],[77.410143740350293,21.344840805393719],[77.409925547631119,21.344723427330333],[77.410058255834812,21.344213112519164],[77.410341092126799,21.34416050129359],[77.410463465725343,21.344137737957471],[77.41080189919461,21.343707723095697],[77.4117368029235,21.343840440216606],[77.412244690889679,21.343675319474446],[77.411205184310802,21.34483000643235]]]},"properties":{"FID":24,"Join_Count":2,"TARGET_FID":25,"Layer":"TEXT_PARCEL","Text":"10","vill_code":"531854","LGD_CODE":"531854"}},{"type":"Feature","id":25,"geometry":{"type":"Polygon","coordinates":[[[77.411425195554457,21.344799513494031],[77.411312845680271,21.345303245926964],[77.411170971532783,21.345301491720587],[77.411205184310802,21.34483000643235],[77.412244690889679,21.343675319474446],[77.412338228469636,21.343432810750844],[77.41227330069448,21.342961904432208],[77.412813334276692,21.342645723497618],[77.412758258007656,21.342270656131021],[77.412618666783487,21.342066489739469],[77.412741863642793,21.341765653156799],[77.412771937155597,21.341692216055062],[77.412832732909436,21.341628846838006],[77.413223998568824,21.341221021583319],[77.413569334309699,21.341318648807928],[77.413178668455856,21.340780169991515],[77.413336932482878,21.339961640469241],[77.413495264147826,21.339831161148922],[77.41416449601347,21.339525784876098],[77.414478585378063,21.339500866350971],[77.415212141625631,21.339686134413352],[77.415546625102337,21.339560161250919],[77.415650162332199,21.339255155278359],[77.415912923982916,21.339174615692414],[77.417204437070708,21.339561422961829],[77.417723431555928,21.339860496961812],[77.418099812343314,21.339950988078559],[77.418198907655807,21.339431788799676],[77.418300370482427,21.339380512222167],[77.418574317755329,21.339313363240947],[77.418685043738293,21.339307304669859],[77.419834269637605,21.338898066960446],[77.420314692612934,21.338540617480255],[77.420640564506684,21.338337431685538],[77.421655690245899,21.338720707394518],[77.421664191842154,21.338833204753605],[77.421344722020848,21.338712663331489],[77.420614157823209,21.338438458467614],[77.419813540105224,21.338997937382079],[77.419049574321321,21.339264423332754],[77.41829675468918,21.339504907197075],[77.418160490296884,21.340047433498349],[77.417764141277388,21.339954488686807],[77.417313494005768,21.339714171064987],[77.416834036335928,21.339560201595528],[77.416074865733066,21.339281501571225],[77.415901086483871,21.339248975555954],[77.415759112489255,21.339273630716381],[77.415525990199782,21.339712164545951],[77.415234157423271,21.339784823696448],[77.414382731927873,21.339608577502108],[77.413734385882705,21.339831362767292],[77.413362038555803,21.340066198110247],[77.413349933622257,21.34072043679944],[77.413726455667046,21.341318842200586],[77.413624746248317,21.341416641707465],[77.413241122064846,21.341348900263011],[77.412925011456011,21.341650390611395],[77.412746296536199,21.342006041219847],[77.41286981551022,21.342218428489943],[77.412943417508629,21.342598067551318],[77.412708848320833,21.342784190033413],[77.412555521533022,21.342948866098073],[77.412366795464962,21.34355166554316],[77.412175983262017,21.343877550911888],[77.411425195554457,21.344799513494031]]]},"properties":{"FID":25,"Join_Count":0,"TARGET_FID":26,"Layer":"TEXT_PARCEL","Text":" ","vill_code":"531854","LGD_CODE":"531854"}},{"type":"Feature","id":26,"geometry":{"type":"Polygon","coordinates":[[[77.408385978849623,21.345346049599417],[77.408326290415658,21.345395998370833],[77.408037485356388,21.344692868230339],[77.407606175219584,21.343164705553626],[77.407644808249714,21.343102488244991],[77.408352389461299,21.342568168083858],[77.40933227794072,21.342166590388466],[77.410206586128865,21.342149486118757],[77.410413067522398,21.343578538670009],[77.410341092126799,21.34416050129359],[77.410058255834812,21.344213112519164],[77.409925547631119,21.344723427330333],[77.410143740350293,21.344840805393719],[77.410091237857046,21.345166647716258],[77.410034880184512,21.34515960915386],[77.409535795177391,21.344975961797882],[77.409143489853093,21.345188206012541],[77.408827527558472,21.345121668570123],[77.408385978849623,21.345346049599417]]]},"properties":{"FID":26,"Join_Count":2,"TARGET_FID":27,"Layer":"TEXT_PARCEL","Text":"9","vill_code":"531854","LGD_CODE":"531854"}},{"type":"Feature","id":27,"geometry":{"type":"Polygon","coordinates":[[[77.411444220246821,21.345469290999507],[77.411154934293947,21.345522496184849],[77.411170971532783,21.345301491720587],[77.411312845680271,21.345303245926964],[77.411425195554457,21.344799513494031],[77.412175983262017,21.343877550911888],[77.412366795464962,21.34355166554316],[77.412555521533022,21.342948866098073],[77.412708848320833,21.342784190033413],[77.412943417508629,21.342598067551318],[77.41286981551022,21.342218428489943],[77.412746296536199,21.342006041219847],[77.412925011456011,21.341650390611395],[77.413241122064846,21.341348900263011],[77.413624746248317,21.341416641707465],[77.413726455667046,21.341318842200586],[77.413349933622257,21.34072043679944],[77.413362038555803,21.340066198110247],[77.413734385882705,21.339831362767292],[77.414382731927873,21.339608577502108],[77.415234157423271,21.339784823696448],[77.415525990199782,21.339712164545951],[77.415759112489255,21.339273630716381],[77.415901086483871,21.339248975555954],[77.416074865733066,21.339281501571225],[77.415813038609272,21.339333265907424],[77.415585256615216,21.33981009048647],[77.41515045338744,21.339845870246549],[77.414359287859767,21.339732949785947],[77.413718130053027,21.339958919288186],[77.413453154177873,21.340149163403282],[77.413459163445239,21.340707370116565],[77.413868675604078,21.341328127280345],[77.413640837470851,21.341530248006116],[77.41327400513542,21.341443274799062],[77.41296468249945,21.341704446428384],[77.412870783956365,21.341944043173573],[77.412987674373156,21.342103160291622],[77.413024252250196,21.342616696633108],[77.412754837217051,21.34282228782315],[77.412139113601782,21.344145223968823],[77.411516339796151,21.344978103770227],[77.411444220246821,21.345469290999507]]]},"properties":{"FID":27,"Join_Count":0,"TARGET_FID":28,"Layer":"TEXT_PARCEL","Text":" ","vill_code":"531854","LGD_CODE":"531854"}},{"type":"Feature","id":28,"geometry":{"type":"Polygon","coordinates":[[[77.405488973435766,21.345131355663966],[77.403153868922374,21.347024314130614],[77.40266136640642,21.346310583873802],[77.402302371998616,21.346058965555368],[77.402146630412446,21.345496114505366],[77.4023890644755,21.344838728706264],[77.403844047672678,21.344643471628949],[77.404458942158755,21.343603462734151],[77.406071308167895,21.344543773099129],[77.405488973435766,21.345131355663966]]]},"properties":{"FID":28,"Join_Count":2,"TARGET_FID":29,"Layer":"TEXT_PARCEL","Text":"6","vill_code":"531854","LGD_CODE":"531854"}},{"type":"Feature","id":29,"geometry":{"type":"Polygon","coordinates":[[[77.405575728677888,21.345235902993124],[77.403230343017682,21.347135137192641],[77.403153868922374,21.347024314130614],[77.405488973435766,21.345131355663966],[77.406071308167895,21.344543773099129],[77.407554959188872,21.343077003346426],[77.408139701581703,21.342548231944566],[77.408352389461299,21.342568168083858],[77.407644808249714,21.343102488244991],[77.407606175219584,21.343164705553626],[77.407567193759519,21.343227484060606],[77.406317194295369,21.344512246097896],[77.405575728677888,21.345235902993124]]]},"properties":{"FID":29,"Join_Count":1,"TARGET_FID":30,"Layer":"TEXT_PARCEL","Text":"छन\u094Dस\u094Dस\u094D","vill_code":"531854","LGD_CODE":"531854"}},{"type":"Feature","id":30,"geometry":{"type":"Polygon","coordinates":[[[77.403230343017682,21.347135137192641],[77.402923180445768,21.347945882916715],[77.401862698541535,21.347374031287238],[77.401757104926091,21.347366669430755],[77.400604814974386,21.34705383430278],[77.401940836377165,21.344762484517695],[77.4023890644755,21.344838728706264],[77.402146630412446,21.345496114505366],[77.402302371998616,21.346058965555368],[77.40266136640642,21.346310583873802],[77.403153868922374,21.347024314130614],[77.403230343017682,21.347135137192641]]]},"properties":{"FID":30,"Join_Count":2,"TARGET_FID":31,"Layer":"TEXT_PARCEL","Text":"7","vill_code":"531854","LGD_CODE":"531854"}},{"type":"Feature","id":31,"geometry":{"type":"Polygon","coordinates":[[[77.40391998539728,21.347847557156616],[77.402923180445768,21.347945882916715],[77.403230343017682,21.347135137192641],[77.405575728677888,21.345235902993124],[77.406317194295369,21.344512246097896],[77.407567193759519,21.343227484060606],[77.407606175219584,21.343164705553626],[77.408037485356388,21.344692868230339],[77.408326290415658,21.345395998370833],[77.408181996679829,21.345516746268729],[77.408242691390029,21.345812023057043],[77.407584433830039,21.345787458601265],[77.407267798597914,21.345996050393154],[77.406953808834899,21.345967039826199],[77.406979583453378,21.346127112526421],[77.406435920555225,21.346346647367682],[77.406278409911124,21.346100377153036],[77.405906091215854,21.346428433217067],[77.405032496396458,21.34750883304482],[77.40391998539728,21.347847557156616]]]},"properties":{"FID":31,"Join_Count":2,"TARGET_FID":32,"Layer":"TEXT_PARCEL","Text":"8","vill_code":"531854","LGD_CODE":"531854"}}]
}