{
  "type" : "FeatureCollection",
  "features" : [{"type":"Feature","id":0,"geometry":{"type":"LineString","coordinates":[[77.42138950167454,21.337122623421948],[77.420297813456472,21.33750318336066],[77.418972563771604,21.337865978563439],[77.418541268619052,21.337994459459821],[77.417882539699846,21.338258177998203],[77.417474415099434,21.338368937180164],[77.417064978476461,21.338494650416013],[77.41660983303565,21.338711918861431],[77.416035507459455,21.338914675443814],[77.415296966142364,21.339123401606447],[77.414172603021143,21.339392730503743],[77.413539380729887,21.339555598417192],[77.413301709461038,21.339659588716103],[77.41195783691316,21.340459481828312],[77.41063205214769,21.341200878616803],[77.410215090212716,21.341419218373495],[77.409552754078106,21.341730683994498],[77.409500609526546,21.341719527432364],[77.409183573243993,21.34151705463157],[77.409292604948689,21.341245943406722],[77.409699322411271,21.340588184234623],[77.41029442442084,21.339965770131837],[77.410542409559213,21.339638643378674],[77.4109219588819,21.338966567761705],[77.411212754747339,21.33852458902377],[77.411766566439638,21.337978376181532],[77.411980739452147,21.337762002887604],[77.412935724071673,21.337508184073851],[77.413453196996272,21.337256426334662],[77.414739744380299,21.336658983864847],[77.41549727378937,21.336297009739642],[77.416172615180244,21.336090356883894],[77.416820641601277,21.335638696696314],[77.417743076261701,21.335072476561788],[77.418372545353236,21.334726680590109],[77.418993281372309,21.334438185307125],[77.419190478958299,21.334365924765549],[77.419720282255852,21.334085967074156],[77.420488541213587,21.333536052927105]]},"properties":{"FID":0,"LGD_CODE":"531854","ROAD_TYPE":"B"}},{"type":"Feature","id":1,"geometry":{"type":"LineString","coordinates":[[77.420406095845664,21.333532023496023],[77.419381409491194,21.334193889987578],[77.419381409491194,21.334193889987578],[77.419029926516188,21.33437735272885],[77.418667709892418,21.334500057328906],[77.418059102674349,21.334784060003965],[77.417702819712289,21.334979958042403],[77.417228636851434,21.3352735815049],[77.416760698144344,21.335566414079956],[77.416193957966527,21.335957513934549],[77.416029798708706,21.336040382934613],[77.415582527692749,21.336167918181829],[77.415152957934112,21.336361244494881],[77.414005004936769,21.336899760145855],[77.41324638138471,21.337252992026489],[77.412985314968267,21.33739839121224],[77.412777066329014,21.337483872366143],[77.412060250486846,21.337663217427625],[77.411921071477096,21.337742924607344],[77.41163163027494,21.338042757619739],[77.411532914230108,21.338090729411729],[77.41130850930287,21.33827585927072],[77.410775615581144,21.339041263853648],[77.410336910530802,21.339824340032671],[77.409876009522193,21.340275985520154],[77.409668663909898,21.340470788180188],[77.409333144496912,21.341063350077594],[77.409119646379722,21.341412736695897],[77.40910720141531,21.341491213114104],[77.409129248318166,21.341591950703453],[77.409309765496587,21.341717027290805],[77.40950635002838,21.341792747691787],[77.409567864226986,21.341802720040729],[77.409796896832688,21.34170574280661],[77.410397267488023,21.341431686505334],[77.4110479202471,21.34107732668696],[77.411923251754388,21.340591040299952],[77.412963555060202,21.339977413311466],[77.413481848197776,21.339681184596667],[77.413945334752356,21.339530900680757],[77.415078481861215,21.33928116774786],[77.415848117766444,21.339041890924406],[77.416110321928315,21.338982120577334],[77.416395923465018,21.338880939834425],[77.416947523815352,21.338648519049066],[77.417377597565192,21.338484702831579],[77.417705747301909,21.338419549817413],[77.41825748165077,21.338213728160348],[77.418512073082454,21.338092801919455],[77.418850400827296,21.337981992110201],[77.419531179449066,21.33781900568998],[77.420133378539632,21.337636374723719],[77.420854113609082,21.337412131213185],[77.421403971400494,21.337227256375648]]},"properties":{"FID":1,"LGD_CODE":"531854","ROAD_TYPE":"B"}},{"type":"Feature","id":2,"geometry":{"type":"LineString","coordinates":[[77.409813569473499,21.341842411341549],[77.409813569473499,21.341842411341549],[77.409813569473499,21.341842411341549],[77.40844708066841,21.342337841277406],[77.408229678063563,21.342400810681532],[77.408229678063563,21.342400810681532],[77.405457557047413,21.342736338506434],[77.405457557047413,21.342736338506434],[77.404996585733073,21.343111075014168],[77.40450854351451,21.343421200718502],[77.404369474833402,21.343439129605677],[77.404369474833402,21.343439129605677],[77.404221112030157,21.34289553253409],[77.404179151711404,21.34283872012643],[77.404179151711404,21.34283872012643],[77.403569302525753,21.342756054108193],[77.403246340421717,21.342684463199628],[77.40319433134303,21.342699908007592],[77.402843344234768,21.343397933911699],[77.402409855270108,21.343255692482185]]},"properties":{"FID":2,"LGD_CODE":"531854","ROAD_TYPE":"B"}},{"type":"Feature","id":3,"geometry":{"type":"LineString","coordinates":[[77.402441246884621,21.343181905943659],[77.40278986748406,21.343294928705973],[77.40316235542835,21.342591228535436],[77.404328595190762,21.342760358412072],[77.404433927115065,21.343326782933616],[77.404520292037915,21.343306996634603],[77.405046039034502,21.342968443844821],[77.405445767406093,21.342636939946662],[77.408325663813883,21.342294035131488],[77.408325663813883,21.342294035131488],[77.408325663813883,21.342294035131488],[77.409135518815219,21.342002054243792],[77.409804513895537,21.341769610140254],[77.409804513895537,21.341769610140254]]},"properties":{"FID":3,"LGD_CODE":"531854","ROAD_TYPE":"B"}},{"type":"Feature","id":4,"geometry":{"type":"LineString","coordinates":[[77.415493465228934,21.339457814504136],[77.415368351305844,21.339370107796675],[77.414945685284735,21.338752114300036],[77.414477829197821,21.338062367090327],[77.414477829197821,21.338062367090327],[77.414477829197821,21.338062367090327],[77.414477829197821,21.338062367090327],[77.414477829197821,21.338062367090327],[77.414477829197821,21.338062367090327],[77.413076260069161,21.337439811599303],[77.413076260069161,21.337439811599303],[77.413076260069161,21.337439811599303]]},"properties":{"FID":4,"LGD_CODE":"531854","ROAD_TYPE":"C"}},{"type":"Feature","id":5,"geometry":{"type":"LineString","coordinates":[[77.41281455829909,21.337468482822317],[77.41281455829909,21.337468482822317],[77.411857761007624,21.337420547100667],[77.411857761007624,21.337420547100667],[77.411857761007624,21.337420547100667],[77.411857761007624,21.337420547100667],[77.411659011182394,21.337293845640346]]},"properties":{"FID":5,"LGD_CODE":"531854","ROAD_TYPE":"C"}},{"type":"Feature","id":6,"geometry":{"type":"LineString","coordinates":[[77.412741863701314,21.341765652624836],[77.412470052914884,21.341745308756213],[77.410678052233123,21.342005744473443]]},"properties":{"FID":6,"LGD_CODE":"531854","ROAD_TYPE":"A"}},{"type":"Feature","id":7,"geometry":{"type":"LineString","coordinates":[[77.412832732976469,21.341628846942058],[77.412485131882846,21.341588353555654],[77.410643885789341,21.341879215342235]]},"properties":{"FID":7,"LGD_CODE":"531854","ROAD_TYPE":"A"}},{"type":"Feature","id":8,"geometry":{"type":"LineString","coordinates":[[77.403079070206601,21.347153088682944],[77.402309110033372,21.347622000955603]]},"properties":{"FID":8,"LGD_CODE":"531854","ROAD_TYPE":"B"}},{"type":"Feature","id":9,"geometry":{"type":"LineString","coordinates":[[77.403153147555855,21.347024898497232],[77.402213351340919,21.34756880964812]]},"properties":{"FID":9,"LGD_CODE":"531854","ROAD_TYPE":"B"}},{"type":"Feature","id":10,"geometry":{"type":"LineString","coordinates":[[77.407606174844616,21.343164705764966],[77.407644808224106,21.343102487679712],[77.408352388904916,21.342568167709715]]},"properties":{"FID":10,"LGD_CODE":"531854","ROAD_TYPE":"A"}},{"type":"Feature","id":11,"geometry":{"type":"LineString","coordinates":[[77.408139701411741,21.342548232004216],[77.407554959324244,21.343077003445131],[77.406071307728197,21.344543773005316]]},"properties":{"FID":11,"LGD_CODE":"531854","ROAD_TYPE":"A"}},{"type":"Feature","id":12,"geometry":{"type":"LineString","coordinates":[[77.406071307728197,21.344543773005316],[77.405488973463733,21.345131355289258],[77.403153869040295,21.347024313635888]]},"properties":{"FID":12,"LGD_CODE":"531854","ROAD_TYPE":"A"}},{"type":"Feature","id":13,"geometry":{"type":"LineString","coordinates":[[77.403230342454179,21.347135137193558],[77.40557572880563,21.345235902752837],[77.406317194031757,21.344512245523671],[77.407567193460608,21.343227484246174],[77.407606174844616,21.343164705764966]]},"properties":{"FID":13,"LGD_CODE":"531854","ROAD_TYPE":"A"}},{"type":"Feature","id":14,"geometry":{"type":"LineString","coordinates":[[77.403079070206601,21.347153088682944],[77.403230342454179,21.347135137193558]]},"properties":{"FID":14,"LGD_CODE":"531854","ROAD_TYPE":"B"}},{"type":"Feature","id":15,"geometry":{"type":"LineString","coordinates":[[77.402871691780803,21.342254571137861],[77.40316235542835,21.342591228535436]]},"properties":{"FID":15,"LGD_CODE":"531854","ROAD_TYPE":"C"}},{"type":"Feature","id":16,"geometry":{"type":"LineString","coordinates":[[77.403659269312016,21.341672796210055],[77.405302958877186,21.341391875211627],[77.405535138544906,21.341441568015696],[77.405760867491452,21.341439387873208],[77.406071647877269,21.341439631647361],[77.407173482566293,21.34132673635558],[77.407571887873303,21.341233704070302]]},"properties":{"FID":16,"LGD_CODE":"531854","ROAD_TYPE":"C"}},{"type":"Feature","id":17,"geometry":{"type":"LineString","coordinates":[[77.407522540787724,21.340953324890435],[77.407458851034463,21.340895513859085],[77.406671602871199,21.340244198632782],[77.406513186496852,21.340106154143726],[77.40634247677167,21.339982835028991],[77.405703182621892,21.339839697282663],[77.405556056155973,21.339792429028396]]},"properties":{"FID":17,"LGD_CODE":"531854","ROAD_TYPE":"C"}},{"type":"Feature","id":18,"geometry":{"type":"LineString","coordinates":[[77.404328595190762,21.342760358412072],[77.405278026808233,21.342776051348917]]},"properties":{"FID":18,"LGD_CODE":"531854","ROAD_TYPE":"C"}},{"type":"Feature","id":19,"geometry":{"type":"LineString","coordinates":[[77.410245647918231,21.341916361696537],[77.410271457788213,21.342123851228692],[77.410454132292855,21.343365272536481],[77.41047994291948,21.343572761894986],[77.410391379906514,21.344113175939938],[77.410413218187671,21.344402634950143],[77.410541560053233,21.345222887616654]]},"properties":{"FID":19,"LGD_CODE":"531854","ROAD_TYPE":"C"}}]
}