{
  "type" : "FeatureCollection",
  "features" : [{"type":"Feature","id":0,"geometry":{"type":"Polygon","coordinates":[[[77.429977474087579,21.325409200906698],[77.428896111323539,21.325758032125336],[77.428413471519121,21.324980466638674],[77.431369981617223,21.322578393382457],[77.43169734200923,21.323779157992277],[77.431150783350901,21.323879631042058],[77.430562219800265,21.324519297623294],[77.42985426222819,21.325184102752623],[77.429977474087579,21.325409200906698]]]},"properties":{"FID":0,"Join_Count":2,"TARGET_FID":1,"Layer":"TEXT_PARCEL","Text":"117","vill_code":"531856","LGD_CODE":"531856"}},{"type":"Feature","id":1,"geometry":{"type":"Polygon","coordinates":[[[77.447079260078937,21.326316507795166],[77.445205503114934,21.326660558545765],[77.445288761614421,21.326390637736054],[77.445486718051669,21.325791208037508],[77.445601087206512,21.324817178267555],[77.445631718906583,21.324638779427847],[77.447637546942119,21.324501254170588],[77.447772261857736,21.32508516774385],[77.448100826535196,21.325052292611584],[77.448436999819805,21.325095300201831],[77.448296318837492,21.325994375039919],[77.447079260078937,21.326316507795166]]]},"properties":{"FID":1,"Join_Count":2,"TARGET_FID":2,"Layer":"TEXT_PARCEL","Text":"128","vill_code":"531856","LGD_CODE":"531856"}},{"type":"Feature","id":2,"geometry":{"type":"Polygon","coordinates":[[[77.443836297083394,21.32678028607333],[77.441828660090579,21.327046699738023],[77.441710033167737,21.325955568435333],[77.442588291473228,21.32535484699892],[77.443625433793855,21.324357039347856],[77.44398119367186,21.323698558689411],[77.447637409996759,21.323535310655892],[77.447637546942119,21.324501254170588],[77.445631718906583,21.324638779427847],[77.445601087206512,21.324817178267555],[77.443910369738617,21.325008023347738],[77.443836297083394,21.32678028607333]]]},"properties":{"FID":2,"Join_Count":2,"TARGET_FID":3,"Layer":"TEXT_PARCEL","Text":"127","vill_code":"531856","LGD_CODE":"531856"}},{"type":"Feature","id":3,"geometry":{"type":"Polygon","coordinates":[[[77.441828660090579,21.327046699738023],[77.441161923901106,21.327096119446235],[77.44085910438146,21.323850620877668],[77.44398119367186,21.323698558689411],[77.443625433793855,21.324357039347856],[77.442588291473228,21.32535484699892],[77.441710033167737,21.325955568435333],[77.441828660090579,21.327046699738023]]]},"properties":{"FID":3,"Join_Count":2,"TARGET_FID":4,"Layer":"TEXT_PARCEL","Text":"126","vill_code":"531856","LGD_CODE":"531856"}},{"type":"Feature","id":4,"geometry":{"type":"Polygon","coordinates":[[[77.436787969704781,21.327306572675116],[77.435525132219411,21.327627924869841],[77.434989501077041,21.32579768261451],[77.43834748317974,21.325274248706972],[77.438974216870207,21.326986156620265],[77.436787969704781,21.327306572675116]]]},"properties":{"FID":4,"Join_Count":2,"TARGET_FID":5,"Layer":"TEXT_PARCEL","Text":"119","vill_code":"531856","LGD_CODE":"531856"}},{"type":"Feature","id":5,"geometry":{"type":"Polygon","coordinates":[[[77.428785984029119,21.327187302758613],[77.427279489960327,21.327798441177862],[77.426738816072557,21.327327368125363],[77.426216594731798,21.327115957651401],[77.427671837877696,21.325674911148635],[77.428475520528437,21.326453573105873],[77.428504417769105,21.326884347502194],[77.428785984029119,21.327187302758613]]]},"properties":{"FID":5,"Join_Count":2,"TARGET_FID":6,"Layer":"TEXT_PARCEL","Text":"116","vill_code":"531856","LGD_CODE":"531856"}},{"type":"Feature","id":6,"geometry":{"type":"Polygon","coordinates":[[[77.441161923901106,21.327096119446235],[77.43957857837573,21.327798999671682],[77.439535116016472,21.327270427150346],[77.439149986436945,21.32694353804586],[77.438491298692597,21.325235104063079],[77.439184401933005,21.324995568803338],[77.439441220842397,21.323919660286233],[77.44085910438146,21.323850620877668],[77.441161923901106,21.327096119446235]]]},"properties":{"FID":6,"Join_Count":2,"TARGET_FID":7,"Layer":"TEXT_PARCEL","Text":"125","vill_code":"531856","LGD_CODE":"531856"}},{"type":"Feature","id":7,"geometry":{"type":"Polygon","coordinates":[[[77.434440538163003,21.327486027191846],[77.431369717116922,21.328231292632612],[77.431145301960271,21.327580056211303],[77.431517429572693,21.326792064626648],[77.434174906757292,21.326027655734492],[77.434235987344906,21.325806530035422],[77.434989501077041,21.32579768261451],[77.435525132219411,21.327627924869841],[77.434557098827483,21.327839743677941],[77.434440538163003,21.327486027191846]]]},"properties":{"FID":7,"Join_Count":2,"TARGET_FID":8,"Layer":"TEXT_PARCEL","Text":"118","vill_code":"531856","LGD_CODE":"531856"}},{"type":"Feature","id":8,"geometry":{"type":"Polygon","coordinates":[[[77.442300510571059,21.328386446048459],[77.43964665728889,21.328626941968658],[77.43957857837573,21.327798999671682],[77.441161923901106,21.327096119446235],[77.441828660090579,21.327046699738023],[77.443836297083394,21.32678028607333],[77.443910369738617,21.325008023347738],[77.445601087206512,21.324817178267555],[77.445486718051669,21.325791208037508],[77.445288761614421,21.326390637736054],[77.445205503114934,21.326660558545765],[77.444852797696583,21.327804001307715],[77.444472377719393,21.328361199172598],[77.443568695413575,21.32823819665099],[77.442300510571059,21.328386446048459]]]},"properties":{"FID":8,"Join_Count":2,"TARGET_FID":9,"Layer":"TEXT_PARCEL","Text":"124","vill_code":"531856","LGD_CODE":"531856"}},{"type":"Feature","id":9,"geometry":{"type":"Polygon","coordinates":[[[77.444053975016715,21.328974022559869],[77.439609930156294,21.329502127238346],[77.43964665728889,21.328626941968658],[77.442300510571059,21.328386446048459],[77.443568695413575,21.32823819665099],[77.444472377719393,21.328361199172598],[77.444053975016715,21.328974022559869]]]},"properties":{"FID":9,"Join_Count":2,"TARGET_FID":10,"Layer":"TEXT_PARCEL","Text":"123","vill_code":"531856","LGD_CODE":"531856"}},{"type":"Feature","id":10,"geometry":{"type":"Polygon","coordinates":[[[77.437788797835694,21.329457267711479],[77.437209921368733,21.329587574875195],[77.436787969704781,21.327306572675116],[77.438974216870207,21.326986156620265],[77.439366704931942,21.327382170098858],[77.439564982171348,21.328745303831191],[77.439515260113879,21.329293715664004],[77.437788797835694,21.329457267711479]]]},"properties":{"FID":10,"Join_Count":2,"TARGET_FID":11,"Layer":"TEXT_PARCEL","Text":"121","vill_code":"531856","LGD_CODE":"531856"}},{"type":"Feature","id":11,"geometry":{"type":"Polygon","coordinates":[[[77.437209921368733,21.329587574875195],[77.436063303578024,21.329856268416371],[77.435863468543971,21.329241784213792],[77.434203960897221,21.329700224124739],[77.433840198114197,21.329026944724074],[77.434574188787991,21.327891603926332],[77.434557098827483,21.327839743677941],[77.435525132219411,21.327627924869841],[77.436787969704781,21.327306572675116],[77.437209921368733,21.329587574875195]]]},"properties":{"FID":11,"Join_Count":2,"TARGET_FID":12,"Layer":"TEXT_PARCEL","Text":"120","vill_code":"531856","LGD_CODE":"531856"}},{"type":"Feature","id":12,"geometry":{"type":"Polygon","coordinates":[[[77.447949888033762,21.329638406677326],[77.44765811844519,21.329759346178825],[77.44608472614982,21.329453832605139],[77.445897256566141,21.329311253890403],[77.445704701653128,21.329167258234872],[77.446853467058588,21.327949331637377],[77.447787229065227,21.326820495833459],[77.448296318837492,21.325994375039919],[77.448436999819805,21.325095300201831],[77.449311282319897,21.325207146190746],[77.449937096546378,21.326824171833753],[77.447949888033762,21.329638406677326]]]},"properties":{"FID":12,"Join_Count":2,"TARGET_FID":13,"Layer":"TEXT_PARCEL","Text":"130","vill_code":"531856","LGD_CODE":"531856"}},{"type":"Feature","id":13,"geometry":{"type":"Polygon","coordinates":[[[77.433840198114197,21.329026944724074],[77.432527066686632,21.330552411914336],[77.432442754000149,21.32990149453763],[77.431498478796442,21.329962128248148],[77.430973875388858,21.328490324663971],[77.430974931310743,21.328298275607715],[77.431369717116922,21.328231292632612],[77.434440538163003,21.327486027191846],[77.434557098827483,21.327839743677941],[77.434574188787991,21.327891603926332],[77.433840198114197,21.329026944724074]]]},"properties":{"FID":13,"Join_Count":2,"TARGET_FID":14,"Layer":"TEXT_PARCEL","Text":"115","vill_code":"531856","LGD_CODE":"531856"}},{"type":"Feature","id":14,"geometry":{"type":"Polygon","coordinates":[[[77.436129282497362,21.330059148928747],[77.434384414249664,21.33053618498824],[77.434203960897221,21.329700224124739],[77.435863468543971,21.329241784213792],[77.436063303578024,21.329856268416371],[77.436129282497362,21.330059148928747]]]},"properties":{"FID":14,"Join_Count":3,"TARGET_FID":15,"Layer":"TEXT_PARCEL","Text":"म\u094C.द.च\u0948.","vill_code":"531856","LGD_CODE":"531856"}},{"type":"Feature","id":15,"geometry":{"type":"Polygon","coordinates":[[[77.444814633406949,21.329938389775965],[77.444331386636634,21.330623832340535],[77.444019023577894,21.330069579363069],[77.444053975016715,21.328974022559869],[77.444472377719393,21.328361199172598],[77.444852797696583,21.327804001307715],[77.445205503114934,21.326660558545765],[77.447079260078937,21.326316507795166],[77.448296318837492,21.325994375039919],[77.447787229065227,21.326820495833459],[77.446853467058588,21.327949331637377],[77.445704701653128,21.329167258234872],[77.445897256566141,21.329311253890403],[77.444814633406949,21.329938389775965]]]},"properties":{"FID":15,"Join_Count":2,"TARGET_FID":16,"Layer":"TEXT_PARCEL","Text":"129","vill_code":"531856","LGD_CODE":"531856"}},{"type":"Feature","id":16,"geometry":{"type":"Polygon","coordinates":[[[77.434384414249664,21.33053618498824],[77.43258087707072,21.330967833318514],[77.432527066686632,21.330552411914336],[77.433840198114197,21.329026944724074],[77.434203960897221,21.329700224124739],[77.434384414249664,21.33053618498824]]]},"properties":{"FID":16,"Join_Count":2,"TARGET_FID":17,"Layer":"TEXT_PARCEL","Text":"114","vill_code":"531856","LGD_CODE":"531856"}},{"type":"Feature","id":17,"geometry":{"type":"Polygon","coordinates":[[[77.449410628995039,21.33038874572539],[77.448634495342759,21.331216211791293],[77.447949888033762,21.329638406677326],[77.449937096546378,21.326824171833753],[77.450022082440697,21.326732658035827],[77.450346314784184,21.326753648123226],[77.450697037538802,21.327341619684741],[77.45040329847285,21.328196289933107],[77.450321597835725,21.329068327887356],[77.449502518771311,21.329533516995404],[77.449410628995039,21.33038874572539]]]},"properties":{"FID":17,"Join_Count":2,"TARGET_FID":18,"Layer":"TEXT_PARCEL","Text":"131","vill_code":"531856","LGD_CODE":"531856"}},{"type":"Feature","id":18,"geometry":{"type":"Polygon","coordinates":[[[77.433245785022081,21.331556259180221],[77.432716502727473,21.331686465551975],[77.432640160557895,21.331370098329884],[77.43258087707072,21.330967833318514],[77.434384414249664,21.33053618498824],[77.434526684727004,21.331241143337262],[77.433245785022081,21.331556259180221]]]},"properties":{"FID":18,"Join_Count":2,"TARGET_FID":19,"Layer":"TEXT_PARCEL","Text":"म\u094Cद च\u0948. ज.","vill_code":"531856","LGD_CODE":"531856"}},{"type":"Feature","id":19,"geometry":{"type":"Polygon","coordinates":[[[77.437641917935437,21.331858012569715],[77.436780026171505,21.332101122831059],[77.436352293051215,21.329994490178716],[77.436129282497362,21.330059148928747],[77.436063303578024,21.329856268416371],[77.437209921368733,21.329587574875195],[77.437788797835694,21.329457267711479],[77.439515260113879,21.329293715664004],[77.439410767481121,21.330446226350507],[77.439590976510715,21.331137460280512],[77.439123042848095,21.330904956106512],[77.437967075831395,21.33163835605388],[77.437641917935437,21.331858012569715]]]},"properties":{"FID":19,"Join_Count":2,"TARGET_FID":20,"Layer":"TEXT_PARCEL","Text":"112","vill_code":"531856","LGD_CODE":"531856"}},{"type":"Feature","id":20,"geometry":{"type":"Polygon","coordinates":[[[77.441718699912656,21.331870221769663],[77.441428331188476,21.332075128770075],[77.440564737162575,21.331684843716424],[77.440007681919042,21.332072881366781],[77.439937289915392,21.331799594778094],[77.439708759915121,21.331186506877057],[77.439564277889005,21.330519558577794],[77.439609930156294,21.329502127238346],[77.444053975016715,21.328974022559869],[77.444019023577894,21.330069579363069],[77.444331386636634,21.330623832340535],[77.443312185184823,21.331675413236237],[77.44269381069499,21.331755212291949],[77.442498105401825,21.33179565709337],[77.441718699912656,21.331870221769663]]]},"properties":{"FID":20,"Join_Count":2,"TARGET_FID":21,"Layer":"TEXT_PARCEL","Text":"122","vill_code":"531856","LGD_CODE":"531856"}},{"type":"Feature","id":21,"geometry":{"type":"Polygon","coordinates":[[[77.432111060688456,21.332305668513104],[77.429079454844882,21.332530540610978],[77.429011212841075,21.331803231539624],[77.429453181568917,21.331718938160876],[77.429364693521251,21.330347533666743],[77.431498478796442,21.329962128248148],[77.432442754000149,21.32990149453763],[77.432527066686632,21.330552411914336],[77.43258087707072,21.330967833318514],[77.432640160557895,21.331370098329884],[77.432122131257174,21.331532968496916],[77.432111060688456,21.332305668513104]]]},"properties":{"FID":21,"Join_Count":2,"TARGET_FID":22,"Layer":"TEXT_PARCEL","Text":"99","vill_code":"531856","LGD_CODE":"531856"}},{"type":"Feature","id":22,"geometry":{"type":"Polygon","coordinates":[[[77.435750384386722,21.332350426270867],[77.433542334964812,21.332913639860291],[77.43348320932391,21.332558824671231],[77.433245785022081,21.331556259180221],[77.434526684727004,21.331241143337262],[77.434384414249664,21.33053618498824],[77.436129282497362,21.330059148928747],[77.436352293051215,21.329994490178716],[77.436780026171505,21.332101122831059],[77.435975129812405,21.332316777927165],[77.435750384386722,21.332350426270867]]]},"properties":{"FID":22,"Join_Count":2,"TARGET_FID":23,"Layer":"TEXT_PARCEL","Text":"113","vill_code":"531856","LGD_CODE":"531856"}},{"type":"Feature","id":23,"geometry":{"type":"Polygon","coordinates":[[[77.429111871874426,21.332876025277429],[77.426638885265021,21.333143899340396],[77.426336322276683,21.332309926306369],[77.429011212841075,21.331803231539624],[77.429079454844882,21.332530540610978],[77.429111871874426,21.332876025277429]]]},"properties":{"FID":23,"Join_Count":2,"TARGET_FID":24,"Layer":"TEXT_PARCEL","Text":"98","vill_code":"531856","LGD_CODE":"531856"}},{"type":"Feature","id":24,"geometry":{"type":"Polygon","coordinates":[[[77.440133886906139,21.333219878672203],[77.438349373171249,21.333500665647829],[77.437967075831395,21.33163835605388],[77.439123042848095,21.330904956106512],[77.439590976510715,21.331137460280512],[77.440133886906139,21.333219878672203]]]},"properties":{"FID":24,"Join_Count":2,"TARGET_FID":25,"Layer":"TEXT_PARCEL","Text":"111","vill_code":"531856","LGD_CODE":"531856"}},{"type":"Feature","id":25,"geometry":{"type":"Polygon","coordinates":[[[77.435932555094638,21.333435219928489],[77.433950622855519,21.333922836796919],[77.43342430442334,21.333355906189936],[77.433457947454841,21.332935164532785],[77.433542334964812,21.332913639860291],[77.435750384386722,21.332350426270867],[77.435975129812405,21.332316777927165],[77.435932555094638,21.333435219928489]]]},"properties":{"FID":25,"Join_Count":2,"TARGET_FID":26,"Layer":"TEXT_PARCEL","Text":"102","vill_code":"531856","LGD_CODE":"531856"}},{"type":"Feature","id":26,"geometry":{"type":"Polygon","coordinates":[[[77.441652707940747,21.333972546034676],[77.440548842059172,21.334103635991834],[77.440304918417411,21.333226847051275],[77.440196477197659,21.332870282419076],[77.440007681919042,21.332072881366781],[77.440564737162575,21.331684843716424],[77.441428331188476,21.332075128770075],[77.441718699912656,21.331870221769663],[77.442498105401825,21.33179565709337],[77.44269381069499,21.331755212291949],[77.443106300392969,21.33204772656838],[77.443192722679456,21.332467138152371],[77.442457511301185,21.332670225854631],[77.442441407022727,21.333110311974234],[77.442335084885912,21.333107838820336],[77.442165280286034,21.333103889394526],[77.441652707940747,21.333972546034676]]]},"properties":{"FID":26,"Join_Count":3,"TARGET_FID":27,"Layer":"TEXT_PARCEL","Text":"110","vill_code":"531856","LGD_CODE":"531856"}},{"type":"Feature","id":27,"geometry":{"type":"Polygon","coordinates":[[[77.433693274291983,21.334264023840579],[77.433690742326192,21.33446126225115],[77.432025768912212,21.334280486405007],[77.432059524047759,21.334183133545267],[77.432111060688456,21.332305668513104],[77.432122131257174,21.331532968496916],[77.432640160557895,21.331370098329884],[77.432716502727473,21.331686465551975],[77.433245785022081,21.331556259180221],[77.43348320932391,21.332558824671231],[77.433542334964812,21.332913639860291],[77.433457947454841,21.332935164532785],[77.43342430442334,21.333355906189936],[77.433950622855519,21.333922836796919],[77.433693274291983,21.334264023840579]]]},"properties":{"FID":27,"Join_Count":2,"TARGET_FID":28,"Layer":"TEXT_PARCEL","Text":"101","vill_code":"531856","LGD_CODE":"531856"}},{"type":"Feature","id":28,"geometry":{"type":"Polygon","coordinates":[[[77.43170792803744,21.334649425791685],[77.43140594000856,21.334701472416089],[77.429545815146113,21.33471741640539],[77.429554801893616,21.334593121199461],[77.429597547864603,21.333294213524692],[77.429129500881075,21.333259123932635],[77.429111871874426,21.332876025277429],[77.429079454844882,21.332530540610978],[77.432111060688456,21.332305668513104],[77.432059524047759,21.334183133545267],[77.432025768912212,21.334280486405007],[77.43170792803744,21.334649425791685]]]},"properties":{"FID":28,"Join_Count":2,"TARGET_FID":29,"Layer":"TEXT_PARCEL","Text":"100","vill_code":"531856","LGD_CODE":"531856"}},{"type":"Feature","id":29,"geometry":{"type":"Polygon","coordinates":[[[77.449934457497164,21.334250238288504],[77.448281322947082,21.334466404673904],[77.448154249431028,21.334461781795657],[77.448101031174659,21.334145918199468],[77.447421831648555,21.334184529427535],[77.44752789165824,21.332458462839888],[77.446456953136519,21.332388485524323],[77.446181419397817,21.33177040121161],[77.446559101281196,21.331040670591662],[77.446941903701784,21.330732540022037],[77.447253194643054,21.329938003808046],[77.44765811844519,21.329759346178825],[77.447949888033762,21.329638406677326],[77.448634495342759,21.331216211791293],[77.449553845215988,21.333340617114342],[77.449934457497164,21.334250238288504]]]},"properties":{"FID":29,"Join_Count":2,"TARGET_FID":30,"Layer":"TEXT_PARCEL","Text":"132","vill_code":"531856","LGD_CODE":"531856"}},{"type":"Feature","id":30,"geometry":{"type":"Polygon","coordinates":[[[77.446910609490658,21.334213590709851],[77.446818864321045,21.334588784424604],[77.44585996807686,21.33454991964097],[77.446389590908211,21.332384084149783],[77.446456953136519,21.332388485524323],[77.44752789165824,21.332458462839888],[77.447421831648555,21.334184529427535],[77.446910609490658,21.334213590709851]]]},"properties":{"FID":30,"Join_Count":2,"TARGET_FID":31,"Layer":"TEXT_PARCEL","Text":"133","vill_code":"531856","LGD_CODE":"531856"}},{"type":"Feature","id":31,"geometry":{"type":"Polygon","coordinates":[[[77.442909451808646,21.333495066571768],[77.44291085607,21.334904564174259],[77.442691161506445,21.334903802331091],[77.442692860270256,21.333592146964847],[77.442558711132364,21.333566016639047],[77.442441407022727,21.333110311974234],[77.442457511301185,21.332670225854638],[77.443192722679456,21.332467138152371],[77.443106300392969,21.33204772656838],[77.44269381069499,21.331755212291949],[77.443312185184823,21.331675413236237],[77.444331386636634,21.330623832340535],[77.444814633406949,21.329938389775965],[77.445897256566141,21.329311253890403],[77.44608472614982,21.329453832605139],[77.44765811844519,21.329759346178825],[77.447253194643054,21.329938003808046],[77.446941903701784,21.330732540022037],[77.446559101281196,21.331040670591662],[77.446181419397817,21.33177040121161],[77.445699709935482,21.3319325134396],[77.443922592658225,21.332874302842519],[77.443987137238466,21.333557784242632],[77.442909451808646,21.333495066571768]]]},"properties":{"FID":31,"Join_Count":2,"TARGET_FID":32,"Layer":"TEXT_PARCEL","Text":"109","vill_code":"531856","LGD_CODE":"531856"}},{"type":"Feature","id":32,"geometry":{"type":"Polygon","coordinates":[[[77.427751493046429,21.335015746830493],[77.42699248054258,21.335193623666949],[77.426952601471768,21.335038331674181],[77.426638885265021,21.333143899340396],[77.429111871874426,21.332876025277429],[77.429129500881075,21.333259123932635],[77.429597547864603,21.333294213524692],[77.429554801893616,21.334593121199461],[77.427751493046429,21.335015746830493]]]},"properties":{"FID":32,"Join_Count":2,"TARGET_FID":33,"Layer":"TEXT_PARCEL","Text":"97","vill_code":"531856","LGD_CODE":"531856"}},{"type":"Feature","id":33,"geometry":{"type":"Polygon","coordinates":[[[77.425715740804819,21.335173669553004],[77.425725875793574,21.335218806033861],[77.424178496068791,21.335141212472475],[77.423402777634706,21.335102764603626],[77.42320924353092,21.333103083680111],[77.425541000276013,21.332731645236876],[77.426336322276683,21.332309926306369],[77.426638885265021,21.333143899340396],[77.426952601471768,21.335038331674181],[77.426903305363339,21.335102414150249],[77.425715740804819,21.335173669553004]]]},"properties":{"FID":33,"Join_Count":2,"TARGET_FID":34,"Layer":"TEXT_PARCEL","Text":"95","vill_code":"531856","LGD_CODE":"531856"}},{"type":"Feature","id":34,"geometry":{"type":"Polygon","coordinates":[[[77.438902818518926,21.334970266702662],[77.436711447375032,21.335392539534407],[77.43645448725691,21.334114314386269],[77.437781481626942,21.333923624841599],[77.437788536688629,21.333633987261255],[77.438349373171249,21.333500665647829],[77.440133886906139,21.333219878672203],[77.440603550695386,21.334842181191668],[77.439244979919536,21.334913984619703],[77.438902818518926,21.334970266702662]]]},"properties":{"FID":34,"Join_Count":3,"TARGET_FID":35,"Layer":"TEXT_PARCEL","Text":"105","vill_code":"531856","LGD_CODE":"531856"}},{"type":"Feature","id":35,"geometry":{"type":"Polygon","coordinates":[[[77.436467527575758,21.33546062135499],[77.433674894455606,21.335695887209315],[77.433690742326192,21.33446126225115],[77.433693274291983,21.334264023840579],[77.433950622855519,21.333922836796919],[77.435932555094638,21.333435219928489],[77.435975129812405,21.332316777927165],[77.436780026171505,21.332101122831059],[77.437641917935437,21.331858012569715],[77.437967075831395,21.33163835605388],[77.438349373171249,21.333500665647829],[77.437788536688629,21.333633987261255],[77.437781481626942,21.333923624841603],[77.43645448725691,21.334114314386273],[77.436711447375032,21.3353925395344],[77.436467527575758,21.33546062135499]]]},"properties":{"FID":35,"Join_Count":2,"TARGET_FID":36,"Layer":"TEXT_PARCEL","Text":"103","vill_code":"531856","LGD_CODE":"531856"}},{"type":"Feature","id":36,"geometry":{"type":"Polygon","coordinates":[[[77.44398534193418,21.335776553981425],[77.442900970911055,21.335810672031961],[77.44291085607,21.334904564174259],[77.442909451808646,21.333495066571768],[77.443987137238466,21.333557784242632],[77.444042896986915,21.334556323973214],[77.44398534193418,21.335776553981425]]]},"properties":{"FID":36,"Join_Count":2,"TARGET_FID":37,"Layer":"TEXT_PARCEL","Text":"108","vill_code":"531856","LGD_CODE":"531856"}},{"type":"Feature","id":37,"geometry":{"type":"Polygon","coordinates":[[[77.442900970911055,21.335810672031961],[77.442096072527562,21.335826985987214],[77.442105146923552,21.33490176658465],[77.442691161506445,21.334903802331091],[77.44291085607,21.334904564174259],[77.442900970911055,21.335810672031961]]]},"properties":{"FID":37,"Join_Count":2,"TARGET_FID":38,"Layer":"TEXT_PARCEL","Text":"107","vill_code":"531856","LGD_CODE":"531856"}},{"type":"Feature","id":38,"geometry":{"type":"Polygon","coordinates":[[[77.442096072527562,21.335826985987214],[77.441125103642719,21.335846660343076],[77.440751003051233,21.334830294499771],[77.440548842059172,21.334103635991834],[77.441652707940747,21.333972546034676],[77.442165280286034,21.333103889394526],[77.442335084885912,21.333107838820336],[77.442441407022727,21.333110311974234],[77.442558711132364,21.333566016639047],[77.442692860270256,21.333592146964847],[77.442691161506445,21.334903802331091],[77.442105146923552,21.33490176658465],[77.442096072527562,21.335826985987214]]]},"properties":{"FID":38,"Join_Count":2,"TARGET_FID":39,"Layer":"TEXT_PARCEL","Text":"106","vill_code":"531856","LGD_CODE":"531856"}},{"type":"Feature","id":39,"geometry":{"type":"Polygon","coordinates":[[[77.446818864321045,21.334588784424604],[77.446669719856516,21.335890419364418],[77.444989507419834,21.335856599559452],[77.44569719947215,21.3345433216485],[77.44585996807686,21.33454991964097],[77.446818864321045,21.334588784424604]]]},"properties":{"FID":39,"Join_Count":2,"TARGET_FID":40,"Layer":"TEXT_PARCEL","Text":"135","vill_code":"531856","LGD_CODE":"531856"}},{"type":"Feature","id":40,"geometry":{"type":"Polygon","coordinates":[[[77.427758860692791,21.336304015828855],[77.426083271821525,21.336810585823184],[77.425725875793574,21.335218806033861],[77.425715740804819,21.335173669553004],[77.426903305363339,21.335102414150249],[77.426952601471768,21.335038331674181],[77.42699248054258,21.335193623666949],[77.427751493046429,21.335015746830493],[77.427758860692791,21.336304015828855]]]},"properties":{"FID":40,"Join_Count":2,"TARGET_FID":41,"Layer":"TEXT_PARCEL","Text":"96","vill_code":"531856","LGD_CODE":"531856"}},{"type":"Feature","id":41,"geometry":{"type":"Polygon","coordinates":[[[77.437266461521617,21.336559831099056],[77.436960841798722,21.336735996931601],[77.436711447375032,21.3353925395344],[77.438902818518926,21.334970266702662],[77.438890633271313,21.335540002190729],[77.438882160236858,21.335936211442387],[77.437266461521617,21.336559831099056]]]},"properties":{"FID":41,"Join_Count":2,"TARGET_FID":42,"Layer":"TEXT_PARCEL","Text":"104","vill_code":"531856","LGD_CODE":"531856"}},{"type":"Feature","id":42,"geometry":{"type":"Polygon","coordinates":[[[77.447367443823921,21.33734137944526],[77.446642520085248,21.337420043877589],[77.446669719856516,21.335890419364418],[77.446818864321045,21.334588784424604],[77.446910609490658,21.334213590709851],[77.447421831648555,21.334184529427535],[77.448101031174659,21.334145918199468],[77.448154249431028,21.334461781795657],[77.448281322947082,21.334466404673904],[77.448266210801151,21.337219198288057],[77.447367443823921,21.33734137944526]]]},"properties":{"FID":42,"Join_Count":2,"TARGET_FID":43,"Layer":"TEXT_PARCEL","Text":"136","vill_code":"531856","LGD_CODE":"531856"}},{"type":"Feature","id":43,"geometry":{"type":"Polygon","coordinates":[[[77.444139682543081,21.337655317534097],[77.441827320972095,21.337694556648813],[77.441502254580612,21.336871294598897],[77.441125103642719,21.335846660343076],[77.442096072527562,21.335826985987214],[77.442900970911055,21.335810672031961],[77.44398534193418,21.335776553981425],[77.444042896986915,21.334556323973214],[77.443987137238466,21.333557784242632],[77.443922592658225,21.332874302842519],[77.445699709935482,21.3319325134396],[77.446181419397817,21.33177040121161],[77.446456953136519,21.332388485524323],[77.446389590908211,21.332384084149783],[77.44585996807686,21.33454991964097],[77.44569719947215,21.3345433216485],[77.444989507419834,21.335856599559452],[77.444711593891981,21.336614178393877],[77.444415382710773,21.337632717089338],[77.444139682543081,21.337655317534097]]]},"properties":{"FID":43,"Join_Count":2,"TARGET_FID":44,"Layer":"TEXT_PARCEL","Text":"134","vill_code":"531856","LGD_CODE":"531856"}},{"type":"Feature","id":44,"geometry":{"type":"Polygon","coordinates":[[[77.427747965025816,21.336716039701798],[77.427084050099353,21.337916631578619],[77.42694828004349,21.33779404967332],[77.426681091003772,21.337552812656643],[77.426031994342367,21.337410600714318],[77.424357372910876,21.337716388823321],[77.424178496068791,21.335141212472475],[77.425725875793574,21.335218806033861],[77.426083271821525,21.336810585823184],[77.427758860692791,21.336304015828855],[77.427747965025816,21.336716039701798]]]},"properties":{"FID":44,"Join_Count":2,"TARGET_FID":45,"Layer":"TEXT_PARCEL","Text":"92","vill_code":"531856","LGD_CODE":"531856"}},{"type":"Feature","id":45,"geometry":{"type":"Polygon","coordinates":[[[77.42251732119783,21.337593966895092],[77.421479388065677,21.338057337147553],[77.421498846553376,21.336149091502897],[77.422544971841631,21.336087998028173],[77.42251732119783,21.337593966895092]]]},"properties":{"FID":45,"Join_Count":2,"TARGET_FID":46,"Layer":"TEXT_PARCEL","Text":"94","vill_code":"531856","LGD_CODE":"531856"}},{"type":"Feature","id":46,"geometry":{"type":"Polygon","coordinates":[[[77.429367314965972,21.33698427478928],[77.429280011194862,21.338067443609312],[77.427084050099353,21.337916631578619],[77.427747965025816,21.336716039701798],[77.427758860692791,21.336304015828855],[77.427751493046429,21.335015746830493],[77.429554801893616,21.334593121199461],[77.429545815146113,21.33471741640539],[77.429367314965972,21.33698427478928]]]},"properties":{"FID":46,"Join_Count":2,"TARGET_FID":47,"Layer":"TEXT_PARCEL","Text":"91","vill_code":"531856","LGD_CODE":"531856"}},{"type":"Feature","id":47,"geometry":{"type":"Polygon","coordinates":[[[77.432573618944033,21.338021517755315],[77.43094816088437,21.338092546457499],[77.430874007175078,21.337117165478539],[77.429367314965972,21.33698427478928],[77.429545815146113,21.33471741640539],[77.43140594000856,21.334701472416089],[77.431290420220364,21.336092825813719],[77.43249895652103,21.336134256962165],[77.432573618944033,21.338021517755315]]]},"properties":{"FID":47,"Join_Count":2,"TARGET_FID":48,"Layer":"TEXT_PARCEL","Text":"90","vill_code":"531856","LGD_CODE":"531856"}},{"type":"Feature","id":48,"geometry":{"type":"Polygon","coordinates":[[[77.433674894455606,21.335695887209315],[77.43336186160181,21.338079229931953],[77.432573618944033,21.338021517755315],[77.43249895652103,21.336134256962165],[77.431290420220364,21.336092825813719],[77.43140594000856,21.334701472416089],[77.43170792803744,21.334649425791685],[77.432025768912212,21.334280486405007],[77.433690742326192,21.33446126225115],[77.433674894455606,21.335695887209315]]]},"properties":{"FID":48,"Join_Count":2,"TARGET_FID":49,"Layer":"TEXT_PARCEL","Text":"88","vill_code":"531856","LGD_CODE":"531856"}},{"type":"Feature","id":49,"geometry":{"type":"Polygon","coordinates":[[[77.441729482420868,21.337928885780318],[77.438853773997678,21.338188857856828],[77.438857791809511,21.338016988615404],[77.439319884791601,21.33567393646036],[77.438890633271313,21.335540002190729],[77.438902818518926,21.334970266702662],[77.439244979919536,21.334913984619703],[77.440603550695386,21.334842181191668],[77.441174640708439,21.336418328014776],[77.441725723962435,21.337841778684471],[77.441729482420868,21.337928885780318]]]},"properties":{"FID":49,"Join_Count":3,"TARGET_FID":50,"Layer":"TEXT_PARCEL","Text":"83","vill_code":"531856","LGD_CODE":"531856"}},{"type":"Feature","id":50,"geometry":{"type":"Polygon","coordinates":[[[77.434337876608865,21.338046150226738],[77.434485726525807,21.338475803336561],[77.433659656084828,21.338439944772087],[77.43336186160181,21.338079229931953],[77.433674894455606,21.335695887209315],[77.436467527575758,21.33546062135499],[77.436711447375032,21.3353925395344],[77.436960841798722,21.336735996931601],[77.436702959872179,21.337050082165682],[77.436167624105664,21.337029015056313],[77.435531888035513,21.337203776442788],[77.434422849526527,21.337492525265151],[77.434337876608865,21.338046150226738]]]},"properties":{"FID":50,"Join_Count":2,"TARGET_FID":51,"Layer":"TEXT_PARCEL","Text":"87","vill_code":"531856","LGD_CODE":"531856"}},{"type":"Feature","id":51,"geometry":{"type":"Polygon","coordinates":[[[77.437123271373736,21.338415041797798],[77.435886695664948,21.33853660938183],[77.434485726525807,21.338475803336561],[77.434337876608865,21.338046150226738],[77.434422849526527,21.337492525265151],[77.435531888035513,21.337203776442788],[77.436167624105664,21.337029015056313],[77.436702959872179,21.337050082165682],[77.436960841798722,21.336735996931601],[77.436993350879447,21.336919932176812],[77.437123271373736,21.338415041797798]]]},"properties":{"FID":51,"Join_Count":2,"TARGET_FID":52,"Layer":"TEXT_PARCEL","Text":"86","vill_code":"531856","LGD_CODE":"531856"}},{"type":"Feature","id":52,"geometry":{"type":"Polygon","coordinates":[[[77.449050366447963,21.338368132951008],[77.4485747800572,21.338402816174309],[77.448491446957448,21.337188578415176],[77.448266210801151,21.337219198288057],[77.448281322947082,21.334466404673904],[77.449934457497164,21.334250238288504],[77.450575567531374,21.336236496309603],[77.450010018746667,21.337168764869922],[77.449067841899847,21.3382550034679],[77.449050366447963,21.338368132951008]]]},"properties":{"FID":52,"Join_Count":2,"TARGET_FID":53,"Layer":"TEXT_PARCEL","Text":"137","vill_code":"531856","LGD_CODE":"531856"}},{"type":"Feature","id":53,"geometry":{"type":"Polygon","coordinates":[[[77.448506845714462,21.338407770329002],[77.447601714406019,21.338473775287692],[77.447367443823921,21.33734137944526],[77.448266210801151,21.337219198288057],[77.448491446957448,21.337188578415176],[77.4485747800572,21.338402816174309],[77.448506845714462,21.338407770329002]]]},"properties":{"FID":53,"Join_Count":2,"TARGET_FID":54,"Layer":"TEXT_PARCEL","Text":"142","vill_code":"531856","LGD_CODE":"531856"}},{"type":"Feature","id":54,"geometry":{"type":"Polygon","coordinates":[[[77.447601714406019,21.338473775287692],[77.445019867946272,21.33864610562263],[77.445089373281562,21.337648360507153],[77.444415382710773,21.337632717089338],[77.444711593891981,21.336614178393877],[77.444989507419834,21.335856599559452],[77.446669719856516,21.335890419364418],[77.446642520085248,21.337420043877589],[77.447367443823921,21.33734137944526],[77.447601714406019,21.338473775287692]]]},"properties":{"FID":54,"Join_Count":2,"TARGET_FID":55,"Layer":"TEXT_PARCEL","Text":"143","vill_code":"531856","LGD_CODE":"531856"}},{"type":"Feature","id":55,"geometry":{"type":"Polygon","coordinates":[[[77.450967545184326,21.339238717207625],[77.449481611421987,21.339310685397511],[77.449050366447963,21.338368132951008],[77.449067841899847,21.3382550034679],[77.450010018746667,21.337168764869922],[77.450575567531374,21.336236496309603],[77.451139754700634,21.336147113921985],[77.451433208022138,21.336977501462467],[77.452029396080817,21.338028446871135],[77.450860909436912,21.338152027165073],[77.450967545184326,21.339238717207625]]]},"properties":{"FID":55,"Join_Count":2,"TARGET_FID":56,"Layer":"TEXT_PARCEL","Text":"138","vill_code":"531856","LGD_CODE":"531856"}},{"type":"Feature","id":56,"geometry":{"type":"Polygon","coordinates":[[[77.426778287773914,21.33942592056728],[77.42672104204226,21.339757030957095],[77.425717698426283,21.339738532760713],[77.425175912006779,21.339656693086457],[77.425259498761619,21.33876310629288],[77.426898302712971,21.338889152347146],[77.427117185421139,21.338905985783072],[77.427242968436659,21.339477898021542],[77.426778287773914,21.33942592056728]]]},"properties":{"FID":56,"Join_Count":2,"TARGET_FID":57,"Layer":"TEXT_PARCEL","Text":"93","vill_code":"531856","LGD_CODE":"531856"}},{"type":"Feature","id":57,"geometry":{"type":"Polygon","coordinates":[[[77.444952915169722,21.33968126213195],[77.443241634833015,21.339717497543006],[77.443261250087005,21.338663900975138],[77.44199521261821,21.338625077492615],[77.441871804301584,21.337813799889201],[77.441827320972095,21.337694556648813],[77.444139682543081,21.337655317534097],[77.444415382710773,21.337632717089338],[77.445089373281562,21.337648360507153],[77.445019867946272,21.33864610562263],[77.444952915169722,21.33968126213195]]]},"properties":{"FID":57,"Join_Count":2,"TARGET_FID":58,"Layer":"TEXT_PARCEL","Text":"144","vill_code":"531856","LGD_CODE":"531856"}},{"type":"Feature","id":58,"geometry":{"type":"Polygon","coordinates":[[[77.430124720665717,21.339877422934943],[77.429554615283521,21.340001240111587],[77.429570613057635,21.339781616278184],[77.42998705463819,21.338114201737483],[77.429280011194862,21.338067443609312],[77.429367314965972,21.33698427478928],[77.430874007175078,21.337117165478539],[77.43094816088437,21.338092546457499],[77.432573618944033,21.338021517755315],[77.43336186160181,21.338079229931953],[77.433659656084828,21.338439944772087],[77.433063873115444,21.339305265884541],[77.432664472703877,21.339702467804543],[77.43200633627859,21.339407724556953],[77.431944930963567,21.339410592905693],[77.430281688803944,21.339488260957008],[77.430124720665717,21.339877422934943]]]},"properties":{"FID":58,"Join_Count":2,"TARGET_FID":59,"Layer":"TEXT_PARCEL","Text":"89","vill_code":"531856","LGD_CODE":"531856"}},{"type":"Feature","id":59,"geometry":{"type":"Polygon","coordinates":[[[77.441925386259172,21.33988397777404],[77.438808542348895,21.340123838347193],[77.438853773997678,21.338188857856828],[77.441729482420868,21.337928885780322],[77.441890002689149,21.338717984571623],[77.441952870674044,21.339729925333604],[77.441925386259172,21.33988397777404]]]},"properties":{"FID":59,"Join_Count":2,"TARGET_FID":60,"Layer":"TEXT_PARCEL","Text":"82","vill_code":"531856","LGD_CODE":"531856"}},{"type":"Feature","id":60,"geometry":{"type":"Polygon","coordinates":[[[77.447723266077759,21.340513274222772],[77.445167110650345,21.340739166645168],[77.445143083161071,21.339677234124363],[77.444952915169722,21.33968126213195],[77.445019867946272,21.33864610562263],[77.447601714406019,21.338473775287692],[77.448506845714462,21.338407770328999],[77.447723266077759,21.340513274222772]]]},"properties":{"FID":60,"Join_Count":3,"TARGET_FID":61,"Layer":"TEXT_PARCEL","Text":"145","vill_code":"531856","LGD_CODE":"531856"}},{"type":"Feature","id":61,"geometry":{"type":"Polygon","coordinates":[[[77.453313577422961,21.340065152682389],[77.452519138716966,21.340744016687225],[77.451142837022076,21.340624671705989],[77.450967545184326,21.339238717207625],[77.450860909436912,21.338152027165073],[77.452029396080817,21.338028446871135],[77.452450635151209,21.338206415034342],[77.453313577422961,21.340065152682389]]]},"properties":{"FID":61,"Join_Count":2,"TARGET_FID":62,"Layer":"TEXT_PARCEL","Text":"139","vill_code":"531856","LGD_CODE":"531856"}},{"type":"Feature","id":62,"geometry":{"type":"Polygon","coordinates":[[[77.43752296752082,21.340042110463006],[77.437461977622775,21.340964931978409],[77.435675377443943,21.340956288932038],[77.435886695664948,21.33853660938183],[77.437123271373736,21.338415041797798],[77.437362917046471,21.338634795129067],[77.43752296752082,21.340042110463006]]]},"properties":{"FID":62,"Join_Count":3,"TARGET_FID":63,"Layer":"TEXT_PARCEL","Text":"85","vill_code":"531856","LGD_CODE":"531856"}},{"type":"Feature","id":63,"geometry":{"type":"Polygon","coordinates":[[[77.438345296876292,21.340961558851909],[77.438033997523618,21.340967695324114],[77.437461977622775,21.340964931978409],[77.43752296752082,21.340042110463006],[77.437362917046471,21.338634795129071],[77.437123271373736,21.338415041797798],[77.436993350879447,21.336919932176812],[77.436960841798722,21.336735996931601],[77.437266461521617,21.336559831099056],[77.438882160236858,21.335936211442387],[77.438890633271313,21.335540002190729],[77.439319884791601,21.33567393646036],[77.438857791809511,21.338016988615404],[77.438853773997678,21.338188857856828],[77.438808542348895,21.340123838347193],[77.438535944917078,21.340154246708401],[77.438345296876292,21.340961558851909]]]},"properties":{"FID":63,"Join_Count":2,"TARGET_FID":64,"Layer":"TEXT_PARCEL","Text":"84","vill_code":"531856","LGD_CODE":"531856"}},{"type":"Feature","id":64,"geometry":{"type":"Polygon","coordinates":[[[77.425717698426283,21.339738532760713],[77.425756165554006,21.341442064816167],[77.423907967473326,21.341376018715117],[77.42396798938276,21.340470487744742],[77.424171989213946,21.34040896487944],[77.42416798696226,21.339743121611246],[77.425175912006779,21.339656693086457],[77.425717698426283,21.339738532760713]]]},"properties":{"FID":64,"Join_Count":2,"TARGET_FID":65,"Layer":"TEXT_PARCEL","Text":"68","vill_code":"531856","LGD_CODE":"531856"}},{"type":"Feature","id":65,"geometry":{"type":"Polygon","coordinates":[[[77.427129385788092,21.34004464367441],[77.426783772220801,21.341478778169055],[77.426504997529321,21.341468818944538],[77.425756165554006,21.341442064816167],[77.425717698426283,21.339738532760713],[77.42672104204226,21.339757030957095],[77.426778287773914,21.33942592056728],[77.427242968436659,21.339477898021542],[77.427129385788092,21.34004464367441]]]},"properties":{"FID":65,"Join_Count":2,"TARGET_FID":66,"Layer":"TEXT_PARCEL","Text":"69","vill_code":"531856","LGD_CODE":"531856"}},{"type":"Feature","id":66,"geometry":{"type":"Polygon","coordinates":[[[77.428380086037549,21.341387885027626],[77.428355097482736,21.341534904415408],[77.426783772220801,21.341478778169055],[77.427129385788092,21.34004464367441],[77.427242968436659,21.339477898021542],[77.427117185421139,21.338905985783072],[77.427084050099353,21.337916631578619],[77.429280011194862,21.338067443609312],[77.42998705463819,21.338114201737483],[77.429570613057635,21.339781616278184],[77.429554615283521,21.340001240111587],[77.428806123470565,21.340442952954206],[77.428380086037549,21.341387885027626]]]},"properties":{"FID":66,"Join_Count":2,"TARGET_FID":67,"Layer":"TEXT_PARCEL","Text":"70","vill_code":"531856","LGD_CODE":"531856"}},{"type":"Feature","id":67,"geometry":{"type":"Polygon","coordinates":[[[77.442140309354983,21.340425562594501],[77.441652812302408,21.341575483551573],[77.441607699463333,21.341234153440961],[77.441955064655488,21.340318109654188],[77.441925386259172,21.33988397777404],[77.441952870674044,21.339729925333604],[77.441890002689149,21.338717984571623],[77.441729482420868,21.337928885780322],[77.441725723962435,21.337841778684471],[77.441174640708439,21.336418328014776],[77.440603550695386,21.334842181191668],[77.440133886906139,21.333219878672203],[77.439590976510715,21.331137460280512],[77.439410767481121,21.330446226350507],[77.439515260113879,21.329293715664004],[77.439564982171348,21.328745303831191],[77.439366704931942,21.327382170098858],[77.438974216870207,21.326986156620265],[77.43834748317974,21.325274248706972],[77.438491298692597,21.325235104063079],[77.439149986436945,21.32694353804586],[77.439535116016472,21.327270427150346],[77.43957857837573,21.327798999671682],[77.43964665728889,21.328626941968658],[77.439609930156294,21.329502127238346],[77.439564277889005,21.330519558577794],[77.439708759915121,21.331186506877057],[77.439937289915392,21.331799594778094],[77.440007681919042,21.332072881366781],[77.440196477197659,21.332870282419076],[77.440304918417411,21.333226847051275],[77.440548842059172,21.334103635991834],[77.440751003051233,21.334830294499771],[77.441125103642719,21.335846660343076],[77.441502254580612,21.336871294598897],[77.441827320972095,21.337694556648813],[77.441871804301584,21.337813799889201],[77.44199521261821,21.338625077492615],[77.442000111186132,21.338661551113457],[77.442062874298315,21.339380466446769],[77.442140309354983,21.340425562594501]]]},"properties":{"FID":67,"Join_Count":1,"TARGET_FID":68,"Layer":"TEXT_PARCEL","Text":"छन\u094Dस\u094Dस\u094D","vill_code":"531856","LGD_CODE":"531856"}},{"type":"Feature","id":68,"geometry":{"type":"Polygon","coordinates":[[[77.441607699463333,21.341234153440961],[77.44032916553698,21.341679947356806],[77.440291658814616,21.340923174625857],[77.438345296876292,21.340961558851909],[77.438535944917078,21.340154246708401],[77.438808542348895,21.340123838347193],[77.441925386259172,21.33988397777404],[77.441955064655488,21.340318109654188],[77.441607699463333,21.341234153440961]]]},"properties":{"FID":68,"Join_Count":2,"TARGET_FID":69,"Layer":"TEXT_PARCEL","Text":"81","vill_code":"531856","LGD_CODE":"531856"}},{"type":"Feature","id":69,"geometry":{"type":"Polygon","coordinates":[[[77.434615230256171,21.341946547586733],[77.432236538019779,21.342017723727743],[77.432169770800385,21.341671037986444],[77.432739997661713,21.341630007214832],[77.432371843032996,21.340791964433382],[77.432851887866562,21.340620558735854],[77.432987601690385,21.339778504336245],[77.434833141392076,21.33990517026686],[77.434589603129098,21.341725471369497],[77.434615230256171,21.341946547586733]]]},"properties":{"FID":69,"Join_Count":2,"TARGET_FID":70,"Layer":"TEXT_PARCEL","Text":"73","vill_code":"531856","LGD_CODE":"531856"}},{"type":"Feature","id":70,"geometry":{"type":"Polygon","coordinates":[[[77.445167110650345,21.340739166645168],[77.445192471151316,21.341859890378274],[77.44313789490171,21.341713466287814],[77.443241634833015,21.339717497543006],[77.444952915169722,21.33968126213195],[77.445143083161071,21.339677234124363],[77.445167110650345,21.340739166645168]]]},"properties":{"FID":70,"Join_Count":4,"TARGET_FID":71,"Layer":"TEXT_PARCEL","Text":"146","vill_code":"531856","LGD_CODE":"531856"}},{"type":"Feature","id":71,"geometry":{"type":"Polygon","coordinates":[[[77.429702677320037,21.342022655848041],[77.428292997067416,21.342526662789158],[77.428355097482736,21.341534904415408],[77.428380086037549,21.341387885027629],[77.428806123470565,21.340442952954206],[77.429554615283521,21.340001240111587],[77.430124720665717,21.339877422934943],[77.430281688803944,21.339488260957008],[77.431944930963567,21.339410592905701],[77.431975195527215,21.339796812109],[77.430105256724119,21.341632802578967],[77.429702677320037,21.342022655848041]]]},"properties":{"FID":71,"Join_Count":3,"TARGET_FID":72,"Layer":"TEXT_PARCEL","Text":"71","vill_code":"531856","LGD_CODE":"531856"}},{"type":"Feature","id":72,"geometry":{"type":"Polygon","coordinates":[[[77.452519138716966,21.340744016687225],[77.450602463268908,21.342381815320284],[77.449361604371305,21.342285012620955],[77.449009346555144,21.341675038190996],[77.449259032169564,21.339583018902754],[77.449481611421987,21.339310685397511],[77.450967545184326,21.339238717207625],[77.451142837022076,21.340624671705989],[77.452519138716966,21.340744016687225]]]},"properties":{"FID":72,"Join_Count":2,"TARGET_FID":73,"Layer":"TEXT_PARCEL","Text":"140","vill_code":"531856","LGD_CODE":"531856"}},{"type":"Feature","id":73,"geometry":{"type":"Polygon","coordinates":[[[77.426700886088611,21.341822710441015],[77.426132554254622,21.342808638424543],[77.425272686402749,21.342749438192712],[77.425315969596511,21.342417084091956],[77.423848095984724,21.342279276603179],[77.423907967473326,21.341376018715117],[77.425756165554006,21.341442064816167],[77.426504997529321,21.341468818944538],[77.426783772220801,21.341478778169055],[77.426700886088611,21.341822710441015]]]},"properties":{"FID":73,"Join_Count":2,"TARGET_FID":74,"Layer":"TEXT_PARCEL","Text":"67","vill_code":"531856","LGD_CODE":"531856"}},{"type":"Feature","id":74,"geometry":{"type":"Polygon","coordinates":[[[77.449361604371305,21.342285012620955],[77.447947793329234,21.342510448644944],[77.447563093411944,21.340839707515151],[77.447723266077759,21.340513274222769],[77.448506845714462,21.338407770329002],[77.4485747800572,21.338402816174309],[77.449050366447963,21.338368132951008],[77.449481611421987,21.339310685397511],[77.449259032169564,21.339583018902754],[77.449009346555144,21.341675038190996],[77.449361604371305,21.342285012620955]]]},"properties":{"FID":74,"Join_Count":2,"TARGET_FID":75,"Layer":"TEXT_PARCEL","Text":"141","vill_code":"531856","LGD_CODE":"531856"}},{"type":"Feature","id":75,"geometry":{"type":"Polygon","coordinates":[[[77.441245799867389,21.342817485525195],[77.44037075241323,21.342858102196359],[77.44032916553698,21.341679947356806],[77.441607699463333,21.341234153440961],[77.441652812302408,21.341575483551573],[77.441488265498293,21.342162180567168],[77.441311790244512,21.342824129718242],[77.441245799867389,21.342817485525195]]]},"properties":{"FID":75,"Join_Count":2,"TARGET_FID":76,"Layer":"TEXT_PARCEL","Text":"80","vill_code":"531856","LGD_CODE":"531856"}},{"type":"Feature","id":76,"geometry":{"type":"Polygon","coordinates":[[[77.428292997067416,21.342526662789165],[77.428246071926694,21.343272520439029],[77.426607391231087,21.343060648438939],[77.426132554254622,21.342808638424543],[77.426700886088611,21.341822710441015],[77.426783772220801,21.341478778169055],[77.428355097482736,21.341534904415408],[77.428292997067416,21.342526662789165]]]},"properties":{"FID":76,"Join_Count":2,"TARGET_FID":77,"Layer":"TEXT_PARCEL","Text":"66","vill_code":"531856","LGD_CODE":"531856"}},{"type":"Feature","id":77,"geometry":{"type":"Polygon","coordinates":[[[77.432513339295014,21.343454982824525],[77.431947686967845,21.343497759317962],[77.430859625693458,21.342658281647058],[77.430105256724119,21.341632802578967],[77.431975195527215,21.339796812109007],[77.431944930963567,21.339410592905693],[77.43200633627859,21.339407724556953],[77.432664472703877,21.339702467804543],[77.433063873115444,21.339305265884541],[77.432987601690385,21.339778504336245],[77.432851887866562,21.340620558735854],[77.432371843032996,21.340791964433382],[77.432739997661713,21.341630007214832],[77.432169770800385,21.341671037986444],[77.432236538019779,21.342017723727743],[77.432513339295014,21.343454982824525]]]},"properties":{"FID":77,"Join_Count":2,"TARGET_FID":78,"Layer":"TEXT_PARCEL","Text":"72","vill_code":"531856","LGD_CODE":"531856"}},{"type":"Feature","id":78,"geometry":{"type":"Polygon","coordinates":[[[77.434469116739777,21.34384834902874],[77.432598185658904,21.343895536343219],[77.432513339295014,21.343454982824525],[77.432236538019779,21.342017723727743],[77.434615230256171,21.341946547586733],[77.434469116739777,21.34384834902874]]]},"properties":{"FID":78,"Join_Count":2,"TARGET_FID":79,"Layer":"TEXT_PARCEL","Text":"74","vill_code":"531856","LGD_CODE":"531856"}},{"type":"Feature","id":79,"geometry":{"type":"Polygon","coordinates":[[[77.435566524624051,21.340955761029839],[77.435207250232381,21.34392385424843],[77.434469116739777,21.34384834902874],[77.434615230256171,21.341946547586733],[77.434589603129098,21.341725471369497],[77.434833141392076,21.33990517026686],[77.432987601690385,21.339778504336245],[77.433063873115444,21.339305265884541],[77.433659656084828,21.338439944772087],[77.434485726525807,21.338475803336561],[77.435886695664948,21.33853660938183],[77.435675377443943,21.340956288932038],[77.435566524624051,21.340955761029839]]]},"properties":{"FID":79,"Join_Count":2,"TARGET_FID":80,"Layer":"TEXT_PARCEL","Text":"76","vill_code":"531856","LGD_CODE":"531856"}},{"type":"Feature","id":80,"geometry":{"type":"Polygon","coordinates":[[[77.445284772198093,21.343307320426103],[77.443005380542104,21.343825894048052],[77.44313789490171,21.341713466287814],[77.445192471151316,21.341859890378274],[77.445167110650345,21.340739166645168],[77.447723266077759,21.340513274222772],[77.447563093411944,21.340839707515151],[77.447947793329234,21.342510448644944],[77.446728927756226,21.342704790536171],[77.445590280863058,21.343217719958897],[77.445284772198093,21.343307320426103]]]},"properties":{"FID":80,"Join_Count":3,"TARGET_FID":81,"Layer":"TEXT_PARCEL","Text":"147","vill_code":"531856","LGD_CODE":"531856"}},{"type":"Feature","id":81,"geometry":{"type":"Polygon","coordinates":[[[77.423160743290538,21.343501145841515],[77.42192820226326,21.344229364869975],[77.421656770334536,21.343115911233102],[77.422036903308225,21.342074063994616],[77.423848095984724,21.342279276603179],[77.425315969596511,21.342417084091956],[77.425272686402749,21.342749438192712],[77.423160743290538,21.343501145841515]]]},"properties":{"FID":81,"Join_Count":2,"TARGET_FID":82,"Layer":"TEXT_PARCEL","Text":"56","vill_code":"531856","LGD_CODE":"531856"}},{"type":"Feature","id":82,"geometry":{"type":"Polygon","coordinates":[[[77.443005380542104,21.343825894048056],[77.442449867545363,21.343954301526349],[77.442392245147758,21.343425022185901],[77.441473207897531,21.343350522034836],[77.441311790244512,21.342824129718242],[77.441488265498293,21.342162180567168],[77.441652812302408,21.341575483551573],[77.442140309354983,21.340425562594501],[77.442062874298315,21.339380466446769],[77.442000111186132,21.338661551113457],[77.44199521261821,21.338625077492615],[77.443261250087005,21.338663900975138],[77.443241634833015,21.339717497543006],[77.44313789490171,21.341713466287814],[77.443005380542104,21.343825894048056]]]},"properties":{"FID":82,"Join_Count":2,"TARGET_FID":83,"Layer":"TEXT_PARCEL","Text":"150","vill_code":"531856","LGD_CODE":"531856"}},{"type":"Feature","id":83,"geometry":{"type":"Polygon","coordinates":[[[77.431947686967845,21.343497759317962],[77.43174093751179,21.344190064203911],[77.431363066919943,21.34401903801767],[77.42845206076872,21.343513790056903],[77.428335142495712,21.343423162727166],[77.428246071926694,21.343272520439029],[77.428292997067416,21.342526662789165],[77.429702677320037,21.342022655848048],[77.430105256724119,21.341632802578967],[77.430859625693458,21.342658281647058],[77.431947686967845,21.343497759317962]]]},"properties":{"FID":83,"Join_Count":2,"TARGET_FID":84,"Layer":"TEXT_PARCEL","Text":"65","vill_code":"531856","LGD_CODE":"531856"}},{"type":"Feature","id":84,"geometry":{"type":"Polygon","coordinates":[[[77.436579364158675,21.342136571648464],[77.43665308025848,21.344162119720089],[77.436458051667458,21.344164334628999],[77.435207250232381,21.34392385424843],[77.435566524624051,21.340955761029839],[77.435675377443943,21.340956288932038],[77.437461977622775,21.340964931978409],[77.438033997523618,21.340967695324114],[77.438104040369737,21.342088904482335],[77.436579364158675,21.342136571648464]]]},"properties":{"FID":84,"Join_Count":2,"TARGET_FID":85,"Layer":"TEXT_PARCEL","Text":"77","vill_code":"531856","LGD_CODE":"531856"}},{"type":"Feature","id":85,"geometry":{"type":"Polygon","coordinates":[[[77.439096109524343,21.344055670650778],[77.43665308025848,21.344162119720089],[77.436579364158675,21.342136571648464],[77.438104040369737,21.342088904482335],[77.438898577344546,21.342068702355451],[77.4392828144437,21.342717219619527],[77.439096109524343,21.344055670650778]]]},"properties":{"FID":85,"Join_Count":2,"TARGET_FID":86,"Layer":"TEXT_PARCEL","Text":"78","vill_code":"531856","LGD_CODE":"531856"}},{"type":"Feature","id":86,"geometry":{"type":"Polygon","coordinates":[[[77.420934202007032,21.343205607590971],[77.421239571434043,21.344570744114236],[77.419977687702172,21.344379276781407],[77.420034815592061,21.341847198605091],[77.422036903308225,21.342074063994616],[77.421656770334536,21.343115911233102],[77.420934202007032,21.343205607590971]]]},"properties":{"FID":86,"Join_Count":2,"TARGET_FID":87,"Layer":"TEXT_PARCEL","Text":"54","vill_code":"531856","LGD_CODE":"531856"}},{"type":"Feature","id":87,"geometry":{"type":"Polygon","coordinates":[[[77.42192820226326,21.344229364869975],[77.421273650845663,21.3446325658192],[77.421239571434043,21.344570744114236],[77.420934202007032,21.343205607590971],[77.421656770334536,21.343115911233102],[77.42192820226326,21.344229364869975]]]},"properties":{"FID":87,"Join_Count":2,"TARGET_FID":88,"Layer":"TEXT_PARCEL","Text":"55","vill_code":"531856","LGD_CODE":"531856"}},{"type":"Feature","id":88,"geometry":{"type":"Polygon","coordinates":[[[77.42673371078051,21.344565644683012],[77.426571576950707,21.344624731294893],[77.424683283080299,21.344629979398405],[77.425312768175843,21.344101425712015],[77.426132554254622,21.342808638424543],[77.426607391231087,21.343060648438939],[77.428246071926694,21.343272520439029],[77.427412554019838,21.343752008550794],[77.427308227184952,21.344246039525654],[77.426896851353348,21.344506190329636],[77.42673371078051,21.344565644683012]]]},"properties":{"FID":88,"Join_Count":2,"TARGET_FID":89,"Layer":"TEXT_PARCEL","Text":"63","vill_code":"531856","LGD_CODE":"531856"}},{"type":"Feature","id":89,"geometry":{"type":"Polygon","coordinates":[[[77.441245799867389,21.342817485525195],[77.440449171110103,21.344583939504769],[77.439875055466359,21.344527519230759],[77.439203399467772,21.344518371433217],[77.439031891657834,21.344516035584867],[77.439096109524343,21.344055670650778],[77.4392828144437,21.342717219619527],[77.438898577344546,21.342068702355451],[77.438104040369737,21.342088904482335],[77.438033997523618,21.340967695324114],[77.438345296876292,21.340961558851909],[77.440291658814616,21.340923174625857],[77.44032916553698,21.341679947356806],[77.44037075241323,21.342858102196359],[77.441245799867389,21.342817485525195]]]},"properties":{"FID":89,"Join_Count":2,"TARGET_FID":90,"Layer":"TEXT_PARCEL","Text":"79","vill_code":"531856","LGD_CODE":"531856"}},{"type":"Feature","id":90,"geometry":{"type":"Polygon","coordinates":[[[77.424683283080299,21.344629979398405],[77.424337307284887,21.34484844345128],[77.423320183975562,21.344663576314321],[77.423160743290538,21.343501145841515],[77.425272686402749,21.342749438192712],[77.426132554254622,21.342808638424543],[77.425312768175843,21.344101425712015],[77.424683283080299,21.344629979398405]]]},"properties":{"FID":90,"Join_Count":2,"TARGET_FID":91,"Layer":"TEXT_PARCEL","Text":"57","vill_code":"531856","LGD_CODE":"531856"}},{"type":"Feature","id":91,"geometry":{"type":"Polygon","coordinates":[[[77.450602463268908,21.342381815320284],[77.447663708758654,21.344892874029131],[77.447901998986453,21.343341224762522],[77.44760389818866,21.342823958521215],[77.447947793329234,21.342510448644944],[77.449361604371305,21.342285012620955],[77.450602463268908,21.342381815320284]]]},"properties":{"FID":91,"Join_Count":2,"TARGET_FID":92,"Layer":"TEXT_PARCEL","Text":"148","vill_code":"531856","LGD_CODE":"531856"}},{"type":"Feature","id":92,"geometry":{"type":"Polygon","coordinates":[[[77.430564922611495,21.34520116692282],[77.428754093449953,21.345364397202083],[77.42845206076872,21.343513790056903],[77.431363066919943,21.34401903801767],[77.43174093751179,21.344190064203911],[77.431570358516211,21.344712091478943],[77.430564922611495,21.34520116692282]]]},"properties":{"FID":92,"Join_Count":2,"TARGET_FID":93,"Layer":"TEXT_PARCEL","Text":"64","vill_code":"531856","LGD_CODE":"531856"}},{"type":"Feature","id":93,"geometry":{"type":"Polygon","coordinates":[[[77.43665308025848,21.344162119720089],[77.436556290408561,21.345694164686247],[77.434723010886614,21.345445071102166],[77.431865094907835,21.345056713932454],[77.431570358516211,21.344712091478943],[77.43174093751179,21.344190064203911],[77.431947686967845,21.343497759317962],[77.432513339295014,21.343454982824525],[77.432598185658904,21.343895536343219],[77.434469116739777,21.34384834902874],[77.435207250232381,21.34392385424843],[77.436458051667458,21.344164334628999],[77.43665308025848,21.344162119720089]]]},"properties":{"FID":93,"Join_Count":2,"TARGET_FID":94,"Layer":"TEXT_PARCEL","Text":"75","vill_code":"531856","LGD_CODE":"531856"}},{"type":"Feature","id":94,"geometry":{"type":"Polygon","coordinates":[[[77.438485540022469,21.345435152792462],[77.437515853214251,21.345879544911398],[77.436556290408561,21.345694164686247],[77.43665308025848,21.344162119720089],[77.439096109524343,21.344055670650778],[77.439031891657834,21.344516035584867],[77.439203399467772,21.344518371433217],[77.439029667453852,21.345255794245631],[77.438485540022469,21.345435152792462]]]},"properties":{"FID":94,"Join_Count":2,"TARGET_FID":95,"Layer":"TEXT_PARCEL","Text":"36","vill_code":"531856","LGD_CODE":"531856"}},{"type":"Feature","id":95,"geometry":{"type":"Polygon","coordinates":[[[77.447663708758654,21.344892874029131],[77.44654625945229,21.345874260248809],[77.446039821857468,21.345819742385235],[77.445227760555966,21.345700179730208],[77.445070658543656,21.344518717605428],[77.445529840195775,21.344440327484055],[77.445558038246148,21.343869928334804],[77.445590280863058,21.343217719958901],[77.446728927756226,21.342704790536171],[77.447947793329234,21.342510448644944],[77.44760389818866,21.342823958521215],[77.447901998986453,21.343341224762522],[77.447663708758654,21.344892874029131]]]},"properties":{"FID":95,"Join_Count":2,"TARGET_FID":96,"Layer":"TEXT_PARCEL","Text":"149","vill_code":"531856","LGD_CODE":"531856"}},{"type":"Feature","id":96,"geometry":{"type":"Polygon","coordinates":[[[77.42652228216707,21.346050614222978],[77.425081925991051,21.346217977786367],[77.424683283080299,21.344629979398405],[77.426571576950707,21.344624731294893],[77.42673371078051,21.344565644683012],[77.42652228216707,21.346050614222978]]]},"properties":{"FID":96,"Join_Count":3,"TARGET_FID":97,"Layer":"TEXT_PARCEL","Text":"61","vill_code":"531856","LGD_CODE":"531856"}},{"type":"Feature","id":97,"geometry":{"type":"Polygon","coordinates":[[[77.425081925991051,21.346217977786367],[77.423807552935997,21.34636604496313],[77.424250179755774,21.345002730726993],[77.424337307284887,21.34484844345128],[77.424683283080299,21.344629979398405],[77.425081925991051,21.346217977786367]]]},"properties":{"FID":97,"Join_Count":2,"TARGET_FID":98,"Layer":"TEXT_PARCEL","Text":"60","vill_code":"531856","LGD_CODE":"531856"}},{"type":"Feature","id":98,"geometry":{"type":"Polygon","coordinates":[[[77.42652228216707,21.346050614222978],[77.426472659916385,21.34639913482356],[77.425092171334299,21.346299751675524],[77.425081925991051,21.346217977786367],[77.42652228216707,21.346050614222978]]]},"properties":{"FID":98,"Join_Count":2,"TARGET_FID":99,"Layer":"TEXT_PARCEL","Text":"तल\u093Eव","vill_code":"531856","LGD_CODE":"531856"}},{"type":"Feature","id":99,"geometry":{"type":"Polygon","coordinates":[[[77.428460008311731,21.346369819251823],[77.427396986492582,21.34638768203251],[77.426472659916385,21.34639913482356],[77.42652228216707,21.346050614222978],[77.42673371078051,21.344565644683012],[77.426896851353348,21.344506190329636],[77.427308227184952,21.344246039525654],[77.427412554019838,21.343752008550794],[77.428246071926694,21.343272520439029],[77.428335142495712,21.343423162727166],[77.42845206076872,21.343513790056903],[77.428754093449953,21.345364397202083],[77.428909371522195,21.346364136837433],[77.428460008311731,21.346369819251823]]]},"properties":{"FID":99,"Join_Count":2,"TARGET_FID":100,"Layer":"TEXT_PARCEL","Text":"62","vill_code":"531856","LGD_CODE":"531856"}},{"type":"Feature","id":100,"geometry":{"type":"Polygon","coordinates":[[[77.431042288282498,21.346049934522949],[77.430730827819914,21.346347752806953],[77.429164852420399,21.346329411950229],[77.428909371522195,21.346364136837433],[77.428754093449953,21.345364397202083],[77.430564922611495,21.34520116692282],[77.431570358516211,21.344712091478943],[77.431865094907835,21.345056713932454],[77.432002150046984,21.345715744733212],[77.432041467279589,21.345879468036863],[77.431042288282498,21.346049934522949]]]},"properties":{"FID":100,"Join_Count":2,"TARGET_FID":101,"Layer":"TEXT_PARCEL","Text":"39","vill_code":"531856","LGD_CODE":"531856"}},{"type":"Feature","id":101,"geometry":{"type":"Polygon","coordinates":[[[77.446039821857468,21.345819742385235],[77.445918432448011,21.346283462864861],[77.444029187709646,21.346032535244905],[77.443455297656726,21.345956307247505],[77.443746355263428,21.345642056739621],[77.443808828065926,21.344933371175031],[77.443005380542104,21.343825894048056],[77.445284772198093,21.343307320426106],[77.445590280863058,21.343217719958901],[77.445558038246148,21.343869928334804],[77.445529840195775,21.344440327484055],[77.445070658543656,21.344518717605428],[77.445227760555966,21.345700179730208],[77.446039821857468,21.345819742385235]]]},"properties":{"FID":101,"Join_Count":2,"TARGET_FID":102,"Layer":"TEXT_PARCEL","Text":"1","vill_code":"531856","LGD_CODE":"531856"}},{"type":"Feature","id":102,"geometry":{"type":"Polygon","coordinates":[[[77.42020784839282,21.346326888011845],[77.418847218187281,21.346764747309184],[77.417691878884725,21.346636722305909],[77.417786330093094,21.345510816473354],[77.418737304084033,21.345415787752344],[77.418951826594892,21.344294201086676],[77.419977687702172,21.344379276781407],[77.421239571434043,21.344570744114236],[77.421273650845663,21.3446325658192],[77.42146540144013,21.345206076761574],[77.420749838462029,21.345428633275496],[77.42020784839282,21.346326888011845]]]},"properties":{"FID":102,"Join_Count":2,"TARGET_FID":103,"Layer":"TEXT_PARCEL","Text":"53","vill_code":"531856","LGD_CODE":"531856"}},{"type":"Feature","id":103,"geometry":{"type":"Polygon","coordinates":[[[77.439918237168186,21.345540173329415],[77.439990262044589,21.346602673790301],[77.439868072929556,21.346474645299388],[77.439699183004137,21.346182178828045],[77.439122123102152,21.345759505372719],[77.439029667453852,21.345255794245631],[77.439203399467772,21.344518371433217],[77.439875055466359,21.344527519230759],[77.440449171110103,21.344583939504769],[77.439918237168186,21.345540173329415]]]},"properties":{"FID":103,"Join_Count":2,"TARGET_FID":104,"Layer":"TEXT_PARCEL","Text":"34","vill_code":"531856","LGD_CODE":"531856"}},{"type":"Feature","id":104,"geometry":{"type":"Polygon","coordinates":[[[77.440937449898101,21.346532449213676],[77.439990262044589,21.346602673790301],[77.439918237168186,21.345540173329415],[77.440449171110103,21.344583939504769],[77.440562437510437,21.34588560553788],[77.440937449898101,21.346532449213676]]]},"properties":{"FID":104,"Join_Count":3,"TARGET_FID":105,"Layer":"TEXT_PARCEL","Text":"न.","vill_code":"531856","LGD_CODE":"531856"}},{"type":"Feature","id":105,"geometry":{"type":"Polygon","coordinates":[[[77.423807552935997,21.34636604496313],[77.423472216337217,21.347375905704677],[77.422080543665828,21.347045873405598],[77.42146540144013,21.345206076761574],[77.421273650845663,21.3446325658192],[77.42192820226326,21.344229364869975],[77.423160743290538,21.343501145841515],[77.423320183975562,21.344663576314321],[77.424337307284887,21.34484844345128],[77.424250179755774,21.345002730726993],[77.423807552935997,21.34636604496313]]]},"properties":{"FID":105,"Join_Count":2,"TARGET_FID":106,"Layer":"TEXT_PARCEL","Text":"58","vill_code":"531856","LGD_CODE":"531856"}},{"type":"Feature","id":106,"geometry":{"type":"Polygon","coordinates":[[[77.439001769674107,21.346928798826113],[77.437655936043114,21.34755213170552],[77.437515853214251,21.345879544911398],[77.438485540022469,21.345435152792462],[77.439029667453852,21.345255794245631],[77.439122123102152,21.345759505372719],[77.439699183004137,21.346182178828045],[77.439868072929556,21.346474645299388],[77.439001769674107,21.346928798826113]]]},"properties":{"FID":106,"Join_Count":2,"TARGET_FID":107,"Layer":"TEXT_PARCEL","Text":"35","vill_code":"531856","LGD_CODE":"531856"}},{"type":"Feature","id":107,"geometry":{"type":"Polygon","coordinates":[[[77.426472659916385,21.34639913482356],[77.4270672325204,21.348005381634369],[77.42564411192798,21.347381296607612],[77.425623197123087,21.347816517855343],[77.423472216337217,21.347375905704677],[77.423807552935997,21.34636604496313],[77.425081925991051,21.346217977786367],[77.425092171334299,21.346299751675524],[77.426472659916385,21.34639913482356]]]},"properties":{"FID":107,"Join_Count":2,"TARGET_FID":108,"Layer":"TEXT_PARCEL","Text":"तल\u093Eव","vill_code":"531856","LGD_CODE":"531856"}},{"type":"Feature","id":108,"geometry":{"type":"Polygon","coordinates":[[[77.441612511475114,21.347645887849247],[77.440128162279365,21.347893662588415],[77.44003517260343,21.346668955655211],[77.439990262044589,21.346602673790301],[77.440937449898101,21.346532449213676],[77.441612511475114,21.347645887849247]]]},"properties":{"FID":108,"Join_Count":2,"TARGET_FID":109,"Layer":"TEXT_PARCEL","Text":"32","vill_code":"531856","LGD_CODE":"531856"}},{"type":"Feature","id":109,"geometry":{"type":"Polygon","coordinates":[[[77.445073114784222,21.34678034022377],[77.444325572412879,21.3478685669687],[77.443988535042863,21.347844723367334],[77.443887044784802,21.347213925692742],[77.444029187709646,21.346032535244905],[77.445918432448011,21.346283462864861],[77.445073114784222,21.34678034022377]]]},"properties":{"FID":109,"Join_Count":2,"TARGET_FID":110,"Layer":"TEXT_PARCEL","Text":"2","vill_code":"531856","LGD_CODE":"531856"}},{"type":"Feature","id":110,"geometry":{"type":"Polygon","coordinates":[[[77.445309306344029,21.347587557612634],[77.445152886733439,21.347930662254083],[77.444325572412879,21.3478685669687],[77.445073114784222,21.34678034022377],[77.445918432448011,21.346283462864861],[77.446039821857468,21.345819742385235],[77.44654625945229,21.345874260248809],[77.445309306344029,21.347587557612634]]]},"properties":{"FID":110,"Join_Count":2,"TARGET_FID":111,"Layer":"TEXT_PARCEL","Text":"3","vill_code":"531856","LGD_CODE":"531856"}},{"type":"Feature","id":111,"geometry":{"type":"Polygon","coordinates":[[[77.430833165894327,21.347804181130581],[77.430545214138689,21.348156249017357],[77.428462100577107,21.348160665073493],[77.428460008311731,21.346369819251823],[77.428909371522195,21.346364136837433],[77.429164852420399,21.346329411950229],[77.430730827819914,21.346347752806953],[77.431042288282498,21.346049934522949],[77.432041467279589,21.345879468036863],[77.432173680765047,21.346430020735248],[77.431779243915557,21.346664650574006],[77.431667459021824,21.347782625244179],[77.430833165894327,21.347804181130581]]]},"properties":{"FID":111,"Join_Count":2,"TARGET_FID":112,"Layer":"TEXT_PARCEL","Text":"40","vill_code":"531856","LGD_CODE":"531856"}},{"type":"Feature","id":112,"geometry":{"type":"Polygon","coordinates":[[[77.443156009462285,21.347853406650696],[77.442709168522896,21.348113840835378],[77.442640294462635,21.348062514093108],[77.442029511690805,21.347956842460952],[77.441749925194785,21.347892739933535],[77.441612511475114,21.347645887849247],[77.440937449898101,21.346532449213676],[77.440562437510437,21.34588560553788],[77.440449171110103,21.344583939504769],[77.441245799867389,21.342817485525195],[77.441311790244512,21.342824129718242],[77.441473207897531,21.343350522034836],[77.442392245147758,21.343425022185901],[77.442449867545363,21.343954301526349],[77.443005380542104,21.343825894048056],[77.443808828065926,21.344933371175031],[77.443746355263428,21.345642056739621],[77.443455297656726,21.345956307247505],[77.444029187709646,21.346032535244905],[77.443887044784802,21.347213925692742],[77.443295990146183,21.347226955405844],[77.443156009462285,21.347853406650696]]]},"properties":{"FID":112,"Join_Count":2,"TARGET_FID":113,"Layer":"TEXT_PARCEL","Text":"ग\u093E\u0902वठ\u093Eण","vill_code":"531856","LGD_CODE":"531856"}},{"type":"Feature","id":113,"geometry":{"type":"Polygon","coordinates":[[[77.427396986492582,21.34638768203251],[77.427819738628926,21.348335372850322],[77.4270672325204,21.348005381634369],[77.426472659916385,21.34639913482356],[77.427396986492582,21.34638768203251]]]},"properties":{"FID":113,"Join_Count":2,"TARGET_FID":114,"Layer":"TEXT_PARCEL","Text":"तल\u093Eव","vill_code":"531856","LGD_CODE":"531856"}},{"type":"Feature","id":114,"geometry":{"type":"Polygon","coordinates":[[[77.440154476264411,21.348240220530705],[77.439941457933273,21.348258723722246],[77.439733399766837,21.347979903715135],[77.439423554909723,21.347954787148073],[77.439365045882724,21.347704754933474],[77.438537399211498,21.347441838289559],[77.438890455943195,21.347199770949768],[77.439001769674107,21.346928798826113],[77.439868072929556,21.346474645299388],[77.439990262044589,21.346602673790301],[77.44003517260343,21.346668955655211],[77.440128162279365,21.347893662588415],[77.440154476264411,21.348240220530705]]]},"properties":{"FID":114,"Join_Count":2,"TARGET_FID":115,"Layer":"TEXT_PARCEL","Text":"33","vill_code":"531856","LGD_CODE":"531856"}},{"type":"Feature","id":115,"geometry":{"type":"Polygon","coordinates":[[[77.436221839670097,21.3481619003263],[77.434777591930214,21.348775968185269],[77.434755357915392,21.34690166736597],[77.434723010886614,21.345445071102166],[77.436556290408561,21.345694164686247],[77.437515853214251,21.345879544911398],[77.437655936043114,21.34755213170552],[77.436221839670097,21.3481619003263]]]},"properties":{"FID":115,"Join_Count":2,"TARGET_FID":116,"Layer":"TEXT_PARCEL","Text":"37","vill_code":"531856","LGD_CODE":"531856"}},{"type":"Feature","id":116,"geometry":{"type":"Polygon","coordinates":[[[77.441114742151242,21.348907736993237],[77.439706501845336,21.348958517214001],[77.439727943674399,21.348692254581405],[77.439941457933273,21.348258723722246],[77.440154476264411,21.348240220530705],[77.440128162279365,21.347893662588415],[77.441612511475114,21.347645887849247],[77.441749925194785,21.347892739933535],[77.442029511690805,21.347956842460952],[77.442013041432858,21.348329823876831],[77.441901436257353,21.348402379621028],[77.441805805817594,21.348882814071047],[77.441114742151242,21.348907736993237]]]},"properties":{"FID":116,"Join_Count":2,"TARGET_FID":117,"Layer":"TEXT_PARCEL","Text":"31","vill_code":"531856","LGD_CODE":"531856"}},{"type":"Feature","id":117,"geometry":{"type":"Polygon","coordinates":[[[77.44250903015606,21.348553373999021],[77.442375492123048,21.349573408917571],[77.441917817861238,21.349519077568093],[77.442117726704538,21.348525733846472],[77.44250903015606,21.348553373999021]]]},"properties":{"FID":117,"Join_Count":2,"TARGET_FID":118,"Layer":"TEXT_PARCEL","Text":"6","vill_code":"531856","LGD_CODE":"531856"}},{"type":"Feature","id":118,"geometry":{"type":"Polygon","coordinates":[[[77.425623197123087,21.347816517855343],[77.425521268786724,21.349937572071468],[77.422708081385821,21.349854337600974],[77.422217733567621,21.347457377852582],[77.422080543665828,21.347045873405598],[77.423472216337217,21.347375905704677],[77.425623197123087,21.347816517855343]]]},"properties":{"FID":118,"Join_Count":2,"TARGET_FID":119,"Layer":"TEXT_PARCEL","Text":"तल\u093Eव","vill_code":"531856","LGD_CODE":"531856"}},{"type":"Feature","id":119,"geometry":{"type":"Polygon","coordinates":[[[77.444220308521139,21.348729661546766],[77.44376636376181,21.349772642336688],[77.443233479431328,21.349734930587342],[77.442709168522896,21.348113840835378],[77.443156009462285,21.347853406650696],[77.443295990146183,21.347226955405844],[77.443887044784802,21.347213925692742],[77.443988535042863,21.347844723367334],[77.444325572412879,21.3478685669687],[77.444114189816375,21.348272190092459],[77.444220308521139,21.348729661546766]]]},"properties":{"FID":119,"Join_Count":2,"TARGET_FID":120,"Layer":"TEXT_PARCEL","Text":"4","vill_code":"531856","LGD_CODE":"531856"}},{"type":"Feature","id":120,"geometry":{"type":"Polygon","coordinates":[[[77.418537711911355,21.349346291490473],[77.416465180264368,21.350170394198962],[77.416470637165901,21.350090331140123],[77.415703392912036,21.349838582695586],[77.416155016062106,21.346922948290153],[77.416916222170968,21.346963304142374],[77.416940081012726,21.346631842507154],[77.417691878884725,21.346636722305909],[77.418847218187281,21.346764747309184],[77.42020784839282,21.346326888011845],[77.419040306335631,21.34826185038834],[77.418537711911355,21.349346291490473]]]},"properties":{"FID":120,"Join_Count":2,"TARGET_FID":121,"Layer":"TEXT_PARCEL","Text":"49","vill_code":"531856","LGD_CODE":"531856"}},{"type":"Feature","id":121,"geometry":{"type":"Polygon","coordinates":[[[77.427852204472146,21.348484942870353],[77.427899566052105,21.350007902977016],[77.425521268786724,21.349937572071468],[77.425623197123087,21.347816517855343],[77.42564411192798,21.347381296607612],[77.4270672325204,21.348005381634369],[77.427819738628926,21.348335372850322],[77.427852204472146,21.348484942870353]]]},"properties":{"FID":121,"Join_Count":2,"TARGET_FID":122,"Layer":"TEXT_PARCEL","Text":"तल\u093Eव","vill_code":"531856","LGD_CODE":"531856"}},{"type":"Feature","id":122,"geometry":{"type":"Polygon","coordinates":[[[77.433914123726353,21.349169822451064],[77.431987132892075,21.350048759850537],[77.431907543138749,21.348435900013314],[77.431635855484217,21.34820647204128],[77.431667459021824,21.347782625244179],[77.431779243915557,21.346664650574002],[77.432173680765047,21.346430020735248],[77.432041467279589,21.345879468036863],[77.432002150046984,21.345715744733212],[77.431865094907835,21.345056713932454],[77.434723010886614,21.345445071102166],[77.434755357915392,21.346901667365973],[77.434777591930214,21.348775968185269],[77.433914123726353,21.349169822451064]]]},"properties":{"FID":122,"Join_Count":4,"TARGET_FID":123,"Layer":"TEXT_PARCEL","Text":"38","vill_code":"531856","LGD_CODE":"531856"}},{"type":"Feature","id":123,"geometry":{"type":"Polygon","coordinates":[[[77.430380741437318,21.350109296384829],[77.430305215613416,21.350111765746821],[77.430545214138689,21.348156249017357],[77.430833165894327,21.347804181130577],[77.431667459021824,21.347782625244179],[77.431635855484217,21.34820647204128],[77.431907543138749,21.348435900013314],[77.431987132892075,21.350048759850537],[77.430562159203177,21.350103361743795],[77.430380741437318,21.350109296384829]]]},"properties":{"FID":123,"Join_Count":3,"TARGET_FID":124,"Layer":"TEXT_PARCEL","Text":"41","vill_code":"531856","LGD_CODE":"531856"}},{"type":"Feature","id":124,"geometry":{"type":"Polygon","coordinates":[[[77.430305215613416,21.350111765746821],[77.427902860106812,21.350190323424187],[77.427899566052105,21.350007902977016],[77.427852204472146,21.348484942870353],[77.427819738628926,21.348335372850322],[77.427396986492582,21.34638768203251],[77.428460008311731,21.346369819251823],[77.428462100577107,21.348160665073493],[77.430545214138689,21.348156249017357],[77.430305215613416,21.350111765746821]]]},"properties":{"FID":124,"Join_Count":2,"TARGET_FID":125,"Layer":"TEXT_PARCEL","Text":"43","vill_code":"531856","LGD_CODE":"531856"}},{"type":"Feature","id":125,"geometry":{"type":"Polygon","coordinates":[[[77.421190318684154,21.349022141126046],[77.419540671942642,21.350668338380043],[77.418361596961901,21.350023547998337],[77.418537711911355,21.349346291490473],[77.419040306335631,21.34826185038834],[77.419855977832768,21.348494090414427],[77.420981284919492,21.348170660387726],[77.421190318684154,21.349022141126046]]]},"properties":{"FID":125,"Join_Count":2,"TARGET_FID":126,"Layer":"TEXT_PARCEL","Text":"50","vill_code":"531856","LGD_CODE":"531856"}},{"type":"Feature","id":126,"geometry":{"type":"Polygon","coordinates":[[[77.439115430986377,21.350587910332344],[77.437487573491154,21.350944159579797],[77.437276309199291,21.349457609209136],[77.436135272810091,21.349585311345471],[77.436221839670097,21.3481619003263],[77.437655936043114,21.34755213170552],[77.439001769674107,21.346928798826113],[77.438890455943195,21.347199770949768],[77.438537399211498,21.347441838289559],[77.439365045882724,21.347704754933474],[77.439423554909723,21.347954787148073],[77.439733399766837,21.347979903715135],[77.439941457933273,21.348258723722246],[77.439727943674399,21.348692254581405],[77.439706501845336,21.348958517214001],[77.439582122470767,21.349575601556833],[77.439118797724646,21.350538486945894],[77.439115430986377,21.350587910332344]]]},"properties":{"FID":126,"Join_Count":2,"TARGET_FID":127,"Layer":"TEXT_PARCEL","Text":"29","vill_code":"531856","LGD_CODE":"531856"}},{"type":"Feature","id":127,"geometry":{"type":"Polygon","coordinates":[[[77.443037363899506,21.350899258145191],[77.442129697313746,21.350931077770102],[77.441704291447223,21.349874182163234],[77.441533601437698,21.349872183311547],[77.441486961676162,21.349508358795678],[77.441064544158039,21.349466721194737],[77.441114742151242,21.348907736993237],[77.441805805817594,21.348882814071047],[77.441901436257353,21.348402379621028],[77.442013041432858,21.348329823876831],[77.442029511690805,21.347956842460952],[77.442640294462635,21.348062514093108],[77.442709168522896,21.348113840835378],[77.443233479431328,21.349734930587342],[77.443037363899506,21.350899258145191]],[[77.441917817861238,21.349519077568093],[77.442375492123048,21.349573408917571],[77.44250903015606,21.348553373999021],[77.442117726704538,21.348525733846472],[77.441917817861238,21.349519077568093]]]},"properties":{"FID":127,"Join_Count":2,"TARGET_FID":128,"Layer":"TEXT_PARCEL","Text":"5","vill_code":"531856","LGD_CODE":"531856"}},{"type":"Feature","id":128,"geometry":{"type":"Polygon","coordinates":[[[77.442129697313746,21.350931077770102],[77.4408347332906,21.351040969697586],[77.439108070121279,21.35069595976961],[77.439115430986377,21.350587910332344],[77.439118797724646,21.350538486945894],[77.439582122470767,21.349575601556833],[77.439706501845336,21.348958517214001],[77.441114742151242,21.348907736993237],[77.441064544158039,21.349466721194737],[77.441486961676162,21.349508358795678],[77.441533601437698,21.349872183311547],[77.441704291447223,21.349874182163234],[77.442129697313746,21.350931077770102]]]},"properties":{"FID":128,"Join_Count":2,"TARGET_FID":129,"Layer":"TEXT_PARCEL","Text":"30","vill_code":"531856","LGD_CODE":"531856"}},{"type":"Feature","id":129,"geometry":{"type":"Polygon","coordinates":[[[77.437487573491154,21.350944159579797],[77.436139499916393,21.351247070398976],[77.435931810606931,21.349796258225002],[77.435929978195105,21.349608286214963],[77.436135272810091,21.349585311345471],[77.437276309199291,21.349457609209136],[77.437487573491154,21.350944159579797]]]},"properties":{"FID":129,"Join_Count":2,"TARGET_FID":130,"Layer":"TEXT_PARCEL","Text":"28","vill_code":"531856","LGD_CODE":"531856"}},{"type":"Feature","id":130,"geometry":{"type":"Polygon","coordinates":[[[77.436139499916393,21.351247070398976],[77.434268324953479,21.351549014065359],[77.433914123726353,21.349169822451064],[77.434777591930214,21.348775968185269],[77.436221839670097,21.3481619003263],[77.436135272810091,21.349585311345471],[77.435929978195105,21.349608286214963],[77.435931810606931,21.349796258225002],[77.436139499916393,21.351247070398976]]]},"properties":{"FID":130,"Join_Count":3,"TARGET_FID":131,"Layer":"TEXT_PARCEL","Text":"27","vill_code":"531856","LGD_CODE":"531856"}},{"type":"Feature","id":131,"geometry":{"type":"Polygon","coordinates":[[[77.423056757542952,21.351611651251051],[77.422227045553413,21.351945440643533],[77.421190318684154,21.349022141126046],[77.420981284919492,21.348170660387726],[77.419855977832768,21.348494090414427],[77.419040306335631,21.34826185038834],[77.42020784839282,21.346326888011845],[77.420749838462029,21.345428633275496],[77.42146540144013,21.345206076761574],[77.422080543665828,21.347045873405598],[77.422217733567621,21.347457377852582],[77.422708081385821,21.349854337600974],[77.423056757542952,21.351611651251051]]]},"properties":{"FID":131,"Join_Count":2,"TARGET_FID":132,"Layer":"TEXT_PARCEL","Text":"52","vill_code":"531856","LGD_CODE":"531856"}},{"type":"Feature","id":132,"geometry":{"type":"Polygon","coordinates":[[[77.421943592041998,21.352059470984099],[77.420756863857349,21.352208907522417],[77.419077369102581,21.351130662970125],[77.419540671942642,21.350668338380043],[77.421190318684154,21.349022141126046],[77.422227045553413,21.351945440643533],[77.421943592041998,21.352059470984099]]]},"properties":{"FID":132,"Join_Count":2,"TARGET_FID":133,"Layer":"TEXT_PARCEL","Text":"51","vill_code":"531856","LGD_CODE":"531856"}},{"type":"Feature","id":133,"geometry":{"type":"Polygon","coordinates":[[[77.43905018893166,21.352030456764609],[77.437771078606303,21.352065162094092],[77.437531092759798,21.351194421002436],[77.437487573491154,21.350944159579797],[77.439115430986377,21.350587910332344],[77.439108070121279,21.35069595976961],[77.43905018893166,21.352030456764609]]]},"properties":{"FID":133,"Join_Count":2,"TARGET_FID":134,"Layer":"TEXT_PARCEL","Text":"10","vill_code":"531856","LGD_CODE":"531856"}},{"type":"Feature","id":134,"geometry":{"type":"Polygon","coordinates":[[[77.425521268786724,21.349937572071468],[77.42540582086896,21.352497893777507],[77.425111332918561,21.352435946383419],[77.423056757542952,21.351611651251051],[77.422708081385821,21.349854337600974],[77.425521268786724,21.349937572071468]]]},"properties":{"FID":134,"Join_Count":2,"TARGET_FID":135,"Layer":"TEXT_PARCEL","Text":"59","vill_code":"531856","LGD_CODE":"531856"}},{"type":"Feature","id":135,"geometry":{"type":"Polygon","coordinates":[[[77.417583416872219,21.351897039045298],[77.417220986837847,21.352624379972792],[77.41629815511584,21.352621300524763],[77.416465180264368,21.350170394198962],[77.418537711911355,21.349346291490473],[77.418361596961901,21.350023547998337],[77.417908648347165,21.351765356838101],[77.417583416872219,21.351897039045298]]]},"properties":{"FID":135,"Join_Count":2,"TARGET_FID":136,"Layer":"TEXT_PARCEL","Text":"48","vill_code":"531856","LGD_CODE":"531856"}},{"type":"Feature","id":136,"geometry":{"type":"Polygon","coordinates":[[[77.430967680903834,21.35264304496248],[77.429570072565795,21.352786380160595],[77.429667172283288,21.352144115657033],[77.430305215613416,21.350111765746821],[77.430380741437318,21.350109296384833],[77.430562159203177,21.350103361743798],[77.431987132892075,21.350048759850537],[77.433914123726353,21.349169822451064],[77.434268324953479,21.351549014065359],[77.43091705163809,21.35257582392931],[77.430967680903834,21.35264304496248]]]},"properties":{"FID":136,"Join_Count":2,"TARGET_FID":137,"Layer":"TEXT_PARCEL","Text":"26","vill_code":"531856","LGD_CODE":"531856"}},{"type":"Feature","id":137,"geometry":{"type":"Polygon","coordinates":[[[77.429667172283288,21.352144115657033],[77.427951125202839,21.352863538843135],[77.427902860106812,21.350190323424187],[77.430305215613416,21.350111765746821],[77.429667172283288,21.352144115657033]]]},"properties":{"FID":137,"Join_Count":2,"TARGET_FID":138,"Layer":"TEXT_PARCEL","Text":"42","vill_code":"531856","LGD_CODE":"531856"}},{"type":"Feature","id":138,"geometry":{"type":"Polygon","coordinates":[[[77.427951125202839,21.352863538843135],[77.427906795004503,21.352882122958402],[77.42540582086896,21.352497893777507],[77.425521268786724,21.349937572071468],[77.427899566052105,21.350007902977016],[77.427902860106812,21.350190323424187],[77.427951125202839,21.352863538843135]]]},"properties":{"FID":138,"Join_Count":2,"TARGET_FID":139,"Layer":"TEXT_PARCEL","Text":"44","vill_code":"531856","LGD_CODE":"531856"}},{"type":"Feature","id":139,"geometry":{"type":"Polygon","coordinates":[[[77.443327994242722,21.351621615302442],[77.443157989496527,21.352735942945333],[77.442519433807419,21.352682630250044],[77.443327994242722,21.351621615302442]]]},"properties":{"FID":139,"Join_Count":2,"TARGET_FID":140,"Layer":"TEXT_PARCEL","Text":"8","vill_code":"531856","LGD_CODE":"531856"}},{"type":"Feature","id":140,"geometry":{"type":"Polygon","coordinates":[[[77.443102855944616,21.351489192942584],[77.441672032458087,21.353424650063758],[77.44188332646155,21.352629315584803],[77.442129697313746,21.350931077770102],[77.443037363899506,21.350899258145191],[77.443233479431328,21.349734930587342],[77.44376636376181,21.349772642336688],[77.444220308521139,21.348729661546766],[77.444114189816375,21.348272190092459],[77.444325572412879,21.3478685669687],[77.445152886733439,21.347930662254083],[77.443102855944616,21.351489192942584]]]},"properties":{"FID":140,"Join_Count":2,"TARGET_FID":141,"Layer":"TEXT_PARCEL","Text":"7","vill_code":"531856","LGD_CODE":"531856"}},{"type":"Feature","id":141,"geometry":{"type":"Polygon","coordinates":[[[77.420407508349072,21.353762179560643],[77.418269748380368,21.353832351893249],[77.418476895152807,21.352347044384725],[77.419077369102581,21.351130662970125],[77.420756863857349,21.352208907522417],[77.420407508349072,21.353762179560643]]]},"properties":{"FID":141,"Join_Count":2,"TARGET_FID":142,"Layer":"TEXT_PARCEL","Text":"46","vill_code":"531856","LGD_CODE":"531856"}},{"type":"Feature","id":142,"geometry":{"type":"Polygon","coordinates":[[[77.43905018893166,21.352030456764609],[77.439016008864996,21.354753850701261],[77.436624385783617,21.354205567111745],[77.433347981273869,21.353320157365939],[77.432202060109873,21.354036954528681],[77.430967680903834,21.35264304496248],[77.43091705163809,21.35257582392931],[77.434268324953479,21.351549014065359],[77.436139499916393,21.351247070398976],[77.437487573491154,21.350944159579797],[77.437531092759798,21.351194421002436],[77.437771078606303,21.352065162094092],[77.43905018893166,21.352030456764609]]]},"properties":{"FID":142,"Join_Count":2,"TARGET_FID":143,"Layer":"TEXT_PARCEL","Text":"11","vill_code":"531856","LGD_CODE":"531856"}},{"type":"Feature","id":143,"geometry":{"type":"Polygon","coordinates":[[[77.439201099568081,21.354732375924897],[77.439194362599636,21.354794737474837],[77.439016008864996,21.354753850701261],[77.43905018893166,21.352030456764609],[77.439108070121279,21.35069595976961],[77.4408347332906,21.351040969697586],[77.442129697313746,21.350931077770102],[77.44188332646155,21.352629315584803],[77.441672032458087,21.353424650063758],[77.439201099568081,21.354732375924897]]]},"properties":{"FID":143,"Join_Count":3,"TARGET_FID":144,"Layer":"TEXT_PARCEL","Text":"9","vill_code":"531856","LGD_CODE":"531856"}},{"type":"Feature","id":144,"geometry":{"type":"Polygon","coordinates":[[[77.418269748380368,21.353832351893249],[77.417906616023032,21.356284242845447],[77.415785188757695,21.354973337478288],[77.41629815511584,21.352621300524763],[77.417220986837847,21.352624379972792],[77.417583416872219,21.351897039045298],[77.417908648347165,21.351765356838101],[77.418361596961901,21.350023547998337],[77.419540671942642,21.350668338380043],[77.419077369102581,21.351130662970125],[77.418476895152807,21.352347044384725],[77.418269748380368,21.353832351893249]]]},"properties":{"FID":144,"Join_Count":2,"TARGET_FID":145,"Layer":"TEXT_PARCEL","Text":"47","vill_code":"531856","LGD_CODE":"531856"}},{"type":"Feature","id":145,"geometry":{"type":"Polygon","coordinates":[[[77.419936154298213,21.356033598115513],[77.417906616023032,21.356284242845447],[77.418269748380368,21.353832351893249],[77.420407508349072,21.353762179560643],[77.420756863857349,21.352208907522417],[77.421943592041998,21.352059470984099],[77.422227045553413,21.351945440643533],[77.423056757542952,21.351611651251051],[77.425111332918561,21.352435946383419],[77.42540582086896,21.352497893777507],[77.423599812797221,21.355682727313976],[77.422845281006218,21.354097418645907],[77.420701379172385,21.354622623642175],[77.419936154298213,21.356033598115513]]]},"properties":{"FID":145,"Join_Count":2,"TARGET_FID":146,"Layer":"TEXT_PARCEL","Text":"45","vill_code":"531856","LGD_CODE":"531856"}},{"type":"Feature","id":146,"geometry":{"type":"Polygon","coordinates":[[[77.420647417779804,21.356433633887619],[77.420169201301476,21.356511677127795],[77.419936154298213,21.356033598115513],[77.420701379172385,21.354622623642175],[77.422845281006218,21.354097418645907],[77.423599812797221,21.355682727313976],[77.420647417779804,21.356433633887619]]]},"properties":{"FID":146,"Join_Count":2,"TARGET_FID":147,"Layer":"TEXT_PARCEL","Text":"23","vill_code":"531856","LGD_CODE":"531856"}},{"type":"Feature","id":147,"geometry":{"type":"Polygon","coordinates":[[[77.439194362599636,21.35479473747484],[77.438985807382139,21.35672516201241],[77.437377428044869,21.356487797945164],[77.436624385783617,21.354205567111745],[77.439016008864996,21.354753850701261],[77.439194362599636,21.35479473747484]]]},"properties":{"FID":147,"Join_Count":2,"TARGET_FID":148,"Layer":"TEXT_PARCEL","Text":"12","vill_code":"531856","LGD_CODE":"531856"}},{"type":"Feature","id":148,"geometry":{"type":"Polygon","coordinates":[[[77.439329442057769,21.354958293571197],[77.439325984632305,21.356728122708432],[77.438985807382139,21.35672516201241],[77.439194362599636,21.35479473747484],[77.439201099568081,21.354732375924897],[77.441672032458087,21.353424650063758],[77.443102855944616,21.351489192942584],[77.445152886733439,21.347930662254083],[77.445309306344029,21.347587557612634],[77.44654625945229,21.345874260248809],[77.447663708758654,21.344892874029131],[77.450602463268908,21.342381815320284],[77.452519138716966,21.340744016687225],[77.453313577422961,21.340065152682389],[77.453542174768188,21.340262618134307],[77.450967124994307,21.342448047957244],[77.447029268337545,21.345757934606109],[77.446532491290142,21.346254501060006],[77.445397535333015,21.347996494897288],[77.445393122412455,21.348104365880516],[77.443358494819336,21.351581591909014],[77.443327994242722,21.351621615302442],[77.442519433807419,21.352682630250044],[77.441816553881793,21.353604954033791],[77.439329442057769,21.354958293571197]]]},"properties":{"FID":148,"Join_Count":0,"TARGET_FID":149,"Layer":"TEXT_PARCEL","Text":" ","vill_code":"531856","LGD_CODE":"531856"}},{"type":"Feature","id":149,"geometry":{"type":"Polygon","coordinates":[[[77.423789764188612,21.357705908585036],[77.420639436493389,21.357929002564887],[77.420647417779804,21.356433633887619],[77.423599812797221,21.355682727313976],[77.423789764188612,21.357705908585036]]]},"properties":{"FID":149,"Join_Count":2,"TARGET_FID":150,"Layer":"TEXT_PARCEL","Text":"22","vill_code":"531856","LGD_CODE":"531856"}},{"type":"Feature","id":150,"geometry":{"type":"Polygon","coordinates":[[[77.420639436493389,21.357929002564887],[77.417185492716044,21.358236813393773],[77.417906616023032,21.356284242845447],[77.419936154298213,21.356033598115513],[77.420169201301476,21.356511677127795],[77.420647417779804,21.356433633887619],[77.420639436493389,21.357929002564887]]]},"properties":{"FID":150,"Join_Count":2,"TARGET_FID":151,"Layer":"TEXT_PARCEL","Text":"21","vill_code":"531856","LGD_CODE":"531856"}},{"type":"Feature","id":151,"geometry":{"type":"Polygon","coordinates":[[[77.429570072565795,21.352786380160595],[77.428723559526702,21.358607226880896],[77.423789764188612,21.357705908585036],[77.423599812797221,21.355682727313976],[77.42540582086896,21.352497893777507],[77.427906795004503,21.352882122958402],[77.427951125202839,21.352863538843135],[77.429667172283288,21.352144115657033],[77.429570072565795,21.352786380160595]]]},"properties":{"FID":151,"Join_Count":2,"TARGET_FID":152,"Layer":"TEXT_PARCEL","Text":"24","vill_code":"531856","LGD_CODE":"531856"}},{"type":"Feature","id":152,"geometry":{"type":"Polygon","coordinates":[[[77.428895294041141,21.358557912284898],[77.428723559526702,21.358607226880896],[77.429570072565795,21.352786380160595],[77.430967680903834,21.35264304496248],[77.432202060109873,21.354036954528684],[77.432446375314129,21.35827174079342],[77.428895294041141,21.358557912284898]]]},"properties":{"FID":152,"Join_Count":3,"TARGET_FID":153,"Layer":"TEXT_PARCEL","Text":"25","vill_code":"531856","LGD_CODE":"531856"}},{"type":"Feature","id":153,"geometry":{"type":"Polygon","coordinates":[[[77.441556759179846,21.36027970559509],[77.441621494685137,21.361152327731737],[77.439747410077771,21.360879719259835],[77.44011388907434,21.359720642894324],[77.441556759179846,21.36027970559509]]]},"properties":{"FID":153,"Join_Count":2,"TARGET_FID":154,"Layer":"TEXT_PARCEL","Text":"13","vill_code":"531856","LGD_CODE":"531856"}},{"type":"Feature","id":154,"geometry":{"type":"Polygon","coordinates":[[[77.436368409437009,21.365828718312752],[77.434995748040592,21.367541694295198],[77.431615464897874,21.367261337579485],[77.432634937052015,21.366082578051923],[77.434415965156504,21.365788577790106],[77.436368409437009,21.365828718312752]]]},"properties":{"FID":154,"Join_Count":2,"TARGET_FID":155,"Layer":"TEXT_PARCEL","Text":"18","vill_code":"531856","LGD_CODE":"531856"}},{"type":"Feature","id":155,"geometry":{"type":"Polygon","coordinates":[[[77.436796175136678,21.367006554424954],[77.436983678997237,21.367727562303859],[77.434995748040592,21.367541694295198],[77.436368409437009,21.365828718312752],[77.437727665730847,21.365561524876671],[77.438986979226129,21.366016886541612],[77.436796175136678,21.367006554424954]]]},"properties":{"FID":155,"Join_Count":2,"TARGET_FID":156,"Layer":"TEXT_PARCEL","Text":"17","vill_code":"531856","LGD_CODE":"531856"}},{"type":"Feature","id":156,"geometry":{"type":"Polygon","coordinates":[[[77.440470424355794,21.366239922790964],[77.440463237774395,21.368052835408111],[77.436983678997237,21.367727562303859],[77.436796175136678,21.367006554424954],[77.438986979226129,21.366016886541612],[77.440401408738893,21.366203189084679],[77.440470424355794,21.366239922790964]]]},"properties":{"FID":156,"Join_Count":2,"TARGET_FID":157,"Layer":"TEXT_PARCEL","Text":"16","vill_code":"531856","LGD_CODE":"531856"}},{"type":"Feature","id":157,"geometry":{"type":"Polygon","coordinates":[[[77.440561371472228,21.367997446738485],[77.440463237774395,21.368052835408111],[77.440470424355794,21.366239922790964],[77.442609430881561,21.365595303508414],[77.44391974520903,21.366025425195321],[77.443989687036336,21.367402735989035],[77.440561371472228,21.367997446738485]]]},"properties":{"FID":157,"Join_Count":2,"TARGET_FID":158,"Layer":"TEXT_PARCEL","Text":"15","vill_code":"531856","LGD_CODE":"531856"}},{"type":"Feature","id":158,"geometry":{"type":"Polygon","coordinates":[[[77.445288882105942,21.366742640720666],[77.446067055658162,21.368677739914435],[77.440463237774395,21.368052835408111],[77.440561371472228,21.367997446738485],[77.443989687036336,21.367402735989035],[77.444059833752874,21.367342336479048],[77.445288882105942,21.366742640720666]]]},"properties":{"FID":158,"Join_Count":2,"TARGET_FID":159,"Layer":"TEXT_PARCEL","Text":"14","vill_code":"531856","LGD_CODE":"531856"}},{"type":"Feature","id":159,"geometry":{"type":"Polygon","coordinates":[[[77.446542825333935,21.360111431211099],[77.446067055658162,21.368677739914435],[77.445288882105942,21.366742640720666],[77.444059833752874,21.367342336479048],[77.443989687036336,21.367402735989035],[77.44391974520903,21.366025425195321],[77.442609430881561,21.365595303508414],[77.440470424355794,21.366239922790964],[77.440401408738893,21.366203189084679],[77.438986979226129,21.366016886541612],[77.437727665730847,21.365561524876671],[77.436368409437009,21.365828718312752],[77.434415965156504,21.365788577790106],[77.432634937052015,21.366082578051923],[77.431615464897874,21.367261337579485],[77.428289149483533,21.366955033663228],[77.428450536657181,21.364144098502585],[77.428723559526702,21.358607226880896],[77.428895294041141,21.358557912284898],[77.432446375314129,21.35827174079342],[77.432202060109873,21.354036954528681],[77.433347981273869,21.353320157365939],[77.436624385783617,21.354205567111745],[77.437377428044869,21.356487797945164],[77.438985807382139,21.35672516201241],[77.439325984632305,21.356728122708432],[77.439334211907749,21.357808165853772],[77.442509002926315,21.357002390695815],[77.443794032270389,21.358384427112664],[77.44457375303837,21.359893048411845],[77.446542825333935,21.360111431211099]],[[77.439747410077771,21.360879719259835],[77.441621494685137,21.361152327731737],[77.441556759179846,21.36027970559509],[77.44011388907434,21.359720642894324],[77.439747410077771,21.360879719259835]]]},"properties":{"FID":159,"Join_Count":2,"TARGET_FID":160,"Layer":"TEXT_PARCEL","Text":"19","vill_code":"531856","LGD_CODE":"531856"}},{"type":"Feature","id":160,"geometry":{"type":"Polygon","coordinates":[[[77.414234927702481,21.371407539707988],[77.413294928688813,21.371854564741763],[77.413330374583495,21.369913819393783],[77.413384778113993,21.36659419838071],[77.413456794751795,21.361876682452202],[77.41349187793341,21.358975361989955],[77.413541061123851,21.356042368108305],[77.413567579097943,21.355034610452115],[77.415785188757695,21.354973337478288],[77.417906616023032,21.356284242845447],[77.417185492716044,21.358236813393773],[77.420639436493389,21.357929002564887],[77.423789764188612,21.357705908585036],[77.428723559526702,21.358607226880896],[77.428450536657181,21.364144098502585],[77.428289149483533,21.366955033663228],[77.426331285137138,21.366833619409714],[77.422359793062725,21.367948225494445],[77.420220879684905,21.368571202167654],[77.415710242672176,21.370705924426726],[77.414234927702481,21.371407539707988]]]},"properties":{"FID":160,"Join_Count":2,"TARGET_FID":161,"Layer":"TEXT_PARCEL","Text":"20","vill_code":"531856","LGD_CODE":"531856"}}]
}