{
  "type" : "FeatureCollection",
  "features" : [{"type":"Feature","id":0,"geometry":{"type":"LineString","coordinates":[[77.439194362520027,21.354794737589135],[77.438985807458621,21.356725162259888]]},"properties":{"FID":0,"LGD_CODE":"531856","ROAD_TYPE":"A"}},{"type":"Feature","id":1,"geometry":{"type":"LineString","coordinates":[[77.425638663078956,21.36703059029853],[77.425934785434279,21.366698482803812],[77.426577724787464,21.36635037162797],[77.427066947895312,21.366303956767705],[77.427876766310476,21.366057371317137],[77.428408412402007,21.366083395004143],[77.430334451507022,21.365867802927752],[77.434334878531132,21.365396875122467],[77.434819934438764,21.365312128429121],[77.435886353661814,21.365272204552255],[77.437140131885727,21.365026605750817],[77.438056429279555,21.364729921071017],[77.438202489028242,21.3644538460081],[77.436580327701876,21.364077994272638],[77.436323782591955,21.363923360285131],[77.436429419241179,21.363725094305366],[77.438372305717508,21.362557307207766],[77.438863638067943,21.360538753389459],[77.440098882903897,21.357614095914446]]},"properties":{"FID":1,"LGD_CODE":"531856","ROAD_TYPE":"B"}},{"type":"Feature","id":2,"geometry":{"type":"LineString","coordinates":[[77.440011731501968,21.357636214798696],[77.43888548212,21.360203419330777],[77.438263169677612,21.36252292597824],[77.436358858623436,21.363688884703649],[77.436253374555605,21.363991275511708],[77.436583860870414,21.364182118198165],[77.438033921897841,21.364468170282461],[77.437981219984152,21.364645397220887],[77.437132931959525,21.364945919268209],[77.435951735547818,21.365191609822332],[77.4343563961732,21.365277764948409],[77.432089194942407,21.365594274382961],[77.429851907739064,21.36580432297902],[77.428404505637602,21.366014907861565],[77.427865001454691,21.365980431333575],[77.426583118154511,21.366256413242006],[77.425795731117276,21.366648422474299],[77.425539917071603,21.367014398165313]]},"properties":{"FID":2,"LGD_CODE":"531856","ROAD_TYPE":"B"}},{"type":"Feature","id":3,"geometry":{"type":"LineString","coordinates":[[77.413457523548118,21.363871840114619],[77.414889530953118,21.361894505232357],[77.416087751583021,21.360168240853437],[77.41656032846177,21.359550237142088],[77.417605046037011,21.358456012088784]]},"properties":{"FID":3,"LGD_CODE":"531856","ROAD_TYPE":"B"}},{"type":"Feature","id":4,"geometry":{"type":"LineString","coordinates":[[77.413541061606296,21.356042368481177],[77.416975267598744,21.355490902347189],[77.418393914749899,21.356323987787793],[77.419878243004689,21.35639590627687],[77.423217501156259,21.355014904825307],[77.425803882629282,21.354868744083966],[77.428895715400287,21.354755101884685],[77.429234653422725,21.354469905970483],[77.430963824006696,21.351556194704649],[77.43178385814727,21.350281026427297],[77.432787429616823,21.34980110014882],[77.437335377262684,21.348039611036715],[77.437573718468329,21.347836822989606],[77.437974953462998,21.347254795471915],[77.439700370639699,21.346399111512508],[77.440873297120106,21.346413240865445]]},"properties":{"FID":4,"LGD_CODE":"531856","ROAD_TYPE":"B"}},{"type":"Feature","id":5,"geometry":{"type":"LineString","coordinates":[[77.440976094161911,21.346515148261954],[77.439767163888789,21.346470956693313],[77.438011675359704,21.347328948680921],[77.437464882575767,21.348074952663083],[77.435920844683508,21.348692580826079],[77.433341007168892,21.349660168009017],[77.431844078409185,21.350328477787262],[77.430178791999467,21.353085622636002],[77.429157876103773,21.354733871949367],[77.428548701103765,21.35487565839502],[77.424117849310491,21.355021744855467],[77.423144427805653,21.355126908222292],[77.420073118715038,21.356414936436906]]},"properties":{"FID":5,"LGD_CODE":"531856","ROAD_TYPE":"B"}},{"type":"Feature","id":6,"geometry":{"type":"LineString","coordinates":[[77.419809774817708,21.356456435886241],[77.417184850482087,21.35874478879451],[77.416227066699989,21.359819901782913],[77.413428306139153,21.363742801026476],[77.413428306139153,21.363742801026476]]},"properties":{"FID":6,"LGD_CODE":"531856","ROAD_TYPE":"B"}},{"type":"Feature","id":7,"geometry":{"type":"LineString","coordinates":[[77.417605046037011,21.358456012088784],[77.419568318492452,21.356803191646058],[77.420073118715038,21.356414936436906],[77.420073118715038,21.356414936436906]]},"properties":{"FID":7,"LGD_CODE":"531856","ROAD_TYPE":"B"}},{"type":"Feature","id":8,"geometry":{"type":"LineString","coordinates":[[77.419809774817708,21.356456435886241],[77.418709352331987,21.356464130930881],[77.418251533655678,21.356370164462074],[77.416921821527936,21.355546112446898],[77.413539024982569,21.356163814979105]]},"properties":{"FID":8,"LGD_CODE":"531856","ROAD_TYPE":"B"}},{"type":"Feature","id":9,"geometry":{"type":"LineString","coordinates":[[77.445004362381269,21.329756129826659],[77.445812574145563,21.329296519951523],[77.446126040801758,21.329122225388563],[77.446331634589839,21.328949928409138],[77.4469953413914,21.328706473478984],[77.447716665501886,21.328389474915255],[77.448394449211733,21.32807810131288],[77.449487732417055,21.327662846076244],[77.450546900193771,21.327162807530602]]},"properties":{"FID":9,"LGD_CODE":"531856","ROAD_TYPE":"B"}},{"type":"Feature","id":10,"geometry":{"type":"LineString","coordinates":[[77.450612635925282,21.327200124701669],[77.449042447563244,21.327922669410892],[77.448786970247355,21.328045676860501],[77.448287101728795,21.328207441664325],[77.446390788337851,21.329017931585916],[77.445080916766798,21.329768532156141]]},"properties":{"FID":10,"LGD_CODE":"531856","ROAD_TYPE":"B"}},{"type":"Feature","id":11,"geometry":{"type":"LineString","coordinates":[[77.443177438546158,21.331493197885131],[77.443271828137128,21.331129067896807],[77.443762921030881,21.330380780280365],[77.444115082368057,21.330047005942291],[77.444180516816957,21.329903177607012],[77.444240916225908,21.329259920873096],[77.444291913117425,21.328947549238407],[77.444425568194106,21.328759070304383],[77.444959546660499,21.327798993395955],[77.445415079259121,21.326448512378128],[77.44559041995872,21.325902677984306],[77.44570639417978,21.325585889057386],[77.445846075249804,21.323615273190644],[77.445846075249804,21.323615273190644]]},"properties":{"FID":11,"LGD_CODE":"531856","ROAD_TYPE":"B"}},{"type":"Feature","id":12,"geometry":{"type":"LineString","coordinates":[[77.4432332727405,21.331848096378362],[77.443418564029159,21.332436508419274],[77.443378243027595,21.332830315593469],[77.443055115026723,21.33339206060171],[77.442882087566105,21.333507588592511],[77.442836063058564,21.333838428324729],[77.442839755104387,21.335210779114551],[77.442831389542107,21.335796347187792],[77.442573374043988,21.336887181506761],[77.442393919269762,21.337564137302923],[77.442153274149106,21.338358890065205]]},"properties":{"FID":12,"LGD_CODE":"531856","ROAD_TYPE":"B"}},{"type":"Feature","id":13,"geometry":{"type":"LineString","coordinates":[[77.442062797763981,21.338305284911804],[77.442189063017921,21.338021410329659],[77.442561009365662,21.33655910964146],[77.44276608059802,21.335804787045703],[77.442768705105934,21.335129978440925],[77.442770067735978,21.333828641731671],[77.442842474754954,21.333491207403238],[77.443005835094297,21.333308446649053],[77.443292706907201,21.332768905946246],[77.443372758063475,21.332470298598679],[77.443181273422027,21.331932057761634]]},"properties":{"FID":13,"LGD_CODE":"531856","ROAD_TYPE":"B"}},{"type":"Feature","id":14,"geometry":{"type":"LineString","coordinates":[[77.441995212642354,21.338625077477065],[77.442000111515298,21.338661551937999],[77.44206287452694,21.339380466857381],[77.44214031009443,21.34042556261662],[77.441653731461145,21.341572208571787]]},"properties":{"FID":14,"LGD_CODE":"531856","ROAD_TYPE":"A"}},{"type":"Feature","id":15,"geometry":{"type":"LineString","coordinates":[[77.438974217398837,21.326986157237535],[77.438347483081628,21.325274249213351]]},"properties":{"FID":15,"LGD_CODE":"531856","ROAD_TYPE":"A"}},{"type":"Feature","id":16,"geometry":{"type":"LineString","coordinates":[[77.450434916991171,21.342524981824067],[77.449789057783562,21.342576541992404],[77.449600252614815,21.342509516377348],[77.448347094097258,21.34259716343227]]},"properties":{"FID":16,"LGD_CODE":"531856","ROAD_TYPE":"B"}},{"type":"Feature","id":17,"geometry":{"type":"LineString","coordinates":[[77.44862092348022,21.342469480937051],[77.448999315774259,21.342421423002133],[77.449871996526412,21.342407736674481],[77.450497847291444,21.342471208924859]]},"properties":{"FID":17,"LGD_CODE":"531856","ROAD_TYPE":"B"}},{"type":"Feature","id":18,"geometry":{"type":"LineString","coordinates":[[77.447501438182343,21.342754999526253],[77.446739000240044,21.343093663691722],[77.446516018820702,21.343135301771632],[77.446516018820702,21.343135301771632],[77.445401279070325,21.343456260665786],[77.444597320422929,21.343736192940224],[77.443269360671778,21.344006078410033]]},"properties":{"FID":18,"LGD_CODE":"531856","ROAD_TYPE":"B"}},{"type":"Feature","id":19,"geometry":{"type":"LineString","coordinates":[[77.443310618332063,21.343895642485162],[77.443914823679776,21.34379961519031],[77.444878538982621,21.343574236025116],[77.446523706093984,21.343068511153646],[77.446833361901199,21.342984053603075],[77.447438387274872,21.342734096070444]]},"properties":{"FID":19,"LGD_CODE":"531856","ROAD_TYPE":"B"}},{"type":"Feature","id":20,"geometry":{"type":"LineString","coordinates":[[77.443626957300239,21.343444498430266],[77.444683937418532,21.342146624647306],[77.44518953054822,21.341695899023968]]},"properties":{"FID":20,"LGD_CODE":"531856","ROAD_TYPE":"B"}},{"type":"Feature","id":21,"geometry":{"type":"LineString","coordinates":[[77.44518953054822,21.341695899023968],[77.445410828962565,21.341244316926463],[77.446141833273401,21.340491867361834],[77.446601174087249,21.339897576383073],[77.447895538389517,21.338522000076605],[77.449439381234356,21.337091091461822],[77.450560937817485,21.336190984805906]]},"properties":{"FID":21,"LGD_CODE":"531856","ROAD_TYPE":"B"}},{"type":"Feature","id":22,"geometry":{"type":"LineString","coordinates":[[77.45052524841617,21.336079961657752],[77.448970608753015,21.337430759775948],[77.447470919304507,21.338801268084588],[77.446513516224613,21.339896590404447],[77.445344836671339,21.341290091472594],[77.445080637017568,21.341700220220911],[77.444161547088072,21.342635055863447],[77.443579553493805,21.343374220638228]]},"properties":{"FID":22,"LGD_CODE":"531856","ROAD_TYPE":"B"}},{"type":"Feature","id":23,"geometry":{"type":"LineString","coordinates":[[77.440370752502318,21.342858102468824],[77.439513071580052,21.34267026989221],[77.438199887718014,21.341822265516232],[77.437729377500418,21.341053315165542],[77.437570207130847,21.340706879363982],[77.437457896074818,21.340255104475393],[77.437266932762952,21.338755041345006],[77.43673192390105,21.338072431113901],[77.434911394667807,21.336318371923419],[77.434622231947614,21.335978088431045],[77.434102235030394,21.334990357557349],[77.433869790794702,21.334243833315654],[77.432808449799253,21.333057060880211],[77.432667595484205,21.332662158562101]]},"properties":{"FID":23,"LGD_CODE":"531856","ROAD_TYPE":"C"}},{"type":"Feature","id":24,"geometry":{"type":"LineString","coordinates":[[77.432667595484205,21.332662158562101],[77.429378080271235,21.330554996483507]]},"properties":{"FID":24,"LGD_CODE":"531856","ROAD_TYPE":"C"}},{"type":"Feature","id":25,"geometry":{"type":"LineString","coordinates":[[77.42003152280185,21.341993144937462],[77.42371852080413,21.342410947677802],[77.425281421292809,21.342691757913471]]},"properties":{"FID":25,"LGD_CODE":"531856","ROAD_TYPE":"B"}},{"type":"Feature","id":26,"geometry":{"type":"LineString","coordinates":[[77.42529952166808,21.342559806641145],[77.42399958083989,21.342395342592305],[77.420033361045796,21.341911669540121]]},"properties":{"FID":26,"LGD_CODE":"531856","ROAD_TYPE":"B"}},{"type":"Feature","id":27,"geometry":{"type":"LineString","coordinates":[[77.426089211271076,21.343004195273956],[77.426426510903028,21.343170229819393],[77.428066568934952,21.343465870610835],[77.428318173646915,21.343630557825996],[77.431523729835732,21.34440653376603],[77.431821157180593,21.344650787812441],[77.432653592551617,21.345478146129402],[77.435813978311401,21.345796572896759],[77.437889302973474,21.346015204738688],[77.440788475137552,21.346241806904899]]},"properties":{"FID":27,"LGD_CODE":"531856","ROAD_TYPE":"B"}},{"type":"Feature","id":28,"geometry":{"type":"LineString","coordinates":[[77.440755652840835,21.346155104302177],[77.437331923704221,21.345863899404154],[77.436446842848511,21.345782442882598],[77.432717334896367,21.345396894625281],[77.431854627612637,21.344574825402134],[77.431410893952332,21.344294313105372],[77.428357950322223,21.343568949580149],[77.42813380956369,21.343433808684015],[77.427799442337104,21.343323932748365],[77.426493688668145,21.343092673873706],[77.426086108366135,21.342919168152431]]},"properties":{"FID":28,"LGD_CODE":"531856","ROAD_TYPE":"B"}},{"type":"Feature","id":29,"geometry":{"type":"LineString","coordinates":[[77.441859789624502,21.352572813780366],[77.442070776471013,21.351178908459595],[77.44214728082909,21.350878087776294],[77.442281775671745,21.350686791431119],[77.442542940681705,21.349535467017599],[77.442703394620366,21.348264035033157]]},"properties":{"FID":29,"LGD_CODE":"531856","ROAD_TYPE":"B"}},{"type":"Feature","id":30,"geometry":{"type":"LineString","coordinates":[[77.44263399219281,21.348266798028938],[77.44263399219281,21.348266798028938],[77.442514077535336,21.34928344656732],[77.442218491887175,21.350606937360109],[77.442053545982972,21.350959981798727],[77.442001762202892,21.351134148696143],[77.441807634829203,21.352499036379072]]},"properties":{"FID":30,"LGD_CODE":"531856","ROAD_TYPE":"B"}},{"type":"Feature","id":31,"geometry":{"type":"LineString","coordinates":[[77.441607699843814,21.341234153616249],[77.441955064996691,21.340318110457854],[77.441925386775182,21.33988397847121]]},"properties":{"FID":31,"LGD_CODE":"531856","ROAD_TYPE":"A"}},{"type":"Feature","id":32,"geometry":{"type":"LineString","coordinates":[[77.441925386775182,21.33988397847121],[77.441952871072857,21.339729925538375],[77.441890003163564,21.338717984638127],[77.441729482643296,21.3379288865729]]},"properties":{"FID":32,"LGD_CODE":"531856","ROAD_TYPE":"A"}},{"type":"Feature","id":33,"geometry":{"type":"LineString","coordinates":[[77.441729482643296,21.3379288865729],[77.44172572437499,21.337841778772045],[77.44117464146683,21.336418327970602],[77.440603551309493,21.334842181685598]]},"properties":{"FID":33,"LGD_CODE":"531856","ROAD_TYPE":"A"}},{"type":"Feature","id":34,"geometry":{"type":"LineString","coordinates":[[77.440603551309493,21.334842181685598],[77.44013388766399,21.333219879166151]]},"properties":{"FID":34,"LGD_CODE":"531856","ROAD_TYPE":"A"}},{"type":"Feature","id":35,"geometry":{"type":"LineString","coordinates":[[77.439590976779911,21.331137460492215],[77.43941076827528,21.330446226513878],[77.439515260826653,21.329293715791394]]},"properties":{"FID":35,"LGD_CODE":"531856","ROAD_TYPE":"A"}},{"type":"Feature","id":36,"geometry":{"type":"LineString","coordinates":[[77.439515260826653,21.329293715791394],[77.439564982416144,21.328745304127182],[77.439366705226675,21.327382170613802],[77.438974217398837,21.326986157237535]]},"properties":{"FID":36,"LGD_CODE":"531856","ROAD_TYPE":"A"}},{"type":"Feature","id":37,"geometry":{"type":"LineString","coordinates":[[77.438491299484767,21.325235104400512],[77.439149986869054,21.326943538849797],[77.439535116381805,21.327270427848674],[77.439578578352013,21.327799000458882]]},"properties":{"FID":37,"LGD_CODE":"531856","ROAD_TYPE":"A"}},{"type":"Feature","id":38,"geometry":{"type":"LineString","coordinates":[[77.439578578352013,21.327799000458882],[77.439646108831951,21.328620275092998]]},"properties":{"FID":38,"LGD_CODE":"531856","ROAD_TYPE":"A"}},{"type":"Feature","id":39,"geometry":{"type":"LineString","coordinates":[[77.439646108831951,21.328620275092998],[77.439648301822089,21.328646944972764],[77.439609930077069,21.329502127562179]]},"properties":{"FID":39,"LGD_CODE":"531856","ROAD_TYPE":"A"}},{"type":"Feature","id":40,"geometry":{"type":"LineString","coordinates":[[77.439609930077069,21.329502127562179],[77.4395642784052,21.330519558946104],[77.439708760658462,21.331186507444514],[77.439937290441023,21.331799595529692],[77.440007682192928,21.33207288183921]]},"properties":{"FID":40,"LGD_CODE":"531856","ROAD_TYPE":"A"}},{"type":"Feature","id":41,"geometry":{"type":"LineString","coordinates":[[77.440007682192928,21.33207288183921],[77.440196477385143,21.332870282455893],[77.440304918574711,21.333226847176064],[77.440548842674914,21.334103636575946]]},"properties":{"FID":41,"LGD_CODE":"531856","ROAD_TYPE":"A"}},{"type":"Feature","id":42,"geometry":{"type":"LineString","coordinates":[[77.440548842674914,21.334103636575946],[77.44075100295484,21.334830295306741],[77.441125104073592,21.335846660975729]]},"properties":{"FID":42,"LGD_CODE":"531856","ROAD_TYPE":"A"}},{"type":"Feature","id":43,"geometry":{"type":"LineString","coordinates":[[77.441125104073592,21.335846660975729],[77.441502254920579,21.336871294704665],[77.441827321647082,21.337694557092117]]},"properties":{"FID":43,"LGD_CODE":"531856","ROAD_TYPE":"A"}},{"type":"Feature","id":44,"geometry":{"type":"LineString","coordinates":[[77.441827321647082,21.337694557092117],[77.441871805152317,21.33781380037426],[77.441995212642354,21.338625077477065]]},"properties":{"FID":44,"LGD_CODE":"531856","ROAD_TYPE":"A"}},{"type":"Feature","id":45,"geometry":{"type":"LineString","coordinates":[[77.453313578217319,21.340065152957955],[77.452519138914283,21.340744017252867]]},"properties":{"FID":45,"LGD_CODE":"531856","ROAD_TYPE":"A"}},{"type":"Feature","id":46,"geometry":{"type":"LineString","coordinates":[[77.452519138914283,21.340744017252867],[77.450602463732082,21.342381815778278]]},"properties":{"FID":46,"LGD_CODE":"531856","ROAD_TYPE":"A"}},{"type":"Feature","id":47,"geometry":{"type":"LineString","coordinates":[[77.450602463732082,21.342381815778278],[77.447663708988799,21.344892874502889]]},"properties":{"FID":47,"LGD_CODE":"531856","ROAD_TYPE":"A"}},{"type":"Feature","id":48,"geometry":{"type":"LineString","coordinates":[[77.447663708988799,21.344892874502889],[77.44654625986955,21.345874260648177]]},"properties":{"FID":48,"LGD_CODE":"531856","ROAD_TYPE":"A"}},{"type":"Feature","id":49,"geometry":{"type":"LineString","coordinates":[[77.44654625986955,21.345874260648177],[77.445309306470932,21.347587557883582],[77.445154463318261,21.347927205921852]]},"properties":{"FID":49,"LGD_CODE":"531856","ROAD_TYPE":"A"}},{"type":"Feature","id":50,"geometry":{"type":"LineString","coordinates":[[77.445154463318261,21.347927205921852],[77.445148159501429,21.347941033295292],[77.44310285637286,21.35148919373896],[77.441672033026563,21.353424650112661]]},"properties":{"FID":50,"LGD_CODE":"531856","ROAD_TYPE":"A"}},{"type":"Feature","id":51,"geometry":{"type":"LineString","coordinates":[[77.441672033026563,21.353424650112661],[77.439201099736565,21.354732376226135],[77.439194362520027,21.354794737589135]]},"properties":{"FID":51,"LGD_CODE":"531856","ROAD_TYPE":"A"}},{"type":"Feature","id":52,"geometry":{"type":"LineString","coordinates":[[77.442519433964577,21.352682630977604],[77.443327994876483,21.351621615841825]]},"properties":{"FID":52,"LGD_CODE":"531856","ROAD_TYPE":"A"}},{"type":"Feature","id":53,"geometry":{"type":"LineString","coordinates":[[77.447501438182343,21.342754999526253],[77.448347094097258,21.34259716343227]]},"properties":{"FID":53,"LGD_CODE":"531856","ROAD_TYPE":"B"}},{"type":"Feature","id":54,"geometry":{"type":"LineString","coordinates":[[77.447438387274872,21.342734096070444],[77.44862092348022,21.342469480937051]]},"properties":{"FID":54,"LGD_CODE":"531856","ROAD_TYPE":"B"}},{"type":"Feature","id":55,"geometry":{"type":"LineString","coordinates":[[77.421537475311823,21.336970694420341],[77.422703651269131,21.336668840675543],[77.424176591540231,21.336329759678172],[77.425492552816266,21.336040398186665],[77.426133590169627,21.335811900798483],[77.42722682262864,21.335024930549132],[77.427555212974241,21.334879800971763],[77.429303293809937,21.33385297153033],[77.430123374906401,21.3335678903948],[77.43209353856497,21.333072944319401],[77.433414710907542,21.332771697049601],[77.435926689018544,21.331915269121147],[77.438041278189232,21.331177831416912],[77.439290321562595,21.330755261640267],[77.439483813738349,21.330726411311449]]},"properties":{"FID":55,"LGD_CODE":"531856","ROAD_TYPE":"B"}},{"type":"Feature","id":56,"geometry":{"type":"LineString","coordinates":[[77.439605169164722,21.330708316694853],[77.439850697231392,21.330671707125351],[77.442416498781185,21.330349710303651],[77.44280000927273,21.3302420193749],[77.443994349639993,21.330097226010082],[77.443706729720304,21.330351788067926],[77.443239626710877,21.330993876201404],[77.443131976178179,21.331367717477413]]},"properties":{"FID":56,"LGD_CODE":"531856","ROAD_TYPE":"B"}},{"type":"Feature","id":57,"geometry":{"type":"LineString","coordinates":[[77.44577162534523,21.323618596100921],[77.445759191564804,21.323881719388911],[77.445687035885101,21.325259892981144],[77.445449248931368,21.326180098566212],[77.444917841880326,21.327750610475487],[77.444365696528791,21.328695516431711],[77.444202862582813,21.329005619457611],[77.444061884176122,21.330034349159881],[77.442339826974134,21.330258487428875],[77.441966513715812,21.330346544481333],[77.439591884987152,21.330646995049534]]},"properties":{"FID":57,"LGD_CODE":"531856","ROAD_TYPE":"B"}},{"type":"Feature","id":58,"geometry":{"type":"LineString","coordinates":[[77.439467221394665,21.330662767196415],[77.439304731927948,21.330683324842521],[77.438077744303229,21.331072785638423],[77.437581892050844,21.331291332395015],[77.434351403920317,21.332375974831038],[77.433738039046546,21.332555541119834],[77.433293244383535,21.332728460481317],[77.431337579341402,21.333204030051757],[77.430007170178271,21.333512823762554],[77.429231675392543,21.333832757443936],[77.427150229719288,21.334986246844029],[77.426075127158597,21.335762116279355],[77.424063377884536,21.336291025087494],[77.423088459165925,21.336518825114208],[77.422676475741582,21.336578385800397],[77.421491521047059,21.336899385954197]]},"properties":{"FID":58,"LGD_CODE":"531856","ROAD_TYPE":"B"}},{"type":"Feature","id":59,"geometry":{"type":"LineString","coordinates":[[77.42529952166808,21.342559806641145],[77.426086108366135,21.342919168152431]]},"properties":{"FID":59,"LGD_CODE":"531856","ROAD_TYPE":"B"}},{"type":"Feature","id":60,"geometry":{"type":"LineString","coordinates":[[77.426089211271076,21.343004195273956],[77.425281421292809,21.342691757913471]]},"properties":{"FID":60,"LGD_CODE":"531856","ROAD_TYPE":"B"}},{"type":"Feature","id":61,"geometry":{"type":"LineString","coordinates":[[77.44013388766399,21.333219879166151],[77.439590976779911,21.331137460492215]]},"properties":{"FID":61,"LGD_CODE":"531856","ROAD_TYPE":"A"}}]
}