{
  "type" : "FeatureCollection",
  "features" : [{"type":"Feature","id":0,"geometry":{"type":"Polygon","coordinates":[[[77.410336402938782,21.350249919725254],[77.410251549646873,21.350261038523435],[77.410280195402379,21.349988927014117],[77.410310440485077,21.349790162818145],[77.410265908960014,21.349572563931076],[77.410383643548784,21.349404988611198],[77.4104986616926,21.349292159983719],[77.41084020188444,21.349195761385229],[77.411183174193482,21.349029950393628],[77.411566745316307,21.348687332034647],[77.411781307360286,21.348496166176194],[77.412129682526583,21.348439231956267],[77.412535555190985,21.347989295533921],[77.413169882263588,21.347468314554668],[77.413253634420045,21.346584838289356],[77.412381477411472,21.346666806866843],[77.412026047888446,21.346308471920981],[77.411989571323844,21.346021429583928],[77.411362766433257,21.345703302035854],[77.411281005301703,21.345617352189013],[77.411536865964138,21.345603173164509],[77.411512443007439,21.34520604115362],[77.412197487249372,21.344376167804157],[77.412644697942056,21.343665341197578],[77.412607437995888,21.343233284100506],[77.413145925830079,21.342810370111494],[77.412944673045217,21.342230680034181],[77.41304682911354,21.341856087000671],[77.413361665162498,21.341501371843854],[77.413947430762846,21.341582128123438],[77.413622254046274,21.341026156235024],[77.413517187920618,21.340861882959075],[77.413548521942928,21.340197021133733],[77.413824816898355,21.339954212066772],[77.414379061221112,21.33977498576181],[77.414646925829857,21.33975510302713],[77.414894331180179,21.339738137983371],[77.415331731161473,21.339888995024172],[77.415836672892766,21.339724103229361],[77.415849464977029,21.339417642138763],[77.416172226774364,21.339416119907003],[77.416355322031819,21.339422027102238],[77.416470412952151,21.339546752975824],[77.41690663612944,21.339591528755903],[77.417289102774149,21.339717248107043],[77.41742371385098,21.339776989819892],[77.417592551866733,21.33992967422499],[77.418034824022243,21.340090095006715],[77.418402576799323,21.340167354231042],[77.418424261210419,21.33961426319674],[77.419013539133957,21.339455735908619],[77.419415414984769,21.3394961540297],[77.419671675169269,21.339225217232379],[77.420047194035561,21.33906995599877],[77.420718900066646,21.338567389136117],[77.420813313940016,21.33854380616242],[77.421424545181893,21.338768309821678],[77.421867887131228,21.33890388826261],[77.421875202432702,21.338920217672342],[77.421915799826905,21.338966295449211],[77.421729964512195,21.339010062506912],[77.42164705869169,21.338935407501527],[77.420804920679515,21.338661215271824],[77.420139773834151,21.339151901406964],[77.420000323085119,21.339198832636125],[77.419726170662472,21.339390856022384],[77.419476843941382,21.339718751499824],[77.419123148159301,21.339568636170661],[77.419058077243207,21.339562172859253],[77.418963481716318,21.339552463602583],[77.418546454237315,21.339715819057897],[77.418505874375057,21.340337840858716],[77.417591082119557,21.339991751527499],[77.417537993232472,21.339973945608659],[77.417432401278674,21.339824347614755],[77.417287559345382,21.339765783072359],[77.416449114167307,21.339616823459369],[77.416387543172092,21.339589464587103],[77.416337562895706,21.339478538425592],[77.416030203916961,21.339544315765195],[77.415943767112168,21.33981783212506],[77.415691226120657,21.339887300252116],[77.415350294383856,21.339980884200134],[77.414878451463252,21.339808182755274],[77.413927496689212,21.340011284867501],[77.413673290004212,21.340218440970514],[77.413704908403432,21.340720495708251],[77.413710177138341,21.340803983386845],[77.414065007550619,21.341275738866468],[77.414085033424072,21.341749633943991],[77.413363604384045,21.341637352355363],[77.413197452447548,21.341870049876153],[77.413187294704883,21.341884768733603],[77.41316577790991,21.341914776367719],[77.413137688982388,21.34195440753777],[77.413137847470281,21.341983748975519],[77.413137929762058,21.341998983952621],[77.413141085192294,21.342137215926254],[77.413144258914897,21.342278833430498],[77.413184203791005,21.342315887594324],[77.413319946327022,21.342807859080541],[77.412802259250469,21.343291052888514],[77.412813700891007,21.343625612356405],[77.412669279667284,21.343868363701471],[77.412415006373266,21.344287683720669],[77.412167352820461,21.344706407861459],[77.411940579795385,21.345088920114836],[77.411726767837095,21.34541832965148],[77.41242803152069,21.345808332935455],[77.412528898425833,21.346198334198494],[77.41285568529284,21.346270717866982],[77.412890648191436,21.346500211530692],[77.413234029272985,21.346299973999791],[77.413717327229506,21.346472060277556],[77.41373217361236,21.346767667994826],[77.413307853363364,21.347814691566072],[77.412808479809641,21.348123437601249],[77.412791676149055,21.348134237696058],[77.412696854799705,21.348195060146885],[77.412285767870159,21.348459941056749],[77.411254562468272,21.349090556480462],[77.410963248750605,21.349231861740314],[77.410876756627758,21.349274023290366],[77.410709718282121,21.349344211671774],[77.410512293086853,21.349363193922844],[77.410375482631324,21.349566971929033],[77.410314657248662,21.350125882663143],[77.410336402938782,21.350249919725254]]]},"properties":{"FID":0,"Id":0,"LGD_CODE":" ","Text":" "}},{"type":"Feature","id":1,"geometry":{"type":"Polygon","coordinates":[[[77.415492110526003,21.349599911368237],[77.415438514421567,21.349600164011132],[77.415177164244412,21.349602524294234],[77.414991584798344,21.34958477785538],[77.414937355954692,21.349579390654633],[77.414373984493594,21.34952448853246],[77.414316118054828,21.349514604134519],[77.413922484060762,21.349331941074542],[77.413566595940594,21.349001825473476],[77.412856639606375,21.348343276248922],[77.412696854799705,21.348195060146885],[77.412791676149055,21.348134237696058],[77.413260623380182,21.348547335205552],[77.41363511108203,21.348864950098779],[77.413749227640849,21.349031436805554],[77.413990436506509,21.349202403758969],[77.414209074464935,21.349319871111312],[77.414464765430495,21.349384686755783],[77.414548566234728,21.349401784477209],[77.415205969589891,21.349472606782335],[77.416043184750137,21.349496873017941],[77.416034448064735,21.349551648145379],[77.416027460110982,21.349595694119131],[77.415507767814887,21.349599837559669],[77.415492110526003,21.349599911368237]]]},"properties":{"FID":1,"Id":0,"LGD_CODE":" ","Text":" "}},{"type":"Feature","id":2,"geometry":{"type":"Polygon","coordinates":[[[77.414210433353375,21.341999016515533],[77.414134583539038,21.342003887750316],[77.413979200673509,21.342000669191592],[77.413951531065308,21.34200644214026],[77.413621113082485,21.342040724694133],[77.413386970063414,21.342061011350093],[77.413207949868124,21.342029689705701],[77.413137929762058,21.341998983952621],[77.413137847470281,21.341983748975519],[77.413137688982388,21.34195440753777],[77.41316577790991,21.341914776367719],[77.413187294704883,21.341884768733603],[77.413274154365197,21.341911445371782],[77.413373729871125,21.341951040438957],[77.413464695067489,21.341957383861278],[77.413669942626626,21.341938925874626],[77.413870372732148,21.341920490338836],[77.413973974477443,21.341925081237061],[77.414099804877338,21.341919974813298],[77.414290655027415,21.341911740842647],[77.414450112647486,21.34188898341371],[77.415232339231054,21.341885298469798],[77.415256392665228,21.341878978106482],[77.416225183621847,21.341854095941358],[77.416903261134976,21.341855974018269],[77.417052606860295,21.34185639736382],[77.41709898358171,21.341857871171221],[77.417135095764209,21.341854314988709],[77.417347581154132,21.341838075988974],[77.417820108368986,21.341802551160306],[77.418515510825685,21.341778949396577],[77.418706971976405,21.341772400977256],[77.419003242317729,21.341770999121866],[77.419416936871414,21.341769040890746],[77.41950485449,21.341768624616517],[77.419706149931741,21.341798706380402],[77.419895884362163,21.341806836054303],[77.420226764411112,21.341857745749106],[77.420252077176798,21.34186157582327],[77.420245763794043,21.341918597094526],[77.420244036952212,21.341933276279992],[77.419843952546998,21.341891158717885],[77.419585499379679,21.341870376143703],[77.419464406796493,21.341860792622871],[77.418970598097445,21.341858615909953],[77.418172186522924,21.341875935106497],[77.417416765060267,21.341936496913394],[77.417163967424429,21.341959133382883],[77.417063963324026,21.341951705846078],[77.417008560056345,21.341951403200298],[77.416379227842228,21.341943652750111],[77.415893922776036,21.341954970571138],[77.415296022907654,21.341969074974905],[77.415143085411401,21.341972617102758],[77.414210433353375,21.341999016515533]]]},"properties":{"FID":2,"Id":0,"LGD_CODE":" ","Text":" "}},{"type":"Feature","id":3,"geometry":{"type":"Polygon","coordinates":[[[77.403573482902161,21.356675764265638],[77.403558454131058,21.356680912866448],[77.402937581805261,21.356914019874548],[77.401438270901536,21.35685327193179],[77.401425984115065,21.355971267759383],[77.401424596078698,21.35587162282598],[77.401404144555144,21.354403460803681],[77.401401248016526,21.354195523892642],[77.401379723922645,21.352650330210679],[77.402612484060228,21.352649684028925],[77.402782229596625,21.353197926424727],[77.403588488813057,21.35317386374815],[77.404582796281673,21.353178263854765],[77.404603876873196,21.353178729942737],[77.405663399102096,21.353215548184263],[77.405488133774654,21.35354984669933],[77.405106210996735,21.353754762611619],[77.404329430764662,21.353773615969992],[77.403510111926934,21.354058997592965],[77.403315549299833,21.354389433731814],[77.403212434725532,21.354928222550065],[77.403284755149997,21.355276037911359],[77.403573482902161,21.356675764265638]]]},"properties":{"FID":3,"Id":0,"LGD_CODE":" ","Text":"51"}},{"type":"Feature","id":4,"geometry":{"type":"Polygon","coordinates":[[[77.404815861238333,21.356216312209785],[77.404436770917684,21.356389050044267],[77.403573482902161,21.356675764265642],[77.403284755149997,21.355276037911359],[77.404537648830271,21.354870143245837],[77.404772760181132,21.355477326141482],[77.404815861238333,21.356216312209785]]]},"properties":{"FID":4,"Id":0,"LGD_CODE":" ","Text":"72"}},{"type":"Feature","id":5,"geometry":{"type":"Polygon","coordinates":[[[77.406389890013372,21.355723705879424],[77.404815861238333,21.356216312209785],[77.404772760181132,21.355477326141482],[77.405645457312659,21.355262223848431],[77.406309419852377,21.355092668604371],[77.406389890013372,21.355723705879424]]]},"properties":{"FID":5,"Id":0,"LGD_CODE":" ","Text":"73"}},{"type":"Feature","id":6,"geometry":{"type":"Polygon","coordinates":[[[77.407948812237848,21.355335545862022],[77.406389890013372,21.355723705879424],[77.406309419852377,21.355092668604371],[77.40637974986069,21.355068077013371],[77.407783653587458,21.354747788997653],[77.407948812237848,21.355335545862022]]]},"properties":{"FID":6,"Id":0,"LGD_CODE":" ","Text":"74"}},{"type":"Feature","id":7,"geometry":{"type":"Polygon","coordinates":[[[77.405645457312659,21.355262223848431],[77.404772760181132,21.355477326141482],[77.404537648830271,21.354870143245837],[77.405227771783132,21.354075263440109],[77.405106210996735,21.353754762611615],[77.405488133774654,21.35354984669933],[77.405663399102096,21.353215548184263],[77.40577422011215,21.352992710441349],[77.406283613081698,21.35286281001828],[77.406503200734207,21.352820593821537],[77.405645457312659,21.355262223848431]]]},"properties":{"FID":7,"Id":0,"LGD_CODE":" ","Text":"70"}},{"type":"Feature","id":8,"geometry":{"type":"Polygon","coordinates":[[[77.410606635858613,21.354579401233195],[77.408111339068398,21.355208954821851],[77.407948812237848,21.355335545862022],[77.407783653587458,21.354747788997653],[77.407904345602958,21.354681205800301],[77.410427179438329,21.354022183620536],[77.410606635858613,21.354579401233195]]]},"properties":{"FID":8,"Id":0,"LGD_CODE":" ","Text":"75"}},{"type":"Feature","id":9,"geometry":{"type":"Polygon","coordinates":[[[77.413986069181064,21.355077573123044],[77.413847579218171,21.355082174892033],[77.410015714012928,21.355003112965321],[77.407948812237848,21.355335545862022],[77.408111339068398,21.355208954821851],[77.410606635858613,21.354579401233195],[77.410621070930119,21.354575947960541],[77.411663177395823,21.354284976452831],[77.413664572358769,21.353758703936865],[77.415152343866552,21.354806876455331],[77.415358453496552,21.354833554164543],[77.416066425240103,21.355007959864153],[77.413986069181064,21.355077573123044]]]},"properties":{"FID":9,"Id":0,"LGD_CODE":" ","Text":"80"}},{"type":"Feature","id":10,"geometry":{"type":"Polygon","coordinates":[[[77.404537648830271,21.354870143245837],[77.403284755149997,21.355276037911359],[77.403212434725532,21.354928222550061],[77.403315549299833,21.354389433731814],[77.403510111926934,21.354058997592965],[77.404329430764662,21.353773615969988],[77.405106210996735,21.353754762611615],[77.405227771783132,21.354075263440109],[77.404537648830271,21.354870143245837]]]},"properties":{"FID":10,"Id":0,"LGD_CODE":" ","Text":"71"}},{"type":"Feature","id":11,"geometry":{"type":"Polygon","coordinates":[[[77.406309419852377,21.355092668604371],[77.405645457312659,21.355262223848431],[77.406503200734207,21.352820593821537],[77.40686276228179,21.352713961743913],[77.406881346175453,21.35269807550679],[77.407116345429628,21.352497791956001],[77.407420902085406,21.352465898906061],[77.407139056104285,21.353138692748225],[77.406891267943465,21.35376167128662],[77.406644736873574,21.354394800028142],[77.40637974986069,21.355068077013371],[77.406309419852377,21.355092668604371]]]},"properties":{"FID":11,"Id":0,"LGD_CODE":" ","Text":"69"}},{"type":"Feature","id":12,"geometry":{"type":"Polygon","coordinates":[[[77.407783653587458,21.354747788997653],[77.40637974986069,21.355068077013371],[77.406644736873574,21.354394800028142],[77.408213276893179,21.354117752803887],[77.40812702814307,21.354317906193483],[77.407783653587458,21.354747788997653]]]},"properties":{"FID":12,"Id":0,"LGD_CODE":" ","Text":"68"}},{"type":"Feature","id":13,"geometry":{"type":"Polygon","coordinates":[[[77.416141458751213,21.354962464761194],[77.416132660859603,21.355005954774494],[77.416066425240103,21.355007959864153],[77.415358453496552,21.354833554164543],[77.41572654330264,21.353299836668089],[77.416533864229038,21.353138598027492],[77.416483593891982,21.353308115118107],[77.416141458751213,21.354962464761194]]]},"properties":{"FID":13,"Id":0,"LGD_CODE":" ","Text":"81"}},{"type":"Feature","id":14,"geometry":{"type":"Polygon","coordinates":[[[77.41572654330264,21.353299836668089],[77.415358453496552,21.354833554164543],[77.415152343866552,21.354806876455331],[77.413664572358769,21.353758703936865],[77.413706064419529,21.353747223415727],[77.413778418670887,21.353540361560995],[77.415183154121323,21.353378573985292],[77.415198802595384,21.35337680744594],[77.41572654330264,21.353299836668089]]]},"properties":{"FID":14,"Id":0,"LGD_CODE":" ","Text":"82"}},{"type":"Feature","id":15,"geometry":{"type":"Polygon","coordinates":[[[77.410427179438329,21.354022183620536],[77.407904345602958,21.354681205800301],[77.407783653587458,21.354747788997653],[77.40812702814307,21.354317906193483],[77.408213276893179,21.354117752803887],[77.408319755291473,21.353871799182368],[77.410208547295227,21.353347217474852],[77.410427179438329,21.354022183620536]]]},"properties":{"FID":15,"Id":0,"LGD_CODE":" ","Text":"76"}},{"type":"Feature","id":16,"geometry":{"type":"Polygon","coordinates":[[[77.411663177395823,21.354284976452831],[77.410621070930119,21.354575947960541],[77.410606635858613,21.354579401233195],[77.410427179438329,21.354022183620536],[77.410208547295227,21.353347217474852],[77.409971519379098,21.352610831751729],[77.41138735002545,21.353167331174252],[77.411663177395823,21.354284976452831]]]},"properties":{"FID":16,"Id":0,"LGD_CODE":" ","Text":"78"}},{"type":"Feature","id":17,"geometry":{"type":"Polygon","coordinates":[[[77.408213276893179,21.354117752803887],[77.406644736873574,21.354394800028142],[77.406891267943465,21.35376167128662],[77.408461766026647,21.353513954538418],[77.408319755291473,21.353871799182368],[77.408213276893179,21.354117752803887]]]},"properties":{"FID":17,"Id":0,"LGD_CODE":" ","Text":"67"}},{"type":"Feature","id":18,"geometry":{"type":"Polygon","coordinates":[[[77.413664572358769,21.353758703936865],[77.411663177395823,21.354284976452831],[77.41138735002545,21.353167331174252],[77.411485596455265,21.353182669584488],[77.412833331126905,21.35339471098446],[77.413778418670887,21.353540361560995],[77.413706064419529,21.353747223415727],[77.413664572358769,21.353758703936865]]]},"properties":{"FID":18,"Id":0,"LGD_CODE":" ","Text":"79"}},{"type":"Feature","id":19,"geometry":{"type":"Polygon","coordinates":[[[77.410208547295227,21.353347217474852],[77.408319755291473,21.353871799182368],[77.408461766026647,21.353513954538418],[77.40876643838439,21.352943184440036],[77.408998749176249,21.352579273863562],[77.409141987784579,21.352338225757162],[77.409553241939335,21.35198984032764],[77.409656354800887,21.351902460277671],[77.409665402161849,21.352016964129096],[77.409778741628088,21.352151293079746],[77.409744645354905,21.352306061942393],[77.409964479691453,21.352421835350583],[77.409971519379098,21.352610831751729],[77.410208547295227,21.353347217474852]]]},"properties":{"FID":19,"Id":0,"LGD_CODE":" ","Text":"77"}},{"type":"Feature","id":20,"geometry":{"type":"Polygon","coordinates":[[[77.408461766026647,21.353513954538418],[77.406891267943465,21.35376167128662],[77.407139056104285,21.353138692748225],[77.40876643838439,21.352943184440036],[77.408461766026647,21.353513954538418]]]},"properties":{"FID":20,"Id":0,"LGD_CODE":" ","Text":"66"}},{"type":"Feature","id":21,"geometry":{"type":"Polygon","coordinates":[[[77.413856432988354,21.352375348166738],[77.413778418670887,21.353540361560995],[77.412833331126905,21.35339471098446],[77.412645536598561,21.351628873995246],[77.412645457392784,21.351614203416172],[77.412639686198204,21.351437614835891],[77.413880947229643,21.351228641709557],[77.413856432988354,21.352375348166738]]]},"properties":{"FID":21,"Id":0,"LGD_CODE":" ","Text":"85"}},{"type":"Feature","id":22,"geometry":{"type":"Polygon","coordinates":[[[77.415183154121323,21.353378573985292],[77.413778418670887,21.353540361560995],[77.413856432988354,21.352375348166738],[77.415228082812405,21.352222179714754],[77.415183154121323,21.353378573985292]]]},"properties":{"FID":22,"Id":0,"LGD_CODE":" ","Text":"84"}},{"type":"Feature","id":23,"geometry":{"type":"Polygon","coordinates":[[[77.412645457392784,21.351614203416172],[77.412645536598561,21.351628873995246],[77.412833331126905,21.35339471098446],[77.411485596455265,21.353182669584488],[77.411592385413925,21.352771946581452],[77.411450180216249,21.352533929145924],[77.41118307704096,21.352475370162555],[77.410647229447093,21.35216527946913],[77.410815001696719,21.351560162589919],[77.412645457392784,21.351614203416172]]]},"properties":{"FID":23,"Id":0,"LGD_CODE":" ","Text":"86"}},{"type":"Feature","id":24,"geometry":{"type":"Polygon","coordinates":[[[77.41572654330264,21.353299836668089],[77.415198802595384,21.35337680744594],[77.415183154121323,21.353378573985292],[77.415228082812405,21.352222179714754],[77.415209635340574,21.351929411999649],[77.416669747134918,21.351765095134169],[77.416655127915291,21.35273401087187],[77.416533864229038,21.353138598027492],[77.41572654330264,21.353299836668089]]]},"properties":{"FID":24,"Id":0,"LGD_CODE":" ","Text":"83"}},{"type":"Feature","id":25,"geometry":{"type":"Polygon","coordinates":[[[77.40577422011215,21.352992710441349],[77.405663399102096,21.353215548184263],[77.404603876873196,21.353178729942737],[77.404582796281673,21.353178263854762],[77.404649267805794,21.351532552212735],[77.40503608234259,21.351342284893082],[77.405785953050398,21.35102392804033],[77.40577422011215,21.352992710441349]]]},"properties":{"FID":25,"Id":0,"LGD_CODE":" ","Text":"54"}},{"type":"Feature","id":26,"geometry":{"type":"Polygon","coordinates":[[[77.410815001696719,21.351560162589919],[77.410647229447093,21.35216527946913],[77.41118307704096,21.352475370162555],[77.411450180216249,21.352533929145924],[77.411592385413925,21.352771946581452],[77.411485596455265,21.353182669584488],[77.41138735002545,21.353167331174252],[77.409971519379098,21.352610831751729],[77.409964479691453,21.352421835350583],[77.409744645354905,21.352306061942393],[77.409778741628088,21.352151293079746],[77.409665402161849,21.352016964129096],[77.409656354800887,21.351902460277671],[77.409651820497686,21.351843233461455],[77.410063297192593,21.35153660150559],[77.410107407191646,21.351116579805453],[77.410080726138403,21.350858834504042],[77.410470994777086,21.350528601487451],[77.410776733952446,21.350269861763607],[77.411018279431943,21.350168289166746],[77.410923492460014,21.350459331815113],[77.410702523339722,21.351138617963972],[77.410888882221698,21.35141254231047],[77.410725868762256,21.351447727090999],[77.410709420308237,21.351524544586617],[77.410815001696719,21.351560162589919]]]},"properties":{"FID":26,"Id":0,"LGD_CODE":" ","Text":"61"}},{"type":"Feature","id":27,"geometry":{"type":"Polygon","coordinates":[[[77.403588488813057,21.35317386374815],[77.402782229596625,21.353197926424727],[77.402612484060228,21.352649684028929],[77.402988621395792,21.351587113913503],[77.40362704223071,21.351823958379192],[77.403588488813057,21.35317386374815]]]},"properties":{"FID":27,"Id":0,"LGD_CODE":" ","Text":"52"}},{"type":"Feature","id":28,"geometry":{"type":"Polygon","coordinates":[[[77.404649267805794,21.351532552212735],[77.404582796281673,21.353178263854762],[77.403588488813057,21.35317386374815],[77.40362704223071,21.351823958379192],[77.40383865078752,21.351866422359777],[77.404071154455352,21.351762079401603],[77.404649267805794,21.351532552212735]]]},"properties":{"FID":28,"Id":0,"LGD_CODE":" ","Text":"53"}},{"type":"Feature","id":29,"geometry":{"type":"Polygon","coordinates":[[[77.40876643838439,21.352943184440036],[77.407139056104285,21.353138692748225],[77.407420902085406,21.352465898906061],[77.408308836879129,21.352400243357135],[77.409141987784579,21.352338225757162],[77.408998749176249,21.352579273863562],[77.40876643838439,21.352943184440036]]]},"properties":{"FID":29,"Id":0,"LGD_CODE":" ","Text":"65"}},{"type":"Feature","id":30,"geometry":{"type":"Polygon","coordinates":[[[77.406283613081698,21.35286281001828],[77.40577422011215,21.352992710441349],[77.405785953050398,21.35102392804033],[77.405872450360988,21.350982333102024],[77.406208879473752,21.350830104239712],[77.406283613081698,21.35286281001828]]]},"properties":{"FID":30,"Id":0,"LGD_CODE":" ","Text":"55"}},{"type":"Feature","id":31,"geometry":{"type":"Polygon","coordinates":[[[77.406503200734207,21.352820593821537],[77.406283613081698,21.35286281001828],[77.406208879473752,21.350830104239712],[77.406492440813764,21.350701820763994],[77.406654283310274,21.350672851951742],[77.406881346175453,21.35269807550679],[77.40686276228179,21.352713961743913],[77.406503200734207,21.352820593821537]]]},"properties":{"FID":31,"Id":0,"LGD_CODE":" ","Text":"56"}},{"type":"Feature","id":32,"geometry":{"type":"Polygon","coordinates":[[[77.407116345429628,21.352497791956001],[77.406881346175453,21.35269807550679],[77.406654283310274,21.350672851951742],[77.407063402834439,21.350599843975875],[77.40702875278464,21.350427339820897],[77.407553758068332,21.350290591542706],[77.407685478430153,21.349923201719697],[77.408083574212213,21.34948008297436],[77.408316822002107,21.349627394879718],[77.408333651073988,21.349397094638618],[77.408522234564643,21.349413704899622],[77.408518936734509,21.349472404251408],[77.408574617734828,21.350756418058658],[77.408236472191405,21.350925022862675],[77.408100486279167,21.351058825883868],[77.407891522430972,21.351396670492573],[77.407417335920272,21.351577194958566],[77.40709480637652,21.351962967499968],[77.407116345429628,21.352497791956001]]]},"properties":{"FID":32,"Id":0,"LGD_CODE":" ","Text":"57"}},{"type":"Feature","id":33,"geometry":{"type":"Polygon","coordinates":[[[77.402988621395792,21.351587113913503],[77.402612484060228,21.352649684028929],[77.401379723922645,21.352650330210679],[77.40137841908583,21.352556027948005],[77.401375804799187,21.352367086830995],[77.401484728064673,21.352216754860727],[77.401625387070069,21.352022621839275],[77.401943547007065,21.351583506008179],[77.401999336852626,21.351506506129148],[77.402988621395792,21.351587113913503]]]},"properties":{"FID":33,"Id":0,"LGD_CODE":" ","Text":"50"}},{"type":"Feature","id":34,"geometry":{"type":"Polygon","coordinates":[[[77.407420902085406,21.352465898906061],[77.407116345429628,21.352497791956001],[77.40709480637652,21.351962967499968],[77.407417335920272,21.351577194958566],[77.407891522430972,21.351396670492573],[77.408100486279167,21.351058825883868],[77.408308836879129,21.352400243357135],[77.407420902085406,21.352465898906061]]]},"properties":{"FID":34,"Id":0,"LGD_CODE":" ","Text":"64"}},{"type":"Feature","id":35,"geometry":{"type":"Polygon","coordinates":[[[77.409141987784579,21.352338225757162],[77.408308836879129,21.352400243357135],[77.408100486279167,21.351058825883868],[77.408236472191405,21.350925022862675],[77.408574617734828,21.350756418058658],[77.409152405926591,21.350468194741996],[77.409553241939335,21.35198984032764],[77.409141987784579,21.352338225757162]]]},"properties":{"FID":35,"Id":0,"LGD_CODE":" ","Text":"63"}},{"type":"Feature","id":36,"geometry":{"type":"Polygon","coordinates":[[[77.415228082812405,21.352222179714754],[77.413856432988354,21.352375348166738],[77.413880947229643,21.351228641709557],[77.41389031485059,21.350844895590498],[77.414010520809526,21.350577995466924],[77.41430831000892,21.350297845353051],[77.414787843795835,21.351218729450167],[77.414962949236369,21.35119251253548],[77.415302139607036,21.35121799910025],[77.415209635340574,21.351929411999649],[77.415228082812405,21.352222179714754]]]},"properties":{"FID":36,"Id":0,"LGD_CODE":" ","Text":"93"}},{"type":"Feature","id":37,"geometry":{"type":"Polygon","coordinates":[[[77.409656354800887,21.351902460277671],[77.409553241939335,21.35198984032764],[77.409152405926591,21.350468194741996],[77.409678638323939,21.35033594907236],[77.410251549646873,21.350261038523435],[77.410336402938782,21.350249919725254],[77.410470994777086,21.350528601487451],[77.410080726138403,21.350858834504042],[77.410107407191646,21.351116579805453],[77.410063297192593,21.35153660150559],[77.409651820497686,21.351843233461455],[77.409656354800887,21.351902460277671]]]},"properties":{"FID":37,"Id":0,"LGD_CODE":" ","Text":"62"}},{"type":"Feature","id":38,"geometry":{"type":"Polygon","coordinates":[[[77.416669747134918,21.351765095134169],[77.415209635340574,21.351929411999649],[77.415302139607036,21.35121799910025],[77.414962949236369,21.35119251253548],[77.414991584798344,21.34958477785538],[77.415177164244412,21.349602524294234],[77.415438514421567,21.349600164011132],[77.415492110526003,21.349599911368237],[77.41547201170583,21.35111506598448],[77.415487054702837,21.351112738003231],[77.416679418952029,21.351105420901163],[77.416677615964602,21.351217154173028],[77.416669747134918,21.351765095134169]]]},"properties":{"FID":38,"Id":0,"LGD_CODE":" ","Text":"94"}},{"type":"Feature","id":39,"geometry":{"type":"Polygon","coordinates":[[[77.404071154455352,21.351762079401603],[77.40383865078752,21.351866422359777],[77.40362704223071,21.351823958379192],[77.402988621395792,21.351587113913503],[77.404011334045094,21.349697702240416],[77.404611160690038,21.349588262770798],[77.404071154455352,21.351762079401603]]]},"properties":{"FID":39,"Id":0,"LGD_CODE":" ","Text":"48"}},{"type":"Feature","id":40,"geometry":{"type":"Polygon","coordinates":[[[77.404649267805794,21.351532552212735],[77.404071154455352,21.351762079401603],[77.404611160690038,21.349588262770798],[77.405306531374933,21.349440005846454],[77.40503608234259,21.351342284893082],[77.404649267805794,21.351532552212735]]]},"properties":{"FID":40,"Id":0,"LGD_CODE":" ","Text":"47"}},{"type":"Feature","id":41,"geometry":{"type":"Polygon","coordinates":[[[77.412639686198204,21.351437614835891],[77.412645457392784,21.351614203416172],[77.410815001696719,21.351560162589919],[77.410709420308237,21.351524544586617],[77.410725868762256,21.351447727090999],[77.410888882221698,21.35141254231047],[77.410702523339722,21.351138617963972],[77.410923492460014,21.350459331815113],[77.412526077627518,21.350584411634578],[77.412563991087779,21.350802605160812],[77.412639686198204,21.351437614835891]]]},"properties":{"FID":41,"Id":0,"LGD_CODE":" ","Text":"87"}},{"type":"Feature","id":42,"geometry":{"type":"Polygon","coordinates":[[[77.404011334045094,21.349697702240416],[77.402988621395792,21.351587113913503],[77.401999336852626,21.351506506129148],[77.40202337348542,21.351473319207113],[77.403392715946197,21.349582664821632],[77.403743595907159,21.349098194990777],[77.404063577971257,21.348656383713497],[77.404057617636781,21.348780550411693],[77.404011334045094,21.349697702240416]]]},"properties":{"FID":42,"Id":0,"LGD_CODE":" ","Text":"49"}},{"type":"Feature","id":43,"geometry":{"type":"Polygon","coordinates":[[[77.413880947229643,21.351228641709557],[77.412639686198204,21.351437614835891],[77.412563991087779,21.350802605160812],[77.412826413504902,21.350775415609792],[77.413352459452142,21.35072046551565],[77.413566595940594,21.349001825473476],[77.413922484060762,21.349331941074542],[77.414316118054828,21.349514604134519],[77.414373984493594,21.34952448853246],[77.414292487855192,21.350267449360832],[77.41430831000892,21.350297845353051],[77.414010520809526,21.350577995466924],[77.41389031485059,21.350844895590498],[77.413880947229643,21.351228641709557]]]},"properties":{"FID":43,"Id":0,"LGD_CODE":" ","Text":"91"}},{"type":"Feature","id":44,"geometry":{"type":"Polygon","coordinates":[[[77.405785953050398,21.35102392804033],[77.40503608234259,21.351342284893082],[77.405306531374933,21.349440005846454],[77.406118431714859,21.349235904451223],[77.405872450360988,21.350982333102024],[77.405785953050398,21.35102392804033]]]},"properties":{"FID":44,"Id":0,"LGD_CODE":" ","Text":"46"}},{"type":"Feature","id":45,"geometry":{"type":"Polygon","coordinates":[[[77.414962949236369,21.35119251253548],[77.414787843795835,21.351218729450167],[77.41430831000892,21.350297845353051],[77.414292487855192,21.350267449360832],[77.414373984493594,21.34952448853246],[77.414937355954692,21.349579390654633],[77.414991584798344,21.34958477785538],[77.414962949236369,21.35119251253548]]]},"properties":{"FID":45,"Id":0,"LGD_CODE":" ","Text":"92"}},{"type":"Feature","id":46,"geometry":{"type":"Polygon","coordinates":[[[77.416679418952029,21.351105420901163],[77.415487054702837,21.351112738003231],[77.41547201170583,21.35111506598448],[77.415492110526003,21.349599911368237],[77.415507767814887,21.349599837559669],[77.416027460110982,21.349595694119131],[77.416022217847768,21.349628446750444],[77.416018717802757,21.34964934097242],[77.416004747905944,21.349738561128369],[77.415960499921795,21.350019211169762],[77.415947049822591,21.350093193960319],[77.41669095485598,21.350345297246729],[77.416689604006407,21.350429379890436],[77.416679418952029,21.351105420901163]]]},"properties":{"FID":46,"Id":0,"LGD_CODE":" ","Text":"95"}},{"type":"Feature","id":47,"geometry":{"type":"Polygon","coordinates":[[[77.406208879473752,21.350830104239712],[77.405872450360988,21.350982333102024],[77.406118431714859,21.349235904451223],[77.406919877519385,21.348879495837519],[77.40702875278464,21.350427339820897],[77.407063402834439,21.350599843975875],[77.406654283310274,21.350672851951742],[77.406492440813764,21.350701820763994],[77.406208879473752,21.350830104239712]]]},"properties":{"FID":47,"Id":0,"LGD_CODE":" ","Text":"45"}},{"type":"Feature","id":48,"geometry":{"type":"Polygon","coordinates":[[[77.412826413504902,21.350775415609792],[77.412563991087779,21.350802605160812],[77.412526077627518,21.350584411634578],[77.412285767870159,21.348459941056749],[77.412696854799705,21.348195060146885],[77.412856639606375,21.348343276248922],[77.412826413504902,21.350775415609792]]]},"properties":{"FID":48,"Id":0,"LGD_CODE":" ","Text":"89"}},{"type":"Feature","id":49,"geometry":{"type":"Polygon","coordinates":[[[77.413566595940594,21.349001825473476],[77.413352459452142,21.35072046551565],[77.412826413504902,21.350775415609792],[77.412856639606375,21.348343276248922],[77.413566595940594,21.349001825473476]]]},"properties":{"FID":49,"Id":0,"LGD_CODE":" ","Text":"90"}},{"type":"Feature","id":50,"geometry":{"type":"Polygon","coordinates":[[[77.409152405926591,21.350468194741996],[77.408574617734828,21.350756418058658],[77.408518936734509,21.349472404251408],[77.408522234564643,21.349413704899622],[77.408533092869405,21.349193025088194],[77.408702906390403,21.349078812643448],[77.408971808369316,21.349025077338801],[77.409253244109038,21.348950405032383],[77.409363637516435,21.348761422385593],[77.409518429282556,21.348877501216528],[77.40958070797636,21.34892404386899],[77.409678638323939,21.35033594907236],[77.409152405926591,21.350468194741996]]]},"properties":{"FID":50,"Id":0,"LGD_CODE":" ","Text":"58"}},{"type":"Feature","id":51,"geometry":{"type":"Polygon","coordinates":[[[77.412285767870159,21.348459941056749],[77.412526077627518,21.350584411634578],[77.410923492460014,21.350459331815113],[77.411018279431943,21.350168289166746],[77.41087710225456,21.349896974057749],[77.411080729751191,21.349464353596282],[77.410963248750605,21.349231861740314],[77.411254562468272,21.349090556480462],[77.412285767870159,21.348459941056749]]]},"properties":{"FID":51,"Id":0,"LGD_CODE":" ","Text":"88"}},{"type":"Feature","id":52,"geometry":{"type":"Polygon","coordinates":[[[77.411018279431943,21.350168289166746],[77.410776733952446,21.350269861763607],[77.410470994777086,21.350528601487451],[77.410336402938782,21.350249919725254],[77.410314657248662,21.350125882663143],[77.410375482631324,21.349566971929033],[77.410512293086853,21.349363193922844],[77.410709718282121,21.349344211671774],[77.410876756627758,21.349274023290366],[77.410963248750605,21.349231861740314],[77.411080729751191,21.349464353596282],[77.41087710225456,21.349896974057749],[77.411018279431943,21.350168289166746]]]},"properties":{"FID":52,"Id":0,"LGD_CODE":" ","Text":"60"}},{"type":"Feature","id":53,"geometry":{"type":"Polygon","coordinates":[[[77.408083574212213,21.34948008297436],[77.407685478430153,21.349923201719697],[77.407553758068332,21.350290591542706],[77.40702875278464,21.350427339820897],[77.406919877519385,21.348879495837519],[77.407429955791187,21.348655355685462],[77.408083574212213,21.34948008297436]]]},"properties":{"FID":53,"Id":0,"LGD_CODE":" ","Text":"44"}},{"type":"Feature","id":54,"geometry":{"type":"Polygon","coordinates":[[[77.410251549646873,21.350261038523435],[77.409678638323939,21.35033594907236],[77.40958070797636,21.34892404386899],[77.409518429282556,21.348877501216528],[77.409799815946087,21.348793800026044],[77.409945919865891,21.348750231117243],[77.409923478300499,21.348608704750706],[77.41023784919463,21.348387730969577],[77.410458674428057,21.348241114447241],[77.410688329548947,21.347721474170612],[77.411020483507059,21.347895404185518],[77.411313564963223,21.347747319112379],[77.411623513786608,21.347712008306821],[77.411566745316307,21.348687332034647],[77.411183174193482,21.349029950393628],[77.41084020188444,21.349195761385229],[77.4104986616926,21.349292159983719],[77.410383643548784,21.349404988611198],[77.410265908960014,21.349572563931076],[77.410310440485077,21.349790162818145],[77.410280195402379,21.349988927014117],[77.410251549646873,21.350261038523435]]]},"properties":{"FID":54,"Id":0,"LGD_CODE":" ","Text":"59"}},{"type":"Feature","id":55,"geometry":{"type":"Polygon","coordinates":[[[77.404611160690038,21.349588262770798],[77.404011334045094,21.349697702240416],[77.404057617636781,21.348780550411693],[77.404063577971257,21.348656383713497],[77.404373768181614,21.348440517117798],[77.404632618905836,21.34830896581332],[77.405130271852158,21.347900937766891],[77.405145263097992,21.3478890180067],[77.405574711990965,21.347340239016908],[77.405978442037863,21.346824870841932],[77.406013729785357,21.346779564240013],[77.406386481863663,21.346439827757887],[77.406543823153811,21.346695271893463],[77.407087606077383,21.346468717812314],[77.407062625149763,21.346302374793744],[77.407375937839277,21.346333074233041],[77.407693345947294,21.346117168788933],[77.408351698235009,21.346143432816501],[77.408291636823847,21.345836750209013],[77.408436097228474,21.345711935143516],[77.408496040199722,21.345660306111473],[77.40893801402089,21.34542801590802],[77.409253943154042,21.345497635047295],[77.40964660292947,21.345277987922938],[77.410125173967799,21.345468162048419],[77.410334825139159,21.345819284380894],[77.410404635115228,21.346146234019631],[77.409701855734497,21.346257302773076],[77.409012668477246,21.346992388016524],[77.408565385921065,21.347470160363851],[77.408554007883708,21.347482063252677],[77.408044981283638,21.348013164293643],[77.407429955791187,21.348655355685462],[77.406919877519385,21.348879495837519],[77.406118431714859,21.349235904451223],[77.405306531374933,21.349440005846454],[77.404611160690038,21.349588262770798]]]},"properties":{"FID":55,"Id":0,"LGD_CODE":" ","Text":"39"}},{"type":"Feature","id":56,"geometry":{"type":"Polygon","coordinates":[[[77.408522234564643,21.349413704899622],[77.408333651073988,21.349397094638618],[77.408316822002107,21.349627394879718],[77.408083574212213,21.34948008297436],[77.407429955791187,21.348655355685462],[77.408044981283638,21.348013164293643],[77.408971808369316,21.349025077338801],[77.408702906390403,21.349078812643448],[77.408533092869405,21.349193025088194],[77.408522234564643,21.349413704899622]]]},"properties":{"FID":56,"Id":0,"LGD_CODE":" ","Text":"43"}},{"type":"Feature","id":57,"geometry":{"type":"Polygon","coordinates":[[[77.416196328778909,21.348641283193299],[77.416100237166773,21.349134343203833],[77.416087429110078,21.349215658764457],[77.416043184750137,21.349496873017941],[77.415205969589891,21.349472606782335],[77.414548566234728,21.349401784477209],[77.414464765430495,21.349384686755783],[77.41441164583253,21.348693707555157],[77.416196328778909,21.348641283193299]]]},"properties":{"FID":57,"Id":0,"LGD_CODE":" ","Text":"96"}},{"type":"Feature","id":58,"geometry":{"type":"Polygon","coordinates":[[[77.41441164583253,21.348693707555157],[77.414464765430495,21.349384686755783],[77.414209074464935,21.349319871111312],[77.413990436506509,21.349202403758969],[77.413749227640849,21.349031436805554],[77.41363511108203,21.348864950098779],[77.413260623380182,21.348547335205552],[77.41440390360998,21.348598382539375],[77.41441164583253,21.348693707555157]]]},"properties":{"FID":58,"Id":0,"LGD_CODE":" ","Text":"97"}},{"type":"Feature","id":59,"geometry":{"type":"Polygon","coordinates":[[[77.409518429282556,21.348877501216528],[77.409363637516435,21.348761422385593],[77.409253244109038,21.348950405032383],[77.408971808369316,21.349025077338801],[77.408044981283638,21.348013164293643],[77.408554007883708,21.347482063252677],[77.408565385921065,21.347470160363851],[77.409799815946087,21.348793800026044],[77.409518429282556,21.348877501216528]]]},"properties":{"FID":59,"Id":0,"LGD_CODE":" ","Text":"42"}},{"type":"Feature","id":60,"geometry":{"type":"Polygon","coordinates":[[[77.41023784919463,21.348387730969577],[77.409923478300499,21.348608704750706],[77.409945919865891,21.348750231117243],[77.409799815946087,21.348793800026044],[77.408565385921065,21.347470160363851],[77.409012668477246,21.346992388016524],[77.41023784919463,21.348387730969577]]]},"properties":{"FID":60,"Id":0,"LGD_CODE":" ","Text":"41"}},{"type":"Feature","id":61,"geometry":{"type":"Polygon","coordinates":[[[77.416196328778909,21.348641283193299],[77.41441164583253,21.348693707555157],[77.41440390360998,21.348598382539375],[77.414372622555817,21.348270689433992],[77.416287143199753,21.348174768700606],[77.416196328778909,21.348641283193299]]]},"properties":{"FID":61,"Id":0,"LGD_CODE":" ","Text":"99"}},{"type":"Feature","id":62,"geometry":{"type":"Polygon","coordinates":[[[77.412381477411472,21.346666806866843],[77.413253634420045,21.346584838289356],[77.413169882263588,21.347468314554668],[77.412535555190985,21.347989295533921],[77.412129682526583,21.348439231956267],[77.411781307360286,21.348496166176194],[77.411566745316307,21.348687332034647],[77.411623513786608,21.347712008306821],[77.412025960266803,21.347631685354791],[77.412384952079563,21.346864285066086],[77.412381477411472,21.346666806866843]]]},"properties":{"FID":62,"Id":0,"LGD_CODE":" ","Text":"37"}},{"type":"Feature","id":63,"geometry":{"type":"Polygon","coordinates":[[[77.414372622555817,21.348270689433992],[77.41440390360998,21.348598382539375],[77.413260623380182,21.348547335205552],[77.412791676149055,21.348134237696058],[77.412808479809641,21.348123437601249],[77.413307853363364,21.347814691566072],[77.414353878850662,21.347811462403232],[77.414372622555817,21.348270689433992]]]},"properties":{"FID":63,"Id":0,"LGD_CODE":" ","Text":"98"}},{"type":"Feature","id":64,"geometry":{"type":"Polygon","coordinates":[[[77.410688329548947,21.347721474170612],[77.410458674428057,21.348241114447241],[77.41023784919463,21.348387730969577],[77.409012668477246,21.346992388016524],[77.409701855734497,21.346257302773076],[77.410404635115228,21.346146234019631],[77.410472508105599,21.346448928990437],[77.410249964328713,21.346499627927937],[77.409812464409313,21.347003878260775],[77.409829048602518,21.347064177446917],[77.40988833797654,21.347786164849989],[77.410688329548947,21.347721474170612]]]},"properties":{"FID":64,"Id":0,"LGD_CODE":" ","Text":"40"}},{"type":"Feature","id":65,"geometry":{"type":"Polygon","coordinates":[[[77.416287143199753,21.348174768700606],[77.414372622555817,21.348270689433992],[77.414353878850662,21.347811462403232],[77.414367454475126,21.347426566606117],[77.414411566146271,21.347231685839361],[77.414406600863984,21.346981737649408],[77.414405894896262,21.346962555793958],[77.415298979197161,21.346963991412633],[77.416128686575107,21.347049798102077],[77.416489263859503,21.347133865896005],[77.416287143199753,21.348174768700606]]]},"properties":{"FID":65,"Id":0,"LGD_CODE":" ","Text":"100"}},{"type":"Feature","id":66,"geometry":{"type":"Polygon","coordinates":[[[77.411623513786608,21.347712008306821],[77.411313564963223,21.347747319112379],[77.411020483507059,21.347895404185518],[77.410688329548947,21.347721474170612],[77.40988833797654,21.347786164849989],[77.409829048602518,21.347064177446917],[77.409812464409313,21.347003878260775],[77.410249964328713,21.346499627927937],[77.410472508105599,21.346448928990437],[77.410404635115228,21.346146234019631],[77.410334825139159,21.345819284380894],[77.410125173967799,21.345468162048419],[77.410145049107371,21.34546863310505],[77.410201697297168,21.345476267711103],[77.411281005301703,21.345617352189013],[77.411362766433257,21.345703302035854],[77.411989571323844,21.346021429583928],[77.412026047888446,21.346308471920981],[77.412381477411472,21.346666806866843],[77.412384952079563,21.346864285066086],[77.412025960266803,21.347631685354791],[77.411623513786608,21.347712008306821]]]},"properties":{"FID":66,"Id":0,"LGD_CODE":" ","Text":"38"}},{"type":"Feature","id":67,"geometry":{"type":"Polygon","coordinates":[[[77.414405894896262,21.346962555793958],[77.414406600863984,21.346981737649408],[77.414411566146271,21.347231685839361],[77.414367454475126,21.347426566606117],[77.414353878850662,21.347811462403232],[77.413307853363364,21.347814691566072],[77.41373217361236,21.346767667994826],[77.414398716194412,21.346748731246354],[77.414405894896262,21.346962555793958]]]},"properties":{"FID":67,"Id":0,"LGD_CODE":" ","Text":"101"}},{"type":"Feature","id":68,"geometry":{"type":"Polygon","coordinates":[[[77.418003449211042,21.346843450725544],[77.418005335800459,21.346858112824449],[77.417282703124485,21.346861527124496],[77.417248986159933,21.347195734169961],[77.416489263859503,21.347133865896005],[77.416128686575107,21.347049798102077],[77.416326687499293,21.346471051346423],[77.41646600018008,21.346064119269684],[77.41648022332943,21.346021731858244],[77.417925540282198,21.346136788069341],[77.418003449211042,21.346843450725544]]]},"properties":{"FID":68,"Id":0,"LGD_CODE":" ","Text":"103"}},{"type":"Feature","id":69,"geometry":{"type":"Polygon","coordinates":[[[77.416326687499293,21.346471051346423],[77.416128686575107,21.347049798102077],[77.415298979197161,21.346963991412633],[77.414405894896262,21.346962555793958],[77.414398716194412,21.346748731246354],[77.414429836705494,21.346490148974564],[77.416326687499293,21.346471051346423]]]},"properties":{"FID":69,"Id":0,"LGD_CODE":" ","Text":"102"}},{"type":"Feature","id":70,"geometry":{"type":"Polygon","coordinates":[[[77.414398716194412,21.346748731246354],[77.41373217361236,21.346767667994826],[77.413717327229506,21.346472060277556],[77.413234029272985,21.346299973999791],[77.413260061570398,21.34565658319411],[77.414464429862122,21.346205593840889],[77.414429836705494,21.346490148974564],[77.414398716194412,21.346748731246354]]]},"properties":{"FID":70,"Id":0,"LGD_CODE":" ","Text":"36"}},{"type":"Feature","id":71,"geometry":{"type":"Polygon","coordinates":[[[77.413234029272985,21.346299973999791],[77.412890648191436,21.346500211530692],[77.41285568529284,21.346270717866982],[77.412528898425833,21.346198334198494],[77.41242803152069,21.345808332935455],[77.411726767837095,21.34541832965148],[77.411940579795385,21.345088920114836],[77.413260061570398,21.34565658319411],[77.413234029272985,21.346299973999791]]]},"properties":{"FID":71,"Id":0,"LGD_CODE":" ","Text":"35"}},{"type":"Feature","id":72,"geometry":{"type":"Polygon","coordinates":[[[77.416326687499293,21.346471051346423],[77.414429836705494,21.346490148974564],[77.414464429862122,21.346205593840889],[77.414482313325635,21.346060492125421],[77.41646600018008,21.346064119269684],[77.416326687499293,21.346471051346423]]]},"properties":{"FID":72,"Id":0,"LGD_CODE":" ","Text":"104"}},{"type":"Feature","id":73,"geometry":{"type":"Polygon","coordinates":[[[77.414482313325635,21.346060492125421],[77.414464429862122,21.346205593840889],[77.413260061570398,21.34565658319411],[77.411940579795385,21.345088920114836],[77.412167352820461,21.344706407861459],[77.414534184437301,21.345630273658955],[77.414482313325635,21.346060492125421]]]},"properties":{"FID":73,"Id":0,"LGD_CODE":" ","Text":"34"}},{"type":"Feature","id":74,"geometry":{"type":"Polygon","coordinates":[[[77.418912763793344,21.34528853429287],[77.418891745154085,21.345631710823746],[77.417871694964305,21.345647255852992],[77.417925540282198,21.346136788069341],[77.41648022332943,21.346021731858244],[77.416645409098223,21.345833050130999],[77.41668895473353,21.345534345367845],[77.416878482273006,21.345059463043178],[77.418912763793344,21.34528853429287]]]},"properties":{"FID":74,"Id":0,"LGD_CODE":" ","Text":"108"}},{"type":"Feature","id":75,"geometry":{"type":"Polygon","coordinates":[[[77.416274358514514,21.345593857565962],[77.416306293884318,21.345930576487163],[77.41646600018008,21.346064119269684],[77.414482313325635,21.346060492125421],[77.414534184437301,21.345630273658955],[77.414538225765185,21.345598091195562],[77.416274358514514,21.345593857565962]]]},"properties":{"FID":75,"Id":0,"LGD_CODE":" ","Text":"105"}},{"type":"Feature","id":76,"geometry":{"type":"Polygon","coordinates":[[[77.41648022332943,21.346021731858244],[77.41646600018008,21.346064119269684],[77.416306293884318,21.345930576487163],[77.416274358514514,21.345593857565962],[77.416208107199537,21.345036670455624],[77.414636597848769,21.344969594379911],[77.414725370884071,21.344347913590948],[77.414729442676972,21.344321373653646],[77.417232777967683,21.344541481794845],[77.41707360067106,21.344727314545171],[77.416878482273006,21.345059463043178],[77.41668895473353,21.345534345367845],[77.416645409098223,21.345833050130999],[77.41648022332943,21.346021731858244]]]},"properties":{"FID":76,"Id":0,"LGD_CODE":" ","Text":"107"}},{"type":"Feature","id":77,"geometry":{"type":"Polygon","coordinates":[[[77.414538225765185,21.345598091195562],[77.414534184437301,21.345630273658955],[77.412167352820461,21.344706407861459],[77.412415006373266,21.344287683720669],[77.414610977780441,21.345131660833736],[77.414538225765185,21.345598091195562]]]},"properties":{"FID":77,"Id":0,"LGD_CODE":" ","Text":"33"}},{"type":"Feature","id":78,"geometry":{"type":"Polygon","coordinates":[[[77.414636597848769,21.344969594379911],[77.416208107199537,21.345036670455624],[77.416274358514514,21.345593857565962],[77.414538225765185,21.345598091195562],[77.414610977780441,21.345131660833736],[77.414636597848769,21.344969594379911]]]},"properties":{"FID":78,"Id":0,"LGD_CODE":" ","Text":"106"}},{"type":"Feature","id":79,"geometry":{"type":"Polygon","coordinates":[[[77.418942677817299,21.344809326850399],[77.418912763793344,21.34528853429287],[77.416878482273006,21.345059463043178],[77.41707360067106,21.344727314545171],[77.418942677817299,21.344809326850399]]]},"properties":{"FID":79,"Id":0,"LGD_CODE":" ","Text":"109"}},{"type":"Feature","id":80,"geometry":{"type":"Polygon","coordinates":[[[77.414636597848769,21.344969594379911],[77.414610977780441,21.345131660833736],[77.412415006373266,21.344287683720669],[77.412669279667284,21.343868363701471],[77.414725370884071,21.344347913590948],[77.414636597848769,21.344969594379911]]]},"properties":{"FID":80,"Id":0,"LGD_CODE":" ","Text":"32"}},{"type":"Feature","id":81,"geometry":{"type":"Polygon","coordinates":[[[77.418968160744313,21.344401237976069],[77.418942677817299,21.344809326850399],[77.41707360067106,21.344727314545171],[77.417232777967683,21.344541481794845],[77.417480637270046,21.344273974825342],[77.417979521728441,21.344322401657017],[77.418668761245939,21.344381776493112],[77.418928422508003,21.344402554546445],[77.418968160744313,21.344401237976069]]]},"properties":{"FID":81,"Id":0,"LGD_CODE":" ","Text":"110"}},{"type":"Feature","id":82,"geometry":{"type":"Polygon","coordinates":[[[77.417480637270046,21.344273974825342],[77.417232777967683,21.344541481794845],[77.414729442676972,21.344321373653646],[77.414754953279143,21.344027832287697],[77.41483445563496,21.34369623028828],[77.41742659670264,21.343970087727911],[77.417480637270046,21.344273974825342]]]},"properties":{"FID":82,"Id":0,"LGD_CODE":" ","Text":"111"}},{"type":"Feature","id":83,"geometry":{"type":"Polygon","coordinates":[[[77.420244036952212,21.341933276279992],[77.419969698213407,21.344415681080044],[77.419746696770304,21.34438118817161],[77.419519697261507,21.344386777299295],[77.419843952546998,21.341891158717885],[77.420244036952212,21.341933276279992]]]},"properties":{"FID":83,"Id":0,"LGD_CODE":" ","Text":"5"}},{"type":"Feature","id":84,"geometry":{"type":"Polygon","coordinates":[[[77.418968160744313,21.344401237976069],[77.418928422508003,21.344402554546445],[77.418668761245939,21.344381776493112],[77.418755339602086,21.343580665335697],[77.418941913664455,21.343007046358817],[77.419127147121017,21.342408605221365],[77.419464406796493,21.341860792622871],[77.419585499379679,21.341870376143703],[77.419843952546998,21.341891158717885],[77.419519697261507,21.344386777299295],[77.418968160744313,21.344401237976069]]]},"properties":{"FID":84,"Id":0,"LGD_CODE":" ","Text":"4"}},{"type":"Feature","id":85,"geometry":{"type":"Polygon","coordinates":[[[77.418941913664455,21.343007046358817],[77.418755339602086,21.343580665335697],[77.418668761245939,21.344381776493112],[77.417979521728441,21.344322401657017],[77.417480637270046,21.344273974825342],[77.41742659670264,21.343970087727911],[77.417396773275485,21.343800947092081],[77.417174432241907,21.343666007800653],[77.41718086406604,21.34296458724754],[77.418941913664455,21.343007046358817]]]},"properties":{"FID":85,"Id":0,"LGD_CODE":" ","Text":"3"}},{"type":"Feature","id":86,"geometry":{"type":"Polygon","coordinates":[[[77.414729442676972,21.344321373653646],[77.414725370884071,21.344347913590948],[77.412669279667284,21.343868363701471],[77.412813700891007,21.343625612356405],[77.412802259250469,21.343291052888514],[77.413815303268109,21.343430178061464],[77.41483986064118,21.343582221913454],[77.41483445563496,21.34369623028828],[77.414754953279143,21.344027832287697],[77.414729442676972,21.344321373653646]]]},"properties":{"FID":86,"Id":0,"LGD_CODE":" ","Text":"31"}},{"type":"Feature","id":87,"geometry":{"type":"Polygon","coordinates":[[[77.41718086406604,21.34296458724754],[77.417174432241907,21.343666007800653],[77.417396773275485,21.343800947092081],[77.41742659670264,21.343970087727911],[77.41483445563496,21.34369623028828],[77.41483986064118,21.343582221913454],[77.415017323661402,21.342991721554348],[77.41576194200205,21.343048024538149],[77.417181652081524,21.342887842495536],[77.41718086406604,21.34296458724754]]]},"properties":{"FID":87,"Id":0,"LGD_CODE":" ","Text":"112"}},{"type":"Feature","id":88,"geometry":{"type":"Polygon","coordinates":[[[77.415017323661402,21.342991721554348],[77.41483986064118,21.343582221913454],[77.413815303268109,21.343430178061464],[77.414210433353375,21.341999016515533],[77.415143085411401,21.341972617102758],[77.415238818108065,21.342303394016909],[77.41522646794256,21.342580510028959],[77.41515954934944,21.342677880247763],[77.415017323661402,21.342991721554348]]]},"properties":{"FID":88,"Id":0,"LGD_CODE":" ","Text":"30"}},{"type":"Feature","id":89,"geometry":{"type":"Polygon","coordinates":[[[77.414210433353375,21.341999016515533],[77.413815303268109,21.343430178061464],[77.412802259250469,21.343291052888514],[77.413319946327022,21.342807859080541],[77.413184203791005,21.342315887594324],[77.413144258914897,21.342278833430498],[77.413141085192294,21.342137215926254],[77.413137929762058,21.341998983952621],[77.413207949868124,21.342029689705701],[77.413386970063414,21.342061011350093],[77.413621113082485,21.342040724694133],[77.413951531065308,21.34200644214026],[77.413979200673509,21.342000669191592],[77.414134583539038,21.342003887750316],[77.414210433353375,21.341999016515533]]]},"properties":{"FID":89,"Id":0,"LGD_CODE":" ","Text":"29"}},{"type":"Feature","id":90,"geometry":{"type":"Polygon","coordinates":[[[77.417008560056445,21.341951403200255],[77.416912930203466,21.34241737971843],[77.416999487012447,21.342721113879982],[77.417181652081638,21.3428878424956],[77.415761942002177,21.343048024538177],[77.415017323661459,21.34299172155437],[77.415159549349426,21.342677880247834],[77.415226467942603,21.342580510028938],[77.415238818108094,21.342303394016827],[77.415143085411501,21.341972617102901],[77.415296022907739,21.341969074974887],[77.415893922776036,21.341954970571184],[77.416379227842185,21.341943652750214],[77.417008560056445,21.341951403200255]]]},"properties":{"FID":90,"Id":0,"LGD_CODE":" ","Text":"1"}},{"type":"Feature","id":91,"geometry":{"type":"Polygon","coordinates":[[[77.419464406796493,21.341860792622871],[77.419127147121017,21.342408605221365],[77.418941913664455,21.343007046358817],[77.41718086406604,21.34296458724754],[77.417181652081524,21.342887842495536],[77.416999487012419,21.342721113879961],[77.416912930203324,21.342417379718501],[77.417008560056345,21.341951403200298],[77.417063963324026,21.341951705846078],[77.417163967424429,21.341959133382883],[77.417416765060267,21.341936496913394],[77.418172186522924,21.341875935106497],[77.418970598097445,21.341858615909953],[77.419464406796493,21.341860792622871]]]},"properties":{"FID":91,"Id":0,"LGD_CODE":" ","Text":"2"}},{"type":"Feature","id":92,"geometry":{"type":"Polygon","coordinates":[[[77.42413147274884,21.341325149847393],[77.424081063032617,21.34223838324079],[77.423853313847687,21.342216331946673],[77.422309686718492,21.34206793023067],[77.421693923848721,21.342008784007554],[77.421695927053037,21.341603062233656],[77.421700087453971,21.340819831135153],[77.421698310103764,21.340604287061449],[77.422553039197979,21.34053533674458],[77.424180738949815,21.340423206100798],[77.42413147274884,21.341325149847393]]]},"properties":{"FID":92,"Id":0,"LGD_CODE":" ","Text":"8"}},{"type":"Feature","id":93,"geometry":{"type":"Polygon","coordinates":[[[77.424180738949815,21.340423206100798],[77.422553039197979,21.34053533674458],[77.422403944128391,21.338704410954808],[77.423046967588476,21.338354326377598],[77.423066407955659,21.338495866960958],[77.423553857433433,21.338548283842993],[77.423745465807272,21.338569379143614],[77.42379212535181,21.338622763276483],[77.424157110202046,21.338744602721441],[77.424150944621957,21.339048776093648],[77.424220711892573,21.339693973954049],[77.424356079045978,21.34033208788529],[77.424182971886424,21.340391031967457],[77.424180738949815,21.340423206100798]]]},"properties":{"FID":93,"Id":0,"LGD_CODE":" ","Text":"10"}},{"type":"Feature","id":94,"geometry":{"type":"Polygon","coordinates":[[[77.425320298165971,21.339583782114833],[77.425202335094667,21.339595629885345],[77.424220711892573,21.339693973954049],[77.424150944621957,21.339048776093648],[77.424157110202046,21.338744602721441],[77.42379212535181,21.338622763276483],[77.423745465807272,21.338569379143614],[77.423553857433433,21.338548283842993],[77.423751297658072,21.337652968692939],[77.423785955654296,21.337493678160715],[77.423797128269072,21.337444533026975],[77.424305409709788,21.337562869108968],[77.424339626646898,21.337763588316918],[77.424369471378682,21.337935550188085],[77.424500705514617,21.338698953714047],[77.425002987847378,21.338710668521784],[77.425182618085287,21.338743669132246],[77.425320298165971,21.339583782114833]]]},"properties":{"FID":94,"Id":0,"LGD_CODE":" ","Text":"11"}},{"type":"Feature","id":95,"geometry":{"type":"Polygon","coordinates":[[[77.425014816130428,21.337570776720305],[77.425046372372208,21.337725237648854],[77.425067423220341,21.337830656838552],[77.425252490912015,21.338747286128569],[77.425182618085287,21.338743669132246],[77.425002987847378,21.338710668521784],[77.424500705514617,21.338698953714047],[77.424369471378682,21.337935550188085],[77.424339626646898,21.337763588316918],[77.424305409709788,21.337562869108968],[77.424563470766358,21.337623146813289],[77.424630998966705,21.337638624896048],[77.425014816130428,21.337570776720305]]]},"properties":{"FID":95,"Id":0,"LGD_CODE":" ","Text":"12"}},{"type":"Feature","id":96,"geometry":{"type":"Polygon","coordinates":[[[77.42572409292417,21.337444948770372],[77.425736040638739,21.33753743282869],[77.425754260301559,21.337675593432799],[77.425898206000497,21.338779757772318],[77.425252490912015,21.338747286128569],[77.425067423220341,21.337830656838552],[77.425046372372208,21.337725237648854],[77.425014816130428,21.337570776720305],[77.42572409292417,21.337444948770372]]]},"properties":{"FID":96,"Id":0,"LGD_CODE":" ","Text":"13"}},{"type":"Feature","id":97,"geometry":{"type":"Polygon","coordinates":[[[77.427302291280384,21.337865138924233],[77.427273359777388,21.338848244038825],[77.425898206000497,21.338779757772318],[77.425754260301559,21.337675593432799],[77.425736040638739,21.33753743282869],[77.42572409292417,21.337444948770372],[77.425900358932836,21.337413637158701],[77.426096477758961,21.337378845759062],[77.426255299146177,21.33735100287101],[77.426556339891633,21.337452264808043],[77.426618479892596,21.33747341077752],[77.42675402783054,21.337484049083454],[77.426919093887562,21.337496803938574],[77.427312432159056,21.337847597946855],[77.427302291280384,21.337865138924233]]]},"properties":{"FID":97,"Id":0,"LGD_CODE":" ","Text":"14"}},{"type":"Feature","id":98,"geometry":{"type":"Polygon","coordinates":[[[77.423797128269072,21.337444533026975],[77.423785955654296,21.337493678160715],[77.423751297658072,21.337652968692939],[77.423553857433433,21.338548283842993],[77.423066407955659,21.338495866960958],[77.423046967588476,21.338354326377598],[77.42300886637004,21.338214003025083],[77.42282133657254,21.338057461593607],[77.422857574077852,21.337856407426582],[77.422856857949199,21.337835532647617],[77.4228518050068,21.337682073876771],[77.423580910951586,21.33732762799966],[77.423765170901703,21.337436785111862],[77.423797128269072,21.337444533026975]]]},"properties":{"FID":98,"Id":0,"LGD_CODE":" ","Text":"15"}},{"type":"Feature","id":99,"geometry":{"type":"Polygon","coordinates":[[[77.422004207362662,21.338945561815997],[77.421915799826905,21.338966295449211],[77.421875202432702,21.338920217672342],[77.421867887131228,21.33890388826261],[77.421844608016926,21.338831207716005],[77.421692069227461,21.338355119217177],[77.421981370752277,21.33818107795549],[77.422239460055906,21.338025805117834],[77.42237330808932,21.33794560685234],[77.422444132180274,21.337902949818165],[77.422463376951214,21.33789834400703],[77.422552382947629,21.337877042993089],[77.422602183851438,21.337844078207898],[77.422710190927475,21.337773595053278],[77.4228518050068,21.337682073876771],[77.422856857949199,21.337835532647617],[77.422857574077852,21.337856407426582],[77.42282133657254,21.338057461593607],[77.42300886637004,21.338214003025083],[77.423046967588476,21.338354326377598],[77.422403944128391,21.338704410954808],[77.422004207362662,21.338945561815997]]]},"properties":{"FID":99,"Id":0,"LGD_CODE":" ","Text":"16"}},{"type":"Feature","id":100,"geometry":{"type":"Polygon","coordinates":[[[77.421698310103764,21.340604287061449],[77.421700087453971,21.340819831135153],[77.419871371057042,21.340732575912746],[77.41977360786187,21.340583506490553],[77.419754978568676,21.339594422576496],[77.420083581212168,21.339448975969688],[77.420139773834151,21.339151901406964],[77.420804920679515,21.338661215271824],[77.42164705869169,21.338935407501527],[77.421729964512195,21.339010062506912],[77.421915799826905,21.338966295449211],[77.422004207362662,21.338945561815997],[77.422014395880566,21.339378311945676],[77.421600937906845,21.339422595237135],[77.421698310103764,21.340604287061449]]]},"properties":{"FID":100,"Id":0,"LGD_CODE":" ","Text":"17"}},{"type":"Feature","id":101,"geometry":{"type":"Polygon","coordinates":[[[77.419906871648337,21.341612674093628],[77.419898084277804,21.341768455071868],[77.419895884362163,21.341806836054303],[77.419706149931741,21.341798706380402],[77.41950485449,21.341768624616517],[77.419416936871414,21.341769040890746],[77.419476843941382,21.339718751499824],[77.419726170662472,21.339390856022384],[77.420000323085119,21.339198832636125],[77.420139773834151,21.339151901406964],[77.420083581212168,21.339448975969688],[77.419754978568676,21.339594422576496],[77.41977360786187,21.340583506490553],[77.419871371057042,21.340732575912746],[77.419742674179403,21.340985415747461],[77.420055905032982,21.341113150537055],[77.419906871648337,21.341612674093628]]]},"properties":{"FID":101,"Id":0,"LGD_CODE":" ","Text":"18"}},{"type":"Feature","id":102,"geometry":{"type":"Polygon","coordinates":[[[77.419416936871414,21.341769040890746],[77.419003242317729,21.341770999121866],[77.419058077243207,21.339562172859253],[77.419123148159301,21.339568636170661],[77.419476843941382,21.339718751499824],[77.419416936871414,21.341769040890746]]]},"properties":{"FID":102,"Id":0,"LGD_CODE":" ","Text":"19"}},{"type":"Feature","id":103,"geometry":{"type":"Polygon","coordinates":[[[77.419003242317729,21.341770999121866],[77.418706971976405,21.341772400977256],[77.418515510825685,21.341778949396577],[77.418515431115367,21.341764278677019],[77.418495542916986,21.340542156799888],[77.418505874375057,21.340337840858716],[77.418546454237315,21.339715819057897],[77.418963481716318,21.339552463602583],[77.419058077243207,21.339562172859253],[77.419003242317729,21.341770999121866]]]},"properties":{"FID":103,"Id":0,"LGD_CODE":" ","Text":"20"}},{"type":"Feature","id":104,"geometry":{"type":"Polygon","coordinates":[[[77.417343014914962,21.340552683100121],[77.417289922816295,21.340534312863756],[77.416679615023938,21.340591365007128],[77.416733216227115,21.34037048098757],[77.4169840948515,21.340327540244395],[77.417001733736356,21.340137860962887],[77.416856641439125,21.340144188788372],[77.416866700130171,21.340000251461628],[77.41703169062589,21.339887746162333],[77.417210507210072,21.339881823192801],[77.417287559345382,21.339765783072359],[77.417432401278674,21.339824347614755],[77.417537993232472,21.339973945608659],[77.417591082119557,21.339991751527499],[77.418505874375057,21.340337840858716],[77.418495542916986,21.340542156799888],[77.417343014914962,21.340552683100121]]]},"properties":{"FID":104,"Id":0,"LGD_CODE":" ","Text":"21"}},{"type":"Feature","id":105,"geometry":{"type":"Polygon","coordinates":[[[77.418515510825685,21.341778949396577],[77.417820108368986,21.341802551160306],[77.417347581154132,21.341838075988974],[77.417347388255379,21.341802527707532],[77.417343014914962,21.340552683100121],[77.418495542916986,21.340542156799888],[77.418515431115367,21.341764278677019],[77.418515510825685,21.341778949396577]]]},"properties":{"FID":105,"Id":0,"LGD_CODE":" ","Text":"22"}},{"type":"Feature","id":106,"geometry":{"type":"Polygon","coordinates":[[[77.417347581154132,21.341838075988974],[77.417135095764209,21.341854314988709],[77.41709898358171,21.341857871171221],[77.417052606860295,21.34185639736382],[77.416903261134976,21.341855974018269],[77.416906690564957,21.341822101453012],[77.416959888624902,21.341637897287878],[77.417007346413541,21.341505633304042],[77.416837260827009,21.341456216084904],[77.416697255925399,21.34129041645123],[77.416643218271716,21.341097690080666],[77.416679615023938,21.340591365007128],[77.417289922816295,21.340534312863756],[77.417343014914962,21.340552683100121],[77.417347388255379,21.341802527707532],[77.417347581154132,21.341838075988974]]]},"properties":{"FID":106,"Id":0,"LGD_CODE":" ","Text":"23"}},{"type":"Feature","id":107,"geometry":{"type":"Polygon","coordinates":[[[77.416903261134976,21.341855974018269],[77.416225183621847,21.341854095941358],[77.415256392665228,21.341878978106482],[77.415232339231054,21.341885298469798],[77.415208646645652,21.341847039575264],[77.415139810962543,21.341367731931882],[77.415418633104579,21.341258077361701],[77.415466241495551,21.34126462421494],[77.416837260827009,21.341456216084904],[77.417007346413541,21.341505633304042],[77.416959888624902,21.341637897287878],[77.416906690564957,21.341822101453012],[77.416903261134976,21.341855974018269]]]},"properties":{"FID":107,"Id":0,"LGD_CODE":" ","Text":"24"}},{"type":"Feature","id":108,"geometry":{"type":"Polygon","coordinates":[[[77.416679615023938,21.340591365007128],[77.416643218271716,21.341097690080666],[77.416697255925399,21.34129041645123],[77.416837260827009,21.341456216084904],[77.415466241495551,21.34126462421494],[77.415542354596525,21.340752469490035],[77.415691226120657,21.339887300252116],[77.415943767112168,21.33981783212506],[77.416030203916961,21.339544315765195],[77.416337562895706,21.339478538425592],[77.416387543172092,21.339589464587103],[77.416449114167307,21.339616823459369],[77.417287559345382,21.339765783072359],[77.417210507210072,21.339881823192801],[77.41703169062589,21.339887746162333],[77.416866700130171,21.340000251461628],[77.416856641439125,21.340144188788372],[77.417001733736356,21.340137860962887],[77.4169840948515,21.340327540244395],[77.416733216227115,21.34037048098757],[77.416679615023938,21.340591365007128]]]},"properties":{"FID":108,"Id":0,"LGD_CODE":" ","Text":"25"}},{"type":"Feature","id":109,"geometry":{"type":"Polygon","coordinates":[[[77.415691226120657,21.339887300252116],[77.415542354596525,21.340752469490035],[77.413704908403432,21.340720495708251],[77.413673290004212,21.340218440970514],[77.413927496689212,21.340011284867501],[77.414878451463252,21.339808182755274],[77.415350294383856,21.339980884200134],[77.415691226120657,21.339887300252116]]]},"properties":{"FID":109,"Id":0,"LGD_CODE":" ","Text":"26"}},{"type":"Feature","id":110,"geometry":{"type":"Polygon","coordinates":[[[77.415232339231054,21.341885298469798],[77.414450112647486,21.34188898341371],[77.414290655027415,21.341911740842647],[77.414099804877338,21.341919974813298],[77.414094049678738,21.341857931893781],[77.414091479270951,21.341828037532281],[77.414085033424072,21.341749633943991],[77.414065007550619,21.341275738866468],[77.413710177138341,21.340803983386845],[77.413704908403432,21.340720495708251],[77.415542354596525,21.340752469490035],[77.415466241495551,21.34126462421494],[77.415418633104579,21.341258077361701],[77.415139810962543,21.341367731931882],[77.415208646645652,21.341847039575264],[77.415232339231054,21.341885298469798]]]},"properties":{"FID":110,"Id":0,"LGD_CODE":" ","Text":"27"}},{"type":"Feature","id":111,"geometry":{"type":"Polygon","coordinates":[[[77.414099804877338,21.341919974813298],[77.413973974477443,21.341925081237061],[77.413870372732148,21.341920490338836],[77.413669942626626,21.341938925874626],[77.413464695067489,21.341957383861278],[77.413373729871125,21.341951040438957],[77.413274154365197,21.341911445371782],[77.413187294704883,21.341884768733603],[77.413197452447548,21.341870049876153],[77.413363604384045,21.341637352355363],[77.414085033424072,21.341749633943991],[77.414091479270951,21.341828037532281],[77.414094049678738,21.341857931893781],[77.414099804877338,21.341919974813298]]]},"properties":{"FID":111,"Id":0,"LGD_CODE":" ","Text":"28"}},{"type":"Feature","id":112,"geometry":{"type":"Polygon","coordinates":[[[77.421695927053037,21.341603062233656],[77.421693923848721,21.342008784007554],[77.420391904979169,21.341883483969426],[77.420252077176798,21.34186157582327],[77.420226764411112,21.341857745749106],[77.419895884362163,21.341806836054303],[77.419898084277804,21.341768455071868],[77.419906871648337,21.341612674093628],[77.421695927053037,21.341603062233656]]]},"properties":{"FID":112,"Id":0,"LGD_CODE":" ","Text":"6"}},{"type":"Feature","id":113,"geometry":{"type":"Polygon","coordinates":[[[77.421695927053037,21.341603062233656],[77.419906871648337,21.341612674093628],[77.420055905032982,21.341113150537055],[77.419742674179403,21.340985415747461],[77.419871371057042,21.340732575912746],[77.421700087453971,21.340819831135153],[77.421695927053037,21.341603062233656]]]},"properties":{"FID":113,"Id":0,"LGD_CODE":" ","Text":"7"}},{"type":"Feature","id":114,"geometry":{"type":"Polygon","coordinates":[[[77.422553039197979,21.34053533674458],[77.421698310103764,21.340604287061449],[77.421600937906845,21.339422595237135],[77.422014395880566,21.339378311945676],[77.422004207362662,21.338945561815997],[77.422403944128391,21.338704410954808],[77.422553039197979,21.34053533674458]]]},"properties":{"FID":114,"Id":0,"LGD_CODE":" ","Text":"9"}}]
}