{
  "type" : "FeatureCollection",
  "features" : [{"type":"Feature","id":0,"geometry":{"type":"LineString","coordinates":[[77.40112532776709,21.353027068018807],[77.401624722317706,21.35275774632867],[77.401896580054782,21.352646228076509],[77.402143237190572,21.352475150921439],[77.402383977338673,21.352352506674432],[77.40333515290412,21.35219850880965],[77.404100762016029,21.352090673493656],[77.404359663660856,21.352031591269494],[77.40486414261558,21.351962471605983],[77.405590860720324,21.3518749688856],[77.405753465273818,21.351858095028245],[77.406186493203165,21.351955835946342],[77.406518012720852,21.351979782549549],[77.40685509230569,21.352020391449237],[77.407188096835569,21.352057912140943],[77.407488128482953,21.352067338689395],[77.407957421427753,21.352018243147221],[77.408424123747793,21.351979634316432],[77.408664882753797,21.351959716561783],[77.408758021644559,21.35195181753749],[77.408829882383614,21.351959570726585]]},"properties":{"FID":0,"LGD_CODE":"531855","ROAD_TYPE":"C"}},{"type":"Feature","id":1,"geometry":{"type":"LineString","coordinates":[[77.410131710414873,21.345210467180866],[77.409984038769082,21.345508669921028],[77.409913329839483,21.345648078352536],[77.409893378156269,21.345841504962316],[77.409965279641142,21.346020482763102],[77.410019050937436,21.346272876525678],[77.410051341872446,21.346533896667225],[77.410144388525794,21.346837833952797],[77.410263371409073,21.347173870939734],[77.410301948280775,21.347389851509369],[77.410322350593631,21.34750802334343],[77.410408353176393,21.347781722129803],[77.410480292112226,21.348097679356027],[77.41059892367511,21.348498811904879],[77.410645625010801,21.348618232226396],[77.410645625010801,21.348618232226396]]},"properties":{"FID":1,"LGD_CODE":"531855","ROAD_TYPE":"C"}},{"type":"Feature","id":2,"geometry":{"type":"LineString","coordinates":[[77.414896172519548,21.342736830745796],[77.414684835334,21.343264582951715],[77.414534525912543,21.343496195632756],[77.414473096319739,21.343686206461907],[77.414404659633604,21.343982958825421],[77.414371442526019,21.344396656156263],[77.414341176719091,21.344769014425115],[77.414317575750076,21.345133971917083],[77.414256174648145,21.34542671737314],[77.414251053636335,21.345653162700632],[77.414220777939747,21.345991276061763],[77.414222761482947,21.346453428593787]]},"properties":{"FID":2,"LGD_CODE":"531855","ROAD_TYPE":"C"}},{"type":"Feature","id":3,"geometry":{"type":"LineString","coordinates":[[77.41414831372704,21.346456165525847],[77.414176175153273,21.346744947898767],[77.414154039940541,21.347054990983814],[77.414131855927948,21.347193809667477],[77.414125288492855,21.347543659104279],[77.41412723312169,21.347868832084348],[77.414182517437141,21.348203288797688],[77.414205200196719,21.348513047160431],[77.414236062996665,21.348931714660139],[77.414285748081866,21.349112529181124]]},"properties":{"FID":3,"LGD_CODE":"531855","ROAD_TYPE":"C"}},{"type":"Feature","id":4,"geometry":{"type":"LineString","coordinates":[[77.414071323315326,21.349236437143809],[77.414051777808808,21.349535992144585],[77.414033698200939,21.349780632713877],[77.413936732110315,21.350055774014503],[77.413747157948833,21.350304333860063],[77.413642372994218,21.350439714866262],[77.41361536059587,21.350534413734913],[77.413608650569543,21.350928355109907]]},"properties":{"FID":4,"LGD_CODE":"531855","ROAD_TYPE":"C"}},{"type":"Feature","id":5,"geometry":{"type":"LineString","coordinates":[[77.413608650569543,21.350928355109907],[77.413647615972636,21.35137465419616],[77.41367400285155,21.351684106040207],[77.413674510873975,21.352166927943088],[77.413686815109216,21.352450148730259],[77.413677970540704,21.352608410780196],[77.413682876763289,21.352926489498774],[77.413666653624134,21.353188099230309]]},"properties":{"FID":5,"LGD_CODE":"531855","ROAD_TYPE":"C"}},{"type":"Feature","id":6,"geometry":{"type":"LineString","coordinates":[[77.416481517684687,21.350292170790908],[77.416113433674269,21.350415082168944],[77.415686028679957,21.350539498511655],[77.415319722341565,21.350607488176621],[77.414641914620802,21.350697834365278],[77.414218944035383,21.350794483423279],[77.413885981197296,21.35089395601279],[77.413388178183098,21.350955701380236],[77.412829997434301,21.351012168101867],[77.412266264823344,21.35108621518901],[77.411732905786792,21.351164596180688],[77.411251029951842,21.351235290936934],[77.410681001226848,21.351320127353343],[77.410319525334245,21.351466471461968],[77.409718068449934,21.351776501907192],[77.40943622145781,21.351899133037456],[77.409053235143048,21.35195136615517],[77.408829882383614,21.351959570726585]]},"properties":{"FID":6,"LGD_CODE":"531855","ROAD_TYPE":"C"}},{"type":"Feature","id":7,"geometry":{"type":"LineString","coordinates":[[77.415698832584624,21.339457698609774],[77.415995712504625,21.339666434129359],[77.416112422380778,21.33981087926924],[77.416245834082716,21.340073801734174],[77.41639070843685,21.34027070842555],[77.416591880990367,21.340469803990267],[77.416687102738365,21.340588630890476],[77.416861989204236,21.340820723139139],[77.417033894884739,21.340991419663304],[77.417258776914053,21.34120225000181],[77.417514764309189,21.341389957636711],[77.417776281644251,21.341491592895999],[77.418007798457879,21.341592286788156],[77.418070410677061,21.341652170175916]]},"properties":{"FID":7,"LGD_CODE":"531855","ROAD_TYPE":"C"}},{"type":"Feature","id":8,"geometry":{"type":"LineString","coordinates":[[77.413934043877362,21.341726413817963],[77.413430172125729,21.341763990405465]]},"properties":{"FID":8,"LGD_CODE":"531855","ROAD_TYPE":"A"}},{"type":"Feature","id":9,"geometry":{"type":"LineString","coordinates":[[77.413430172125729,21.341763990405465],[77.412847044188652,21.341664908816249]]},"properties":{"FID":9,"LGD_CODE":"531855","ROAD_TYPE":"A"}},{"type":"Feature","id":10,"geometry":{"type":"LineString","coordinates":[[77.419720339375544,21.341682715326215],[77.420090651383603,21.341668065505392]]},"properties":{"FID":10,"LGD_CODE":"531855","ROAD_TYPE":"A"}},{"type":"Feature","id":11,"geometry":{"type":"LineString","coordinates":[[77.420090651383603,21.341668065505392],[77.420296582337031,21.341671562173488],[77.420469923127797,21.341684606253857],[77.421054416495167,21.341800588438744],[77.42128554160044,21.341829394292873],[77.421555560990257,21.341872101965727]]},"properties":{"FID":11,"LGD_CODE":"531855","ROAD_TYPE":"B"}},{"type":"Feature","id":12,"geometry":{"type":"LineString","coordinates":[[77.420080641946313,21.341781803066642],[77.420258128398601,21.341739713030211],[77.420980400813775,21.341851136649343],[77.421554896217302,21.342002520336063]]},"properties":{"FID":12,"LGD_CODE":"531855","ROAD_TYPE":"B"}},{"type":"Feature","id":13,"geometry":{"type":"LineString","coordinates":[[77.419916858454414,21.33904093495763],[77.42005487984153,21.339141371415618],[77.420602786553985,21.339537774576602],[77.420761365901029,21.339723268930722],[77.420958129806962,21.340018612110448],[77.42138051248233,21.34049732218455],[77.421639846620167,21.340715567423647],[77.422526385631045,21.341405831939241],[77.42336399497286,21.341956312050968],[77.42375308548516,21.342253460441132]]},"properties":{"FID":13,"LGD_CODE":"531855","ROAD_TYPE":"C"}},{"type":"Feature","id":14,"geometry":{"type":"LineString","coordinates":[[77.415842662371986,21.349477329424239],[77.415320849241397,21.349449310880726]]},"properties":{"FID":14,"LGD_CODE":"531855","ROAD_TYPE":"A"}},{"type":"Feature","id":15,"geometry":{"type":"LineString","coordinates":[[77.412684323451899,21.347999749492587],[77.412519295717459,21.347847514176316]]},"properties":{"FID":15,"LGD_CODE":"531855","ROAD_TYPE":"A"}},{"type":"Feature","id":16,"geometry":{"type":"LineString","coordinates":[[77.413099807676829,21.348214859707852],[77.41261415395239,21.347789592748743]]},"properties":{"FID":16,"LGD_CODE":"531855","ROAD_TYPE":"A"}},{"type":"Feature","id":17,"geometry":{"type":"LineString","coordinates":[[77.401128042045656,21.353107628411856],[77.401722471664939,21.352892292704382],[77.40205772594615,21.353052922203933],[77.402211090280062,21.353122430108535],[77.402367402193846,21.353116353607867],[77.40277375486167,21.35317521441047],[77.402991194333552,21.353215450932044],[77.403420120552937,21.35317313084467],[77.403999798335917,21.353108068643856],[77.404240923961311,21.3530573057967],[77.404528732462566,21.353057474840629],[77.404987811973825,21.35309860146959]]},"properties":{"FID":17,"LGD_CODE":"531855","ROAD_TYPE":"C"}},{"type":"Feature","id":18,"geometry":{"type":"LineString","coordinates":[[77.415864311897863,21.349366132719037],[77.415460294547927,21.349327683009591],[77.414737198279013,21.349245020893221],[77.414345393804098,21.349124991579476]]},"properties":{"FID":18,"LGD_CODE":"531855","ROAD_TYPE":"A"}},{"type":"Feature","id":19,"geometry":{"type":"LineString","coordinates":[[77.414345393804098,21.349124991579476],[77.413774506154311,21.348950098077989],[77.41348696310466,21.348542399392834],[77.413099807676829,21.348214859707852]]},"properties":{"FID":19,"LGD_CODE":"531855","ROAD_TYPE":"A"}},{"type":"Feature","id":20,"geometry":{"type":"LineString","coordinates":[[77.415320849241397,21.349449310880726],[77.414810710957653,21.349351155712334]]},"properties":{"FID":20,"LGD_CODE":"531855","ROAD_TYPE":"A"}},{"type":"Feature","id":21,"geometry":{"type":"LineString","coordinates":[[77.414810710957653,21.349351155712334],[77.414186312489008,21.349277583717612]]},"properties":{"FID":21,"LGD_CODE":"531855","ROAD_TYPE":"A"}},{"type":"Feature","id":22,"geometry":{"type":"LineString","coordinates":[[77.414186312489008,21.349277583717612],[77.414071323315326,21.349236437143809],[77.413667651977931,21.349062178240501],[77.413420259320034,21.348673129775001]]},"properties":{"FID":22,"LGD_CODE":"531855","ROAD_TYPE":"A"}},{"type":"Feature","id":23,"geometry":{"type":"LineString","coordinates":[[77.413420259320034,21.348673129775001],[77.412684323451899,21.347999749492587]]},"properties":{"FID":23,"LGD_CODE":"531855","ROAD_TYPE":"A"}},{"type":"Feature","id":24,"geometry":{"type":"LineString","coordinates":[[77.416663947258186,21.341773675602326],[77.416983940169374,21.341726639809231],[77.418059887688443,21.341723184720887],[77.418317300110047,21.341682080872566]]},"properties":{"FID":24,"LGD_CODE":"531855","ROAD_TYPE":"A"}},{"type":"Feature","id":25,"geometry":{"type":"LineString","coordinates":[[77.418317300110047,21.341682080872566],[77.418416173725277,21.341666292534988],[77.418810885150236,21.341674648030775]]},"properties":{"FID":25,"LGD_CODE":"531855","ROAD_TYPE":"A"}},{"type":"Feature","id":26,"geometry":{"type":"LineString","coordinates":[[77.418810885150236,21.341674648030775],[77.419231646086061,21.341683553932825]]},"properties":{"FID":26,"LGD_CODE":"531855","ROAD_TYPE":"A"}},{"type":"Feature","id":27,"geometry":{"type":"LineString","coordinates":[[77.419231646086061,21.341683553932825],[77.419536203267356,21.341689999584716],[77.419720339375544,21.341682715326215]]},"properties":{"FID":27,"LGD_CODE":"531855","ROAD_TYPE":"A"}},{"type":"Feature","id":28,"geometry":{"type":"LineString","coordinates":[[77.420080641946313,21.341781803066642],[77.419666719380913,21.341786625373608]]},"properties":{"FID":28,"LGD_CODE":"531855","ROAD_TYPE":"A"}},{"type":"Feature","id":29,"geometry":{"type":"LineString","coordinates":[[77.419666719380913,21.341786625373608],[77.419240157710192,21.341791593862073]]},"properties":{"FID":29,"LGD_CODE":"531855","ROAD_TYPE":"A"}},{"type":"Feature","id":30,"geometry":{"type":"LineString","coordinates":[[77.419240157710192,21.341791593862073],[77.419217061670409,21.341791862848318],[77.418352606657734,21.341815486931662],[77.418068908439707,21.341852671523622],[77.416777413147472,21.34190136589746],[77.416753792832012,21.341907245654578]]},"properties":{"FID":30,"LGD_CODE":"531855","ROAD_TYPE":"A"}},{"type":"Feature","id":31,"geometry":{"type":"LineString","coordinates":[[77.416753792832012,21.341907245654578],[77.416639028448756,21.341935813666517],[77.415649963003716,21.341844008799747],[77.415637372579411,21.341843638647859]]},"properties":{"FID":31,"LGD_CODE":"531855","ROAD_TYPE":"A"}},{"type":"Feature","id":32,"geometry":{"type":"LineString","coordinates":[[77.415637372579411,21.341843638647859],[77.415436252584215,21.341837725696326],[77.414945487558583,21.341792731222881],[77.414911560400483,21.341790506818828]]},"properties":{"FID":32,"LGD_CODE":"531855","ROAD_TYPE":"A"}},{"type":"Feature","id":33,"geometry":{"type":"LineString","coordinates":[[77.414911560400483,21.341790506818828],[77.413934043877362,21.341726413817963]]},"properties":{"FID":33,"LGD_CODE":"531855","ROAD_TYPE":"A"}},{"type":"Feature","id":34,"geometry":{"type":"LineString","coordinates":[[77.412905355076404,21.341553228407584],[77.413364947408752,21.341646049804744],[77.413827820941378,21.341658566910372]]},"properties":{"FID":34,"LGD_CODE":"531855","ROAD_TYPE":"A"}},{"type":"Feature","id":35,"geometry":{"type":"LineString","coordinates":[[77.413827820941378,21.341658566910372],[77.415017960654907,21.341690744983378]]},"properties":{"FID":35,"LGD_CODE":"531855","ROAD_TYPE":"A"}},{"type":"Feature","id":36,"geometry":{"type":"LineString","coordinates":[[77.415017960654907,21.341690744983378],[77.416663947258186,21.341773675602326]]},"properties":{"FID":36,"LGD_CODE":"531855","ROAD_TYPE":"A"}}]
}